{"type":"FeatureCollection","features":[
{"type":"Feature","properties":{"name":"CCA Paris-Orly Background","fillStyle":{"color":[81,81,81],"opacity":1.0},"lineStyle":{"color":[81,81,81],"width":1}},"geometry":{"type":"MultiPolygon","coordinates":[[[[-22.403854,58.194856],[24.577826,58.194856],[24.577826,27.612118],[-22.472742,27.612118],[-22.403854,58.194856]]]]}},
{"type":"Feature","properties":{"name":"EGA Paris Outline","lineStyle":{"color":[125,112,106],"width":1}},"geometry":{"type":"MultiLineString","coordinates":[[[1.468056,49.2525],[1.570556,49.3],[1.613056,49.380278],[1.606389,49.455556],[1.663333,49.536944],[1.975547,49.499041],[2.5,49.433333],[2.602778,49.471389],[2.645345,49.48712],[2.708889,49.510556],[2.743889,49.635278],[2.782778,49.674167],[2.976389,49.6025],[3.105833,49.611944],[3.236389,49.666667],[3.351619,49.689043],[3.484722,49.714722],[3.632222,49.45],[3.683056,49.268611],[3.719724,49.223298],[3.739444,49.198889],[3.738889,49.158333],[3.661667,49.105833],[3.660338,49.002752],[3.656944,48.736667],[3.656389,48.700556],[3.73,48.683889],[3.781667,48.672222],[3.853056,48.639444],[3.81,48.600278],[3.637778,48.456944],[3.522481,48.388742],[3.424411,48.330494],[3.088275,48.131434],[3.048611,48.107778],[2.906667,48.273611],[1.897222,48.297222],[1.780982,48.131275],[1.752778,48.090833],[1.726944,48.06],[1.709167,48.049444],[1.619167,48.023056],[1.459722,48.131389],[1.393138,48.323946],[1.380513,48.360284],[1.327222,48.513056],[1.286111,48.657222],[1.374164,48.688009],[1.425278,48.705833],[1.419167,48.917222],[1.495278,49.101111],[1.488611,49.138611],[1.468056,49.2525]]]}},
{"type":"Feature","properties":{"name":"Orly Outline Dash","lineStyle":{"color":[125,112,106],"width":1,"dashArray":[9.0,9.0]}},"geometry":{"type":"MultiLineString","coordinates":[[[1.425278,48.705833],[1.576111,48.606667],[1.676111,48.546667],[1.885278,48.429444],[2.395833,48.406389],[2.489167,48.505],[2.685278,48.483333],[2.847222,48.522222],[2.98,48.777778],[3.093056,48.845833],[3.238889,48.848333],[3.164722,49.383333],[3.157778,49.4375],[2.708889,49.510556],[2.5,49.433333],[2.243723,49.340861],[2.165833,49.3125],[2.055833,49.32],[1.899167,49.389444],[1.8525,49.41],[1.723056,49.375278],[1.606111,49.059722],[1.425278,48.705833]],[[1.576111,48.606667],[1.552222,48.498333],[1.753889,48.376944],[1.871944,48.3775],[2.747222,48.377222],[2.885,48.376667],[3.158611,48.608056],[3.656944,48.736667]],[[1.676111,48.546667],[1.871944,48.3775]],[[2.747222,48.377222],[2.813333,48.455833],[3.123889,48.6275],[3.084444,48.699167],[3.213056,48.790278],[3.500833,48.809722],[3.483333,49.033333]],[[3.483333,49.033333],[3.374167,49.315589],[3.164722,49.383333]],[[1.676111,48.546667],[1.695833,48.621667],[1.739444,48.7875],[1.768889,48.899167],[1.742222,49.021111],[1.899167,49.389444]]]}},
{"type":"Feature","properties":{"name":"Paris-Orly Airspace TMA","lineStyle":{"color":[125,112,106],"width":1,"dashArray":[9.0,9.0]},"activation":{"activeRunways":{"LFPO":{"arr":["25"],"dep":["24"]}},"unactiveRunway":{"LFPG":{"arr":["08R","09L"],"dep":["08L","09R"]}}}},"geometry":{"type":"MultiLineString","coordinates":[[[3.245729,48.515774],[3.309715,48.560691],[3.286164,48.699887],[3.064787,48.877657],[3.039891,48.889604],[3.02576,48.892701],[2.410748,48.89801],[2.393651,48.898266]]]}},
{"type":"Feature","properties":{"name":"Paris-Orly Airspace TMA","lineStyle":{"color":[125,112,106],"width":1,"dashArray":[9.0,9.0]},"activation":{"activeRunways":{"LFPO":{"arr":["25"],"dep":["24"]}},"unactiveRunway":{"LFPG":{"arr":["26L","27R"],"dep":["26R","27L"]}}}},"geometry":{"type":"MultiLineString","coordinates":[[[1.419167,48.917222],[1.532546,48.78926],[1.711532,48.748458],[2.025767,48.765315]],[[3.245729,48.515774],[3.309715,48.560691],[3.286164,48.699887],[3.064787,48.877657],[3.02576,48.892701],[2.393438,48.898154]]]}},
{"type":"Feature","properties":{"name":"Paris-Orly VPE ILS 06","lineStyle":{"color":[125,112,106],"width":1},"activation":{"activeRunways":{"LFPO":{"arr":["04"]}}}},"geometry":{"type":"MultiLineString","coordinates":[[[2.291511,48.71401],[2.294707,48.708681],[2.139467,48.650802],[2.121609,48.644139],[2.109497,48.657588],[2.127928,48.663304],[2.291511,48.71401]]]}},
{"type":"Feature","properties":{"name":"Paris-Orly VPE ILS 06","lineStyle":{"color":[125,112,106],"width":1},"activation":{"activeRunways":{"LFPO":{"arr":["06"]}}}},"geometry":{"type":"MultiLineString","coordinates":[[[2.127928,48.663304],[2.139467,48.650802]]]}},
{"type":"Feature","properties":{"name":"Paris-Orly VPE DEP 07","lineStyle":{"color":[125,112,106],"width":1},"activation":{"activeRunways":{"LFPO":{"dep":["07"]}}}},"geometry":{"type":"MultiLineString","coordinates":[[[2.366873,48.720936],[2.486982,48.751784],[2.497916,48.753115],[2.508514,48.75367],[2.523653,48.749898],[2.554942,48.754779],[2.560157,48.73381],[2.485131,48.734032],[2.450478,48.731923],[2.366873,48.720936]]]}},
{"type":"Feature","properties":{"name":"Paris-Orly VPE ILS 25","lineStyle":{"color":[125,112,106],"width":1},"activation":{"activeRunways":{"LFPO":{"arr":["25"]}}}},"geometry":{"type":"MultiLineString","coordinates":[[[2.425047,48.728743],[2.592192,48.755667],[2.615135,48.759362],[2.607566,48.774664],[2.586538,48.770119],[2.423028,48.733848],[2.425047,48.728743]],[[2.586538,48.770119],[2.592192,48.755667]]]}},
{"type":"Feature","properties":{"name":"Paris-Orly VPE DEP 24","lineStyle":{"color":[125,112,106],"width":1},"activation":{"activeRunways":{"LFPO":{"dep":["24"]}}}},"geometry":{"type":"MultiLineString","coordinates":[[[2.219987,48.651121],[2.192231,48.684673],[2.270453,48.710544],[2.340769,48.728302],[2.298041,48.709323],[2.227557,48.668344],[2.224361,48.664233],[2.222679,48.660122],[2.219987,48.651121]]]}},
{"type":"Feature","properties":{"name":"EGA Paris Runways","lineStyle":{"color":[125,112,106],"width":1}},"geometry":{"type":"MultiLineString","coordinates":[[[2.524892,49.024719],[2.561692,49.026694]],[[2.513058,49.020617],[2.570308,49.02371]],[[2.552744,48.995686],[2.609268,48.998707]],[[2.565661,48.992914],[2.602436,48.994878]],[[2.424064,48.96485],[2.446881,48.970969]],[[2.440606,48.968264],[2.428383,48.950878]],[[2.420403,48.963681],[2.445547,48.965053]],[[2.026403,49.101656],[2.04345,49.095675]],[[2.027397,49.087767],[2.042,49.097481]],[[2.104358,49.458094],[2.131733,49.446206]],[[2.116814,49.457369],[2.123283,49.462139]],[[2.320514,48.721247],[2.360678,48.735456]],[[2.358592,48.719408],[2.396392,48.726383]],[[2.376703,48.717547],[2.386975,48.738025]],[[2.213933,48.774606],[2.189275,48.774128]],[[2.098725,48.751206],[2.1129,48.754392]],[[2.113261,48.752575],[2.101803,48.749997]],[[2.663286,48.606478],[2.688206,48.602508]],[[2.674975,48.617583],[2.671078,48.606164]],[[2.621325,48.820589],[2.630742,48.821503]],[[2.619889,48.819083],[2.630433,48.820111]],[[2.065442,48.813725],[2.071517,48.812017]],[[2.064206,48.8129],[2.071469,48.810858]],[[2.189275,48.774128],[2.213933,48.774606]]]}},
{"type":"Feature","properties":{"uuid":"Paris-Orly Configuration Text","textStyle":{"color":[125,112,106],"fontFamily":"Arial","fontSize":10,"fontWeight":600,"text":"EST LIE"},"activation":{"activeRunways":{"LFPO":{"arr":["06"],"dep":["07"]}},"unactiveRunway":{"LFPG":{"arr":["26L","27R"],"dep":["26R","27L"]}}}},"geometry":{"type":"MultiPoint","coordinates":[[2.369768,48.198697]]}},
{"type":"Feature","properties":{"uuid":"Paris-Orly Configuration Text","textStyle":{"color":[125,112,106],"fontFamily":"Arial","fontSize":10,"fontWeight":600,"text":"OUEST LIE"},"activation":{"activeRunways":{"LFPO":{"arr":["25"],"dep":["24"]}},"unactiveRunway":{"LFPG":{"arr":["08R","09L"],"dep":["08L","09R"]}}}},"geometry":{"type":"MultiPoint","coordinates":[[2.369768,48.198697]]}},
{"type":"Feature","properties":{"uuid":"Paris-Orly Configuration Text","textStyle":{"color":[125,112,106],"fontFamily":"Arial","fontSize":10,"fontWeight":600,"text":"IPGW"},"activation":{"activeRunways":{"LFPO":{"arr":["06"],"dep":["07"]}},"unactiveRunway":{"LFPG":{"arr":["08R","09L"],"dep":["08L","09R"]}}}},"geometry":{"type":"MultiPoint","coordinates":[[2.369768,48.198697]]}},
{"type":"Feature","properties":{"uuid":"Paris-Orly Configuration Text","textStyle":{"color":[125,112,106],"fontFamily":"Arial","fontSize":10,"fontWeight":600,"text":"IPOW"},"activation":{"activeRunways":{"LFPO":{"arr":["25"],"dep":["24"]}},"unactiveRunway":{"LFPG":{"arr":["26L","27R"],"dep":["26R","27L"]}}}},"geometry":{"type":"MultiPoint","coordinates":[[2.369768,48.198697]]}},
{"type":"Feature","properties":{"name":"Paris-Orly Proceure Lines","lineStyle":{"color":[125,112,106],"width":1,"dashArray":[2.0,2.0]},"activation":{"activeRunways":{"LFPO":{"arr":["06"],"dep":["07"]}},"unactiveRunway":{"LFPG":{"arr":["26L","27R"],"dep":["26R","27L"]}}}},"geometry":{"type":"MultiLineString","coordinates":[[[1.5055,48.574194],[1.639776,48.747134],[1.76003,48.781295]],[[1.835584,48.665652],[1.76107,48.673505]],[[1.390834,48.330578],[1.551629,48.381547],[1.756857,48.509202]],[[2.086888,48.716684],[2.151837,48.692309]],[[2.147303,48.636088],[2.230564,48.628308]],[[2.310973,48.78173],[2.362785,48.744028]],[[2.33587,48.800348],[2.413924,48.805666]],[[2.633955,48.804337],[2.706773,48.793929]],[[2.853314,48.775078],[2.933554,48.766425],[2.849949,48.759999]]]}},
{"type":"Feature","properties":{"name":"Paris-Orly Proceure Lines","lineStyle":{"color":[125,112,106],"width":1,"dashArray":[2.0,2.0]},"activation":{"activeRunways":{"LFPO":{"arr":["25"],"dep":["24"]}},"unactiveRunway":{"LFPG":{"arr":["08R","09L"],"dep":["08L","09R"]}}}},"geometry":{"type":"MultiLineString","coordinates":[[[1.5055,48.574194],[1.969844,48.886507]],[[1.920145,48.646214],[1.990199,48.630893]]]}},
{"type":"Feature","properties":{"name":"Paris-Orly Proceure Lines","lineStyle":{"color":[125,112,106],"width":1,"dashArray":[2.0,2.0]},"activation":{"activeRunways":{"LFPO":{"arr":["25"],"dep":["24"]}},"unactiveRunway":{"LFPG":{"arr":["26L","27R"],"dep":["26R","27L"]}}}},"geometry":{"type":"MultiLineString","coordinates":[[[1.51937,48.740939],[1.594451,48.725437]],[[1.5055,48.574194],[1.640207,48.747183],[1.759979,48.781335]],[[2.333609,48.805493],[2.412,48.808152]]]}},
{"type":"Feature","properties":{"name":"Paris-Orly Proceure Lines","lineStyle":{"color":[125,112,106],"width":1,"dashArray":[2.0,2.0]},"activation":{"activeRunways":{"LFPO":{"arr":["06"],"dep":["07"]}},"unactiveRunway":{"LFPG":{"arr":["08R","09L"],"dep":["08L","09R"]}}}},"geometry":{"type":"MultiLineString","coordinates":[[[1.5055,48.574194],[1.97005,48.886286]],[[1.920047,48.665958],[1.991703,48.650836]],[[2.898828,48.779838],[2.973128,48.77264],[2.897482,48.765426]]]}},
{"type":"Feature","properties":{"name":"Paris-Orly Procedure Lines","lineStyle":{"color":[125,112,106],"width":1},"activation":{"activeRunways":{"LFPO":{"arr":["06"],"dep":["07"]}},"unactiveRunway":{"LFPG":{"arr":["26L","27R"],"dep":["26R","27L"]}}}},"geometry":{"type":"MultiLineString","coordinates":[[[1.500511,48.904202],[1.49859,48.849607]],[[1.457447,48.70566],[1.535501,48.69589],[1.494455,48.741615]],[[1.60548,48.740728],[1.64989,48.71898]],[[1.557033,48.670568],[1.596733,48.651457]],[[1.764784,48.690782],[1.757383,48.656346]],[[2.100551,48.731852],[2.072963,48.701219]],[[2.639265,48.459912],[2.813278,48.455778]],[[2.641283,48.406338],[2.890249,48.406784]],[[2.712198,48.809904],[2.700759,48.776215]],[[2.931557,48.783753],[2.935594,48.748715]],[[2.152434,48.655639],[2.142753,48.618745]]]}},
{"type":"Feature","properties":{"name":"Paris-Orly Procedure Lines","lineStyle":{"color":[125,112,106],"width":1},"activation":{"activeRunways":{"LFPO":{"arr":["25"],"dep":["24"]}},"unactiveRunway":{"LFPG":{"arr":["08R","09L"],"dep":["08L","09R"]}}}},"geometry":{"type":"MultiLineString","coordinates":[[[1.728142,48.392458],[1.975164,48.40221]],[[1.881889,48.545139],[2.375191,48.575466]],[[1.928399,48.664427],[1.912586,48.629528]],[[2.227494,48.677758],[2.217401,48.633531],[2.257101,48.596608]],[[2.320688,48.535827],[2.373509,48.495712],[2.451226,48.494374]],[[2.770171,48.516219],[2.840487,48.53204],[2.899027,48.56567]],[[1.44729,48.789486],[1.489177,48.747131],[1.411796,48.750903]]]}},
{"type":"Feature","properties":{"name":"Paris-Orly Procedure Lines","lineStyle":{"color":[125,112,106],"width":1},"activation":{"activeRunways":{"LFPO":{"arr":["25"],"dep":["24"]}},"unactiveRunway":{"LFPG":{"arr":["26L","27R"],"dep":["26R","27L"]}}}},"geometry":{"type":"MultiLineString","coordinates":[[[2.413814,48.843514],[3.010894,48.838337],[3.212421,48.675536],[3.245729,48.515774],[3.430989,48.334403]],[[1.728142,48.392458],[1.975164,48.40221]],[[1.411796,48.750903],[1.489177,48.747131],[1.44729,48.789486]],[[1.528845,48.757109],[1.511687,48.727823]],[[1.881889,48.545139],[2.375191,48.575466]],[[2.227494,48.677758],[2.217401,48.633531],[2.257101,48.596608]],[[2.320688,48.535827],[2.373509,48.495712],[2.451226,48.494374]],[[2.770171,48.516219],[2.840487,48.53204],[2.899027,48.56567]],[[2.000197,48.908646],[2.017872,48.911589]],[[2.032259,48.913986],[2.049318,48.916827]]]}},
{"type":"Feature","properties":{"name":"Paris-Orly Procedure Lines","lineStyle":{"color":[125,112,106],"width":1},"activation":{"activeRunways":{"LFPO":{"arr":["06"],"dep":["07"]}},"unactiveRunway":{"LFPG":{"arr":["08R","09L"],"dep":["08L","09R"]}}}},"geometry":{"type":"MultiLineString","coordinates":[[[1.411796,48.750903],[1.489177,48.747131],[1.44729,48.789486]],[[1.926181,48.681308],[1.913396,48.64931]],[[2.04343,48.733371],[2.150418,48.694301]],[[2.639265,48.459912],[2.813278,48.455778]],[[2.641283,48.406338],[2.890249,48.406784]],[[2.967966,48.788373],[2.978732,48.755556]],[[3.238464,48.80566],[3.245529,48.773741]]]}},
{"type":"Feature","properties":{"name":"Paris-Orly ILS 06","lineStyle":{"color":[125,112,106],"width":1,"dashArray":[2.0,2.0]},"activation":{"activeRunways":{"LFPO":{"arr":["06"]}}}},"geometry":{"type":"MultiLineString","coordinates":[[[2.004722,48.609388],[1.783673,48.531009]],[[1.942216,48.595928],[1.957894,48.592794],[1.952955,48.581983]]]}},
{"type":"Feature","properties":{"name":"Paris-Orly ILS 07","lineStyle":{"color":[125,112,106],"width":1,"dashArray":[2.0,2.0]},"activation":{"activeRunways":{"LFPO":{"arr":["07"]}}}},"geometry":{"type":"MultiLineString","coordinates":[[[1.753698,48.605796],[2.064165,48.664541]],[[2.016362,48.665501],[2.034152,48.658929],[2.024232,48.647145]]]}},
{"type":"Feature","properties":{"name":"Paris-Orly RNP 02","lineStyle":{"color":[125,112,106],"width":1,"dashArray":[2.0,2.0]},"activation":{"activeRunways":{"LFPO":{"arr":["02"]}}}},"geometry":{"type":"MultiLineString","coordinates":[[[2.281056,48.525991],[2.180029,48.322045]],[[2.253076,48.500143],[2.271211,48.506213],[2.280341,48.49416]]]}},
{"type":"Feature","properties":{"name":"Paris-Orly RNP 02","lineStyle":{"color":[125,112,106],"width":1},"activation":{"activeRunways":{"LFPO":{"arr":["02"]}}}},"geometry":{"type":"MultiLineString","coordinates":[[[2.368772,48.701729],[2.360852,48.685915]],[[2.352936,48.670101],[2.345026,48.654286]],[[2.33712,48.638471],[2.32922,48.622655]],[[2.310583,48.585306],[2.29482,48.55367],[2.281056,48.525991]],[[2.276664,48.547604],[2.29482,48.55367],[2.303953,48.541616]]]}},
{"type":"Feature","properties":{"name":"Paris-Orly ILS 06","lineStyle":{"color":[125,112,106],"width":1},"activation":{"activeRunways":{"LFPO":{"arr":["06"]}}}},"geometry":{"type":"MultiLineString","coordinates":[[[2.292903,48.711467],[2.270066,48.703378]],[[2.250267,48.696364],[2.226845,48.688068]],[[2.207666,48.681275],[2.183991,48.672888]],[[2.134959,48.65552],[2.117061,48.64918]],[[2.104795,48.644836],[2.090433,48.639749]],[[2.074723,48.634184],[2.021632,48.615379],[2.004722,48.609388]],[[2.007309,48.618241],[2.021632,48.615379],[2.017591,48.606539]]]}},
{"type":"Feature","properties":{"name":"Paris-Orly ILS 07","lineStyle":{"color":[125,112,106],"width":1},"activation":{"activeRunways":{"LFPO":{"arr":["07"]}}}},"geometry":{"type":"MultiLineString","coordinates":[[[2.064165,48.664541],[2.106748,48.672553],[2.1555,48.681667]],[[2.088962,48.679137],[2.106748,48.672553],[2.096808,48.660775]],[[2.213166,48.69243],[2.237393,48.696939]],[[2.261624,48.701443],[2.285859,48.705942]],[[2.310099,48.710436],[2.334343,48.714924]]]}},
{"type":"Feature","properties":{"name":"Paris-Orly ILS 25","lineStyle":{"color":[125,112,106],"width":1},"activation":{"activeRunways":{"LFPO":{"arr":["25"]}}}},"geometry":{"type":"MultiLineString","coordinates":[[[2.422964,48.73128],[2.448968,48.736073]],[[2.470668,48.740073],[2.496228,48.744784]],[[2.517558,48.748715],[2.542914,48.753389]],[[2.6074,48.765275],[2.590176,48.7621]],[[2.62306,48.768161],[2.639756,48.771238]],[[2.642483,48.775644],[2.653922,48.785953]],[[2.648707,48.768326],[2.664351,48.763225]],[[2.655861,48.774207],[2.714219,48.784968],[2.97696,48.83339]],[[2.723469,48.795389],[2.714219,48.784968],[2.728961,48.778326]]]}},
{"type":"Feature","properties":{"name":"Paris-Orly ILS 24","lineStyle":{"color":[125,112,106],"width":1},"activation":{"activeRunways":{"LFPO":{"arr":["24"]}}}},"geometry":{"type":"MultiLineString","coordinates":[[[2.540046,48.796024],[2.553198,48.800925]],[[2.566748,48.805974],[2.600381,48.818508]],[[2.590512,48.827707],[2.586811,48.817296]],[[2.593204,48.809098],[2.609689,48.806218]],[[2.616419,48.824485],[2.626848,48.828371]]]}},
{"type":"Feature","properties":{"name":"Villacoublay ILS 27","lineStyle":{"color":[125,112,106],"width":1},"activation":{"activeRunways":{"LFPV":{"arr":["27"]}}}},"geometry":{"type":"MultiLineString","coordinates":[[[2.403788,48.7743],[2.421169,48.774771]],[[2.453235,48.775639],[2.436927,48.775197],[2.45274,48.786161]],[[2.468709,48.776058],[2.485798,48.776521]],[[2.501584,48.776948],[2.518402,48.777404]],[[2.534184,48.777831],[2.551149,48.778291]]]}},
{"type":"Feature","properties":{"name":"Paris-Saclay RNP 25R","lineStyle":{"color":[125,112,106],"width":1},"activation":{"activeRunways":{"LFPN":{"arr":["25R"]}}}},"geometry":{"type":"MultiLineString","coordinates":[[[2.298651,48.792699],[2.3157,48.796451]],[[2.330482,48.799703],[2.348417,48.803649]],[[2.335278,48.816944],[2.326407,48.802229]],[[2.332127,48.795248],[2.347771,48.790594]],[[2.363118,48.806883],[2.380238,48.810649]]]}},
{"type":"Feature","properties":{"name":"Paris-Saclay RNP 07L","lineStyle":{"color":[125,112,106],"width":1},"activation":{"activeRunways":{"LFPN":{"arr":["07L"]}}}},"geometry":{"type":"MultiLineString","coordinates":[[[1.921637,48.710919],[1.905194,48.707249]],[[1.889495,48.703746],[1.874184,48.70033]],[[1.857803,48.696674],[1.842652,48.693293]],[[1.826251,48.689634],[1.807771,48.68551]],[[1.795757,48.682829],[1.778314,48.678937]]]}},
{"type":"Feature","properties":{"name":"Villacoublay ILS 09","lineStyle":{"color":[125,112,106],"width":1},"activation":{"activeRunways":{"LFPV":{"arr":["09"]}}}},"geometry":{"type":"MultiLineString","coordinates":[[[1.867084,48.762291],[2.006889,48.765322]]]}},
{"type":"Feature","properties":{"name":"LF-P23","lineStyle":{"color":[125,112,106],"width":1}},"geometry":{"type":"MultiLineString","coordinates":[[[2.291389,48.887778],[2.298056,48.89],[2.306667,48.895278],[2.321944,48.900556],[2.352778,48.901111],[2.378889,48.900278],[2.388611,48.900556],[2.391944,48.899722],[2.393611,48.898333],[2.396944,48.886667],[2.398333,48.884444],[2.401667,48.881944],[2.406944,48.879722],[2.413056,48.871667],[2.413889,48.859722],[2.413889,48.857215],[2.413889,48.853889],[2.415278,48.850833],[2.4125,48.836944],[2.411111,48.835],[2.404722,48.831944],[2.399722,48.828611],[2.391667,48.8275],[2.385556,48.825556],[2.378333,48.821389],[2.363056,48.816111],[2.356111,48.816667],[2.353056,48.818056],[2.350556,48.817778],[2.346944,48.816389],[2.335278,48.816944],[2.3325,48.818611],[2.291111,48.828056],[2.275,48.834722],[2.270556,48.835278],[2.266111,48.834722],[2.258333,48.835556],[2.255278,48.837222],[2.254167,48.839722],[2.255,48.845833],[2.254444,48.847222],[2.252222,48.85],[2.252222,48.851944],[2.254444,48.854167],[2.262778,48.859444],[2.264722,48.862222],[2.267778,48.865],[2.271389,48.869444],[2.276667,48.875],[2.279722,48.876944],[2.283889,48.883056],[2.291389,48.887778]]]}},
{"type":"Feature","properties":{"name":"ADADA","pointStyle":{"type":"diamond_cross","color":[125,112,106]}},"geometry":{"type":"MultiPoint","coordinates":[[2.003611,48.295]]}},
{"type":"Feature","properties":{"name":"EDOXA","pointStyle":{"type":"diamond_cross","color":[125,112,106]}},"geometry":{"type":"MultiPoint","coordinates":[[2.209444,48.290833]]}},
{"type":"Feature","properties":{"name":"LALUX","pointStyle":{"type":"diamond_cross","color":[125,112,106]}},"geometry":{"type":"MultiPoint","coordinates":[[2.408889,48.286389]]}},
{"type":"Feature","properties":{"name":"ODEBU","pointStyle":{"type":"diamond_cross","color":[125,112,106]}},"geometry":{"type":"MultiPoint","coordinates":[[2.626111,48.281111]]}},
{"type":"Feature","properties":{"name":"PEKIM","pointStyle":{"type":"diamond_cross","color":[125,112,106]}},"geometry":{"type":"MultiPoint","coordinates":[[2.825556,48.275833]]}},
{"type":"Feature","properties":{"name":"AGOPA","pointStyle":{"type":"diamond_cross","color":[125,112,106]}},"geometry":{"type":"MultiPoint","coordinates":[[2.009722,48.083333]]}},
{"type":"Feature","properties":{"name":"ERIXU","pointStyle":{"type":"diamond_cross","color":[125,112,106]}},"geometry":{"type":"MultiPoint","coordinates":[[2.259722,48.083333]]}},
{"type":"Feature","properties":{"name":"LATRA","pointStyle":{"type":"diamond_cross","color":[125,112,106]}},"geometry":{"type":"MultiPoint","coordinates":[[2.516667,48.083333]]}},
{"type":"Feature","properties":{"name":"MONOT","pointStyle":{"type":"cross","color":[125,112,106]}},"geometry":{"type":"MultiPoint","coordinates":[[2.457222,48.083333]]}},
{"type":"Feature","properties":{"name":"OKASI","pointStyle":{"type":"diamond_cross","color":[125,112,106]}},"geometry":{"type":"MultiPoint","coordinates":[[2.777778,48.083333]]}},
{"type":"Feature","properties":{"name":"PILUL","pointStyle":{"type":"diamond_cross","color":[125,112,106]}},"geometry":{"type":"MultiPoint","coordinates":[[3.048056,48.083333]]}},
{"type":"Feature","properties":{"name":"DORDI","pointStyle":{"type":"cross","color":[125,112,106]}},"geometry":{"type":"MultiPoint","coordinates":[[2.791944,48.22]]}},
{"type":"Feature","properties":{"name":"OLZOM","pointStyle":{"type":"triangle_hollow","color":[125,112,106]}},"geometry":{"type":"MultiPoint","coordinates":[[2.264778,48.155583]]}},
{"type":"Feature","properties":{"name":"SOTIP","pointStyle":{"type":"cross","color":[125,112,106]}},"geometry":{"type":"MultiPoint","coordinates":[[1.459889,48.131361]]}},
{"type":"Feature","properties":{"name":"CAD","pointStyle":{"type":"triangle_hollow","color":[125,112,106]}},"geometry":{"type":"MultiPoint","coordinates":[[1.387083,48.059167]]}},
{"type":"Feature","properties":{"name":"NERKI","pointStyle":{"type":"cross","color":[125,112,106]}},"geometry":{"type":"MultiPoint","coordinates":[[1.327139,48.513056]]}},
{"type":"Feature","properties":{"name":"BANOX","pointStyle":{"type":"cross","color":[125,112,106]}},"geometry":{"type":"MultiPoint","coordinates":[[1.5055,48.574194]]}},
{"type":"Feature","properties":{"name":"EBOMA","pointStyle":{"type":"cross","color":[125,112,106]}},"geometry":{"type":"MultiPoint","coordinates":[[3.206111,48.202139]]}},
{"type":"Feature","properties":{"name":"MOLBA","pointStyle":{"type":"cross","color":[125,112,106]}},"geometry":{"type":"MultiPoint","coordinates":[[3.062944,48.295028]]}},
{"type":"Feature","properties":{"name":"ATTUC","pointStyle":{"type":"diamond","color":[125,112,106]}},"geometry":{"type":"MultiPoint","coordinates":[[3.281111,48.369028]]}},
{"type":"Feature","properties":{"name":"OKABO","pointStyle":{"type":"cross","color":[125,112,106]}},"geometry":{"type":"MultiPoint","coordinates":[[3.490389,48.549389]]}},
{"type":"Feature","properties":{"name":"OKIPA","pointStyle":{"type":"cross","color":[125,112,106]}},"geometry":{"type":"MultiPoint","coordinates":[[3.5635,48.611306]]}},
{"type":"Feature","properties":{"name":"EPURI","pointStyle":{"type":"cross","color":[125,112,106]}},"geometry":{"type":"MultiPoint","coordinates":[[3.637583,48.457111]]}},
{"type":"Feature","properties":{"name":"URELO","pointStyle":{"type":"cross","color":[125,112,106]}},"geometry":{"type":"MultiPoint","coordinates":[[3.732028,48.538833]]}},
{"type":"Feature","properties":{"name":"TSU","pointStyle":{"type":"triangle_hollow","color":[125,112,106]}},"geometry":{"type":"MultiPoint","coordinates":[[2.102494,48.75356]]}},
{"type":"Feature","properties":{"name":"VALPO","pointStyle":{"type":"cross","color":[125,112,106]}},"geometry":{"type":"MultiPoint","coordinates":[[3.121611,48.83475]]}},
{"type":"Feature","properties":{"name":"BATAG","pointStyle":{"type":"diamond_cross","color":[125,112,106]}},"geometry":{"type":"MultiPoint","coordinates":[[3.372278,48.822806]]}},
{"type":"Feature","properties":{"name":"DIDOS","pointStyle":{"type":"diamond_cross","color":[125,112,106]},"activation":{"activeRunways":{"LFPO":{"arr":["06"],"dep":["07"]}}}},"geometry":{"type":"MultiPoint","coordinates":[[2.44575,48.653333]]}},
{"type":"Feature","properties":{"name":"ABORO","pointStyle":{"type":"diamond_cross","color":[125,112,106]},"activation":{"activeRunways":{"LFPO":{"arr":["06"],"dep":["07"]}}}},"geometry":{"type":"MultiPoint","coordinates":[[2.415083,48.524139]]}},
{"type":"Feature","properties":{"name":"OBAMO","pointStyle":{"type":"diamond_cross","color":[125,112,106]},"activation":{"activeRunways":{"LFPO":{"arr":["06"],"dep":["07"]}}}},"geometry":{"type":"MultiPoint","coordinates":[[2.487944,48.460472]]}},
{"type":"Feature","properties":{"name":"IN07L","pointStyle":{"type":"diamond_cross","color":[125,112,106]},"activation":{"activeRunways":{"LFPO":{"arr":["06"],"dep":["07"]}}}},"geometry":{"type":"MultiPoint","coordinates":[[1.84675,48.694194]]}},
{"type":"Feature","properties":{"name":"NERIN","pointStyle":{"type":"diamond_cross","color":[125,112,106]}},"geometry":{"type":"MultiPoint","coordinates":[[2.957667,48.639833]]}},
{"type":"Feature","properties":{"name":"MLN","pointStyle":{"type":"diamond","color":[125,112,106]}},"geometry":{"type":"MultiPoint","coordinates":[[2.813278,48.455778]]}},
{"type":"Feature","properties":{"name":"ODILO","pointStyle":{"type":"cross","color":[125,112,106]}},"geometry":{"type":"MultiPoint","coordinates":[[1.571639,48.24175]]}},
{"type":"Feature","properties":{"name":"TA","pointStyle":{"type":"square","color":[88,88,88]}},"geometry":{"type":"MultiPoint","coordinates":[[2.097444,48.771583]]}},
{"type":"Feature","properties":{"name":"RBT","pointStyle":{"type":"square","color":[88,88,88]}},"geometry":{"type":"MultiPoint","coordinates":[[1.994222,48.653944]]}},
{"type":"Feature","properties":{"name":"EPR","pointStyle":{"type":"square","color":[88,88,88]}},"geometry":{"type":"MultiPoint","coordinates":[[1.656556,48.625694]]}},
{"type":"Feature","properties":{"name":"HOL","pointStyle":{"type":"square","color":[88,88,88]}},"geometry":{"type":"MultiPoint","coordinates":[[1.8205,48.730583]]}},
{"type":"Feature","properties":{"name":"PO301","pointStyle":{"type":"square","color":[88,88,88]}},"geometry":{"type":"MultiPoint","coordinates":[[2.316,48.478667]]}},
{"type":"Feature","properties":{"name":"FPO02","pointStyle":{"type":"square","color":[88,88,88]}},"geometry":{"type":"MultiPoint","coordinates":[[2.310583,48.585306]]}},
{"type":"Feature","properties":{"name":"DER28","pointStyle":{"type":"square","color":[88,88,88]}},"geometry":{"type":"MultiPoint","coordinates":[[2.663286,48.606478]]}},
{"type":"Feature","properties":{"name":"VANEX","pointStyle":{"type":"square","color":[88,88,88]}},"geometry":{"type":"MultiPoint","coordinates":[[2.978,48.553917]]}},
{"type":"Feature","properties":{"name":"VEZAQ","pointStyle":{"type":"square","color":[88,88,88]}},"geometry":{"type":"MultiPoint","coordinates":[[2.902639,48.684167]]}},
{"type":"Feature","properties":{"name":"CLM","pointStyle":{"type":"square","color":[88,88,88]}},"geometry":{"type":"MultiPoint","coordinates":[[3.013861,48.844639]]}}
]}