{"type":"FeatureCollection","features":[
{"type":"Feature","properties":{"name":"Paris-Orly RWY 25 Sequencing","lineStyle":{"color":[125,112,106],"width":1},"activation":{"activeRunways":{"LFPO":{"arr":["25"]}}}},"geometry":{"type":"MultiLineString","coordinates":[[[3.025665,48.800563],[3.025396,48.803446],[3.025053,48.806326],[3.024638,48.809201],[3.024151,48.812071],[3.023592,48.814936],[3.022961,48.817794],[3.022257,48.820644],[3.021483,48.823486],[3.020637,48.826319],[3.019719,48.829143],[3.018731,48.831955],[3.017672,48.834757],[3.016543,48.837546],[3.015344,48.840323],[3.014075,48.843086],[3.012736,48.845834],[3.011329,48.848568],[3.009853,48.851285]],[[3.135008,48.87718],[3.136922,48.873162],[3.138728,48.869122],[3.140429,48.865062],[3.142021,48.860982],[3.143506,48.856885],[3.144883,48.852771],[3.146151,48.848642],[3.14731,48.844498],[3.148359,48.840342],[3.149299,48.836173],[3.150129,48.831995],[3.150848,48.827807],[3.151457,48.823611],[3.151955,48.819409],[3.152343,48.815201],[3.15262,48.810989],[3.152785,48.806774],[3.15284,48.802557]],[[3.258482,48.898417],[3.260559,48.891956],[3.26247,48.885472],[3.264215,48.878967],[3.265791,48.872442],[3.2672,48.8659],[3.268441,48.859343],[3.269513,48.852771],[3.270416,48.846188],[3.27115,48.839595],[3.271714,48.832994],[3.272109,48.826387],[3.272335,48.819775],[3.27239,48.813161],[3.272276,48.806546]],[[2.996732,48.75844],[2.996728,48.756499],[2.996674,48.754558],[2.996568,48.752618],[2.996412,48.750679],[2.996204,48.748742],[2.995946,48.746808],[2.995637,48.744877],[2.995277,48.74295],[2.994866,48.741027],[2.994405,48.739109],[2.993894,48.737197],[2.993333,48.73529],[2.992721,48.73339],[2.99206,48.731498],[2.991349,48.729613],[2.990589,48.727736],[2.989779,48.725869],[2.988921,48.724011],[2.988014,48.722163],[2.987058,48.720325],[2.986055,48.718499],[2.985003,48.716684],[2.983904,48.714882],[2.982758,48.713092],[2.981565,48.711316],[2.980326,48.709553],[2.97904,48.707805],[2.977709,48.706072],[2.976332,48.704354],[2.974911,48.702652],[2.973445,48.700967],[2.971935,48.699298],[2.970381,48.697647],[2.968784,48.696014],[2.967145,48.6944],[2.965464,48.692804],[2.963741,48.691228],[2.961976,48.689672],[2.960171,48.688136],[2.958327,48.686621],[2.956442,48.685127],[2.954519,48.683655],[2.952557,48.682205],[2.950558,48.680778],[2.948521,48.679373],[2.946448,48.677993],[2.944339,48.676636],[2.942195,48.675303],[2.940016,48.673995],[2.937803,48.672713],[2.935556,48.671455],[2.933277,48.670224],[2.930966,48.669019],[2.928624,48.66784],[2.926251,48.666689],[2.923848,48.665565],[2.921417,48.664468],[2.918956,48.663399],[2.916468,48.662359],[2.913954,48.661347],[2.911413,48.660364],[2.908846,48.659411],[2.906255,48.658487],[2.90364,48.657592],[2.901002,48.656728],[2.898342,48.655894],[2.89566,48.655091],[2.892958,48.654318],[2.890236,48.653577],[2.887494,48.652866],[2.884735,48.652188],[2.881958,48.65154],[2.879165,48.650925],[2.876355,48.650342],[2.873531,48.649791],[2.870693,48.649273],[2.867842,48.648787],[2.864978,48.648334],[2.862103,48.647913],[2.859218,48.647526],[2.856322,48.647172],[2.853418,48.64685],[2.850506,48.646563],[2.847587,48.646308],[2.844661,48.646087]],[[2.824138,48.650755],[2.823108,48.65068],[2.822076,48.650616],[2.821042,48.650564],[2.820008,48.650524],[2.818972,48.650496],[2.817936,48.650479],[2.816899,48.650475],[2.815863,48.650482],[2.814827,48.650501],[2.813791,48.650533],[2.812757,48.650576],[2.811724,48.650631],[2.810692,48.650697],[2.809663,48.650776],[2.808635,48.650866],[2.80761,48.650968],[2.806588,48.651082],[2.805569,48.651207],[2.804554,48.651345],[2.803542,48.651493],[2.802534,48.651654],[2.801531,48.651826],[2.800532,48.652009],[2.799539,48.652204],[2.79855,48.65241],[2.797567,48.652627],[2.79659,48.652856],[2.79562,48.653096],[2.794655,48.653347],[2.793697,48.653608],[2.792747,48.653881],[2.791803,48.654165],[2.790868,48.654459],[2.78994,48.654765],[2.78902,48.65508],[2.788109,48.655407],[2.787206,48.655743],[2.786313,48.65609],[2.785428,48.656447],[2.784553,48.656814],[2.783688,48.657191],[2.782833,48.657578],[2.781988,48.657975],[2.781154,48.658382],[2.780331,48.658797],[2.779518,48.659223],[2.778717,48.659657],[2.777928,48.660101],[2.77715,48.660553],[2.776384,48.661014],[2.775631,48.661485],[2.77489,48.661963],[2.774161,48.66245],[2.773446,48.662946],[2.772743,48.663449],[2.772054,48.66396],[2.771379,48.66448],[2.770717,48.665006],[2.770069,48.665541],[2.769435,48.666083],[2.768816,48.666631],[2.768211,48.667187],[2.767621,48.66775],[2.767046,48.668319],[2.766485,48.668895],[2.76594,48.669478],[2.765411,48.670066],[2.764896,48.67066],[2.764398,48.67126],[2.763915,48.671866]],[[2.652217,48.637417],[2.653437,48.635571],[2.654705,48.633738],[2.656021,48.63192],[2.657385,48.630118],[2.658795,48.628331],[2.660252,48.626561],[2.661756,48.624807],[2.663305,48.623071],[2.6649,48.621353],[2.666539,48.619654],[2.668223,48.617973],[2.669951,48.616312],[2.671722,48.614671],[2.673536,48.613051],[2.675392,48.611451],[2.67729,48.609873],[2.679229,48.608317],[2.681208,48.606784],[2.683228,48.605273],[2.685287,48.603786],[2.687384,48.602322],[2.68952,48.600883],[2.691693,48.599469],[2.693902,48.598079],[2.696148,48.596715],[2.69843,48.595377],[2.700746,48.594065],[2.703096,48.592781],[2.70548,48.591523],[2.707896,48.590293],[2.710344,48.58909],[2.712823,48.587916],[2.715333,48.58677],[2.717872,48.585654],[2.720441,48.584567],[2.723037,48.583509],[2.725661,48.582481],[2.728311,48.581484],[2.730987,48.580517],[2.733688,48.579581],[2.736413,48.578676],[2.739162,48.577802],[2.741933,48.57696],[2.744726,48.576151],[2.747539,48.575373],[2.750373,48.574627],[2.753225,48.573915],[2.756096,48.573235],[2.758984,48.572588],[2.761889,48.571974],[2.764809,48.571394],[2.767745,48.570848],[2.770694,48.570335],[2.773656,48.569856],[2.77663,48.569411],[2.779615,48.569001],[2.782611,48.568625],[2.785616,48.568283],[2.78863,48.567976],[2.791651,48.567703],[2.794679,48.567465],[2.797713,48.567262],[2.800751,48.567094],[2.803794,48.566961],[2.80684,48.566862],[2.809887,48.566799],[2.812936,48.566771],[2.815985,48.566778],[2.819034,48.566819],[2.822081,48.566896],[2.825125,48.567008],[2.828167,48.567154],[2.831203,48.567336]],[[2.858791,48.56266],[2.864052,48.563168],[2.869298,48.563736],[2.874529,48.564364],[2.879742,48.565052],[2.884937,48.5658],[2.890111,48.566607],[2.895263,48.567474],[2.900392,48.5684],[2.905496,48.569384],[2.910573,48.570428],[2.915622,48.571529],[2.920641,48.572688],[2.925629,48.573905],[2.930584,48.575178],[2.935505,48.576509],[2.940391,48.577896],[2.945239,48.579338],[2.950049,48.580836],[2.954818,48.582389],[2.959547,48.583997],[2.964232,48.585659],[2.968873,48.587374],[2.973468,48.589142],[2.978016,48.590963],[2.982516,48.592835],[2.986965,48.594759],[2.991364,48.596733],[2.99571,48.598758],[3.000002,48.600832],[3.004239,48.602956],[3.00842,48.605127],[3.012543,48.607346],[3.016607,48.609612],[3.020611,48.611924],[3.024554,48.614282],[3.028434,48.616684],[3.03225,48.619131],[3.036002,48.621621],[3.039687,48.624153],[3.043306,48.626727],[3.046856,48.629342],[3.050337,48.631998],[3.053748,48.634693],[3.057087,48.637426],[3.060354,48.640197],[3.063548,48.643006],[3.066667,48.64585],[3.069712,48.648729],[3.07268,48.651643],[3.075571,48.65459],[3.078384,48.65757],[3.081118,48.660581],[3.083773,48.663624],[3.086347,48.666695],[3.08884,48.669796],[3.091252,48.672925],[3.09358,48.676081],[3.095825,48.679263],[3.097987,48.682469],[3.100063,48.6857],[3.102054,48.688954],[3.10396,48.69223],[3.105779,48.695528],[3.10751,48.698845],[3.109155,48.702182],[3.110711,48.705536],[3.112179,48.708908],[3.113557,48.712296],[3.114847,48.715699],[3.116046,48.719116],[3.117156,48.722546],[3.118175,48.725988],[3.119103,48.729441],[3.11994,48.732904],[3.120686,48.736375],[3.12134,48.739854],[3.121903,48.74334],[3.122374,48.746832],[3.122752,48.750329],[3.123039,48.753828],[3.123233,48.757331]],[[2.536482,48.60339],[2.538878,48.600103],[2.541359,48.596844],[2.543925,48.593614],[2.546574,48.590413],[2.549308,48.587243],[2.552123,48.584105],[2.555021,48.580999],[2.557999,48.577926],[2.561057,48.574888],[2.564193,48.571885],[2.567408,48.568918],[2.5707,48.565988],[2.574068,48.563097],[2.577511,48.560243],[2.581028,48.55743],[2.584618,48.554657],[2.58828,48.551926],[2.592013,48.549236],[2.595815,48.54659],[2.599686,48.543988],[2.603625,48.54143],[2.607629,48.538917],[2.611699,48.53645],[2.615832,48.534031],[2.620028,48.531659],[2.624286,48.529335],[2.628603,48.52706],[2.632979,48.524835],[2.637413,48.52266],[2.641902,48.520536],[2.646447,48.518464],[2.651045,48.516444],[2.655695,48.514477],[2.660395,48.512564],[2.665145,48.510704],[2.669943,48.5089],[2.674787,48.50715],[2.679675,48.505456],[2.684608,48.503818],[2.689582,48.502237],[2.694597,48.500713],[2.699651,48.499247],[2.704743,48.497839],[2.70987,48.496489],[2.715032,48.495199],[2.720227,48.493967],[2.725453,48.492796],[2.730709,48.491684],[2.735993,48.490633],[2.741304,48.489642],[2.74664,48.488712],[2.751999,48.487844],[2.75738,48.487037],[2.762782,48.486292],[2.768202,48.485609],[2.773639,48.484988],[2.779091,48.48443],[2.784557,48.483934],[2.790035,48.483501],[2.795524,48.483131],[2.801022,48.482823],[2.806527,48.482579],[2.812037,48.482398],[2.817551,48.48228],[2.823068,48.482225],[2.828585,48.482234],[2.834101,48.482306],[2.839614,48.482441]],[[2.878978,48.479764],[2.886446,48.480554],[2.893892,48.48143],[2.901315,48.482391],[2.908711,48.483437],[2.916078,48.484568],[2.923415,48.485784],[2.930719,48.487084],[2.937988,48.488467],[2.94522,48.489934],[2.952412,48.491484],[2.959562,48.493116],[2.966669,48.49483],[2.973729,48.496626],[2.980742,48.498502],[2.987705,48.500458],[2.994615,48.502494],[3.001471,48.50461],[3.00827,48.506803],[3.015011,48.509074],[3.021691,48.511423],[3.028309,48.513847],[3.034863,48.516347],[3.04135,48.518922],[3.047769,48.521571],[3.054117,48.524294],[3.060393,48.527088],[3.066595,48.529954],[3.072721,48.532891],[3.078769,48.535897],[3.084737,48.538973],[3.090624,48.542116],[3.096428,48.545326],[3.102147,48.548602],[3.107779,48.551943],[3.113322,48.555348],[3.118776,48.558816],[3.124138,48.562346],[3.129406,48.565937],[3.13458,48.569587],[3.139657,48.573296],[3.144636,48.577062],[3.149516,48.580884],[3.154294,48.584762],[3.158971,48.588693],[3.163543,48.592678],[3.16801,48.596714],[3.172371,48.6008],[3.176624,48.604935],[3.180768,48.609118],[3.184801,48.613348],[3.188723,48.617623],[3.192532,48.621942],[3.196228,48.626303],[3.199808,48.630706],[3.203272,48.635149],[3.206619,48.63963],[3.209848,48.644149],[3.212957,48.648704],[3.215947,48.653293],[3.218816,48.657916],[3.221563,48.66257],[3.224187,48.667254],[3.226688,48.671968],[3.229064,48.676709],[3.231316,48.681476],[3.233442,48.686267],[3.235442,48.691082],[3.237315,48.695918],[3.239061,48.700775],[3.240679,48.705651],[3.242168,48.710543],[3.243529,48.715452],[3.24476,48.720375],[3.245862,48.725311],[3.246834,48.730258],[3.247675,48.735215],[3.248386,48.740181],[3.248966,48.745153],[3.249416,48.750131],[3.249734,48.755113]]]}}
]}