{"type":"FeatureCollection","features":[
{"type":"Feature","properties":{"name":"Melun RNP 28","lineStyle":{"color":[181,162,153],"width":1},"activation":{"activeRunways":{"LFPM":{"arr":["28"]}}}},"geometry":{"type":"MultiLineString","coordinates":[[[2.688206,48.602508],[2.814667,48.582278],[2.887861,48.5705],[2.957667,48.639833]],[[2.887861,48.5705],[2.898583,48.506667],[2.811778,48.439333]],[[2.887861,48.5705],[3.091111,48.532944],[3.281111,48.369028]],[[2.887861,48.5705],[2.978,48.553917],[3.11025,48.533139],[3.327833,48.498583]]]}},
{"type":"Feature","properties":{"name":"Villacoublay Arrival Evreux RWY 09","lineStyle":{"color":[181,162,153],"width":1},"activation":{"activeRunways":{"LFPV":{"arr":["09"]}}}},"geometry":{"type":"MultiLineString","coordinates":[[[0.861944,48.850556],[1.191944,48.873333],[1.400833,48.771111],[2.097444,48.771583],[2.189275,48.774128]]]}},
{"type":"Feature","properties":{"name":"Villacoublay Arrival Evreux RWY 27","lineStyle":{"color":[181,162,153],"width":1},"activation":{"activeRunways":{"LFPV":{"arr":["27"]}}}},"geometry":{"type":"MultiLineString","coordinates":[[[0.861944,48.850556],[1.191944,48.873333],[1.400833,48.771111],[1.899651,48.771551],[1.980367,48.821692],[2.032133,48.821692]],[[2.032133,48.821692],[2.226941,48.806442]],[[2.231709,48.774581],[2.23212,48.774661],[2.232529,48.774747],[2.232936,48.774836],[2.23334,48.774931],[2.233742,48.77503],[2.234141,48.775134],[2.234537,48.775242],[2.234931,48.775354],[2.235321,48.775472],[2.235708,48.775593],[2.236092,48.775719],[2.236473,48.77585],[2.23685,48.775985],[2.237224,48.776124],[2.237593,48.776267],[2.237959,48.776414],[2.238321,48.776566],[2.238679,48.776722],[2.239033,48.776882],[2.239383,48.777046],[2.239728,48.777214],[2.240068,48.777385],[2.240404,48.777561],[2.240736,48.777741],[2.241063,48.777924],[2.241384,48.778111],[2.241701,48.778301],[2.242013,48.778496],[2.242319,48.778693],[2.242621,48.778895],[2.242917,48.779099],[2.243207,48.779307],[2.243492,48.779519],[2.243771,48.779733],[2.244045,48.779951],[2.244313,48.780172],[2.244575,48.780395],[2.244831,48.780622],[2.245081,48.780852],[2.245325,48.781084],[2.245563,48.78132],[2.245795,48.781558],[2.24602,48.781798],[2.246239,48.782041],[2.246451,48.782287],[2.246657,48.782535],[2.246857,48.782785],[2.247049,48.783037],[2.247236,48.783292],[2.247415,48.783549],[2.247587,48.783808],[2.247753,48.784068],[2.247912,48.784331],[2.248064,48.784595],[2.248209,48.784861],[2.248347,48.785129],[2.248477,48.785398],[2.248601,48.785669],[2.248718,48.785941],[2.248827,48.786214],[2.248929,48.786489],[2.249024,48.786764],[2.249111,48.787041],[2.249192,48.787319],[2.249265,48.787597],[2.24933,48.787877],[2.249389,48.788157],[2.249439,48.788437],[2.249483,48.788718],[2.249519,48.789],[2.249547,48.789282],[2.249569,48.789564],[2.249582,48.789847],[2.249589,48.790129],[2.249587,48.790412],[2.249579,48.790695],[2.249563,48.790977],[2.249539,48.791259],[2.249508,48.791541],[2.24947,48.791823],[2.249424,48.792103],[2.249371,48.792384],[2.24931,48.792664],[2.249242,48.792943],[2.249167,48.793221],[2.249084,48.793498],[2.248994,48.793775],[2.248897,48.79405],[2.248793,48.794324],[2.248681,48.794597],[2.248562,48.794868],[2.248436,48.795138],[2.248303,48.795407],[2.248163,48.795674],[2.248016,48.79594],[2.247862,48.796203],[2.247701,48.796465],[2.247533,48.796725],[2.247358,48.796983],[2.247177,48.79724],[2.246989,48.797493],[2.246794,48.797745],[2.246592,48.797995],[2.246384,48.798242],[2.24617,48.798486],[2.245949,48.798729],[2.245721,48.798968],[2.245488,48.799205],[2.245248,48.79944],[2.245002,48.799671],[2.24475,48.7999],[2.244492,48.800126],[2.244228,48.800348],[2.243958,48.800568],[2.243683,48.800785],[2.243402,48.800998],[2.243115,48.801208],[2.242823,48.801415],[2.242525,48.801619],[2.242222,48.801819],[2.241914,48.802015],[2.241601,48.802208],[2.241282,48.802397],[2.240959,48.802583],[2.240631,48.802765],[2.240298,48.802943],[2.23996,48.803118],[2.239618,48.803288],[2.239272,48.803455],[2.238921,48.803617],[2.238566,48.803776],[2.238206,48.80393],[2.237843,48.80408],[2.237476,48.804227],[2.237105,48.804368],[2.23673,48.804506],[2.236352,48.804639],[2.23597,48.804768],[2.235585,48.804893],[2.235197,48.805013],[2.234806,48.805129],[2.234411,48.80524],[2.234014,48.805347],[2.233614,48.805449],[2.233212,48.805546],[2.232807,48.805639],[2.232399,48.805728],[2.231989,48.805811],[2.231577,48.80589],[2.231163,48.805964],[2.230748,48.806034],[2.23033,48.806098],[2.229911,48.806158],[2.22949,48.806213],[2.229068,48.806264],[2.228644,48.806309],[2.22822,48.80635],[2.227794,48.806385],[2.227368,48.806416],[2.226941,48.806442]],[[2.231709,48.774581],[2.213933,48.774606]]]}},
{"type":"Feature","properties":{"uuid":"EGA_Paris_Satellite_FIX_Names","textStyle":{"color":[181,162,153],"fontFamily":"Arial","fontSize":10,"fontWeight":400,"text":"FPM28"},"activation":{"activeRunways":{"LFPM":{"arr":["28"],"dep":["26R","27L"]}}}},"geometry":{"type":"MultiPoint","coordinates":[[2.816403,48.605328]]}},
{"type":"Feature","properties":{"uuid":"EGA_Paris_Satellite_FIX_Names","textStyle":{"color":[181,162,153],"fontFamily":"Arial","fontSize":10,"fontWeight":400,"text":"NERIN"},"activation":{"activeRunways":{"LFPM":{"arr":["28"],"dep":["26R","27L"]}}}},"geometry":{"type":"MultiPoint","coordinates":[[2.958487,48.660625]]}},
{"type":"Feature","properties":{"uuid":"EGA_Paris_Satellite_FIX_Names","textStyle":{"color":[181,162,153],"fontFamily":"Arial","fontSize":10,"fontWeight":400,"text":"PM500"},"activation":{"activeRunways":{"LFPM":{"arr":["28"],"dep":["26R","27L"]}}}},"geometry":{"type":"MultiPoint","coordinates":[[2.950593,48.503967]]}},
{"type":"Feature","properties":{"uuid":"EGA_Paris_Satellite_FIX_Names","textStyle":{"color":[181,162,153],"fontFamily":"Arial","fontSize":10,"fontWeight":400,"text":"ADDOZ"},"activation":{"activeRunways":{"LFPM":{"arr":["28"],"dep":["26R","27L"]}}}},"geometry":{"type":"MultiPoint","coordinates":[[2.810089,48.414979]]}},
{"type":"Feature","properties":{"uuid":"EGA_Paris_Satellite_FIX_Names","textStyle":{"color":[181,162,153],"fontFamily":"Arial","fontSize":10,"fontWeight":400,"text":"IPM28"},"activation":{"activeRunways":{"LFPM":{"arr":["28"],"dep":["26R","27L"]}}}},"geometry":{"type":"MultiPoint","coordinates":[[2.85745,48.552061]]}},
{"type":"Feature","properties":{"uuid":"EGA_Paris_Satellite_FIX_Names","textStyle":{"color":[181,162,153],"fontFamily":"Arial","fontSize":10,"fontWeight":400,"text":"VANEX"},"activation":{"activeRunways":{"LFPM":{"arr":["28"],"dep":["26R","27L"]}}}},"geometry":{"type":"MultiPoint","coordinates":[[2.980589,48.579224]]}},
{"type":"Feature","properties":{"uuid":"EGA_Paris_Satellite_FIX_Names","textStyle":{"color":[181,162,153],"fontFamily":"Arial","fontSize":10,"fontWeight":400,"text":"PM501"},"activation":{"activeRunways":{"LFPM":{"arr":["28"],"dep":["26R","27L"]}}}},"geometry":{"type":"MultiPoint","coordinates":[[3.062681,48.505013]]}},
{"type":"Feature","properties":{"uuid":"EGA_Paris_Satellite_FIX_Names","textStyle":{"color":[181,162,153],"fontFamily":"Arial","fontSize":10,"fontWeight":400,"text":"PM504"},"activation":{"activeRunways":{"LFPM":{"arr":["28"],"dep":["26R","27L"]}}}},"geometry":{"type":"MultiPoint","coordinates":[[3.127408,48.559375]]}},
{"type":"Feature","properties":{"uuid":"EGA_Paris_Satellite_FIX_Names","textStyle":{"color":[181,162,153],"fontFamily":"Arial","fontSize":10,"fontWeight":400,"text":"APPOC"},"activation":{"activeRunways":{"LFPM":{"arr":["28"],"dep":["26R","27L"]}}}},"geometry":{"type":"MultiPoint","coordinates":[[3.329483,48.521746]]}},
{"type":"Feature","properties":{"uuid":"EGA_Paris_Satellite_FIX_Names","textStyle":{"color":[181,162,153],"fontFamily":"Arial","fontSize":10,"fontWeight":400,"text":"ATTUC"},"activation":{"activeRunways":{"LFPM":{"arr":["28"],"dep":["26R","27L"]}}}},"geometry":{"type":"MultiPoint","coordinates":[[3.278964,48.343677]]}},
{"type":"Feature","properties":{"uuid":"Villacoublay_Arrival_Evreux_RWY_09","textStyle":{"color":[181,162,153],"fontFamily":"Arial","fontSize":10,"fontWeight":400,"text":"TANGO"},"activation":{"activeRunways":{"LFPV":{"arr":["09"],"dep":["26R","27L"]}}}},"geometry":{"type":"MultiPoint","coordinates":[[0.860387,48.876015]]}},
{"type":"Feature","properties":{"uuid":"Villacoublay_Arrival_Evreux_RWY_09","textStyle":{"color":[181,162,153],"fontFamily":"Arial","fontSize":10,"fontWeight":400,"text":"VICTOR"},"activation":{"activeRunways":{"LFPV":{"arr":["09"],"dep":["26R","27L"]}}}},"geometry":{"type":"MultiPoint","coordinates":[[1.191915,48.894701]]}},
{"type":"Feature","properties":{"name":"Melun RNP 28","pointStyle":{"type":"cross","color":[181,162,153]},"activation":{"activeRunways":{"LFPM":{"arr":["28"]}}}},"geometry":{"type":"MultiPoint","coordinates":[[2.814667,48.582278],[2.887861,48.5705],[2.957667,48.639833],[2.898583,48.506667],[2.811778,48.439333],[2.978,48.553917],[3.091111,48.532944],[3.11025,48.533139],[3.281111,48.369028],[3.327833,48.498583]]}},
{"type":"Feature","properties":{"name":"Villacoublay Arrival Evreux RWY 09","pointStyle":{"type":"cross","color":[181,162,153]},"activation":{"activeRunways":{"LFPV":{"arr":["09"]}}}},"geometry":{"type":"MultiPoint","coordinates":[[0.861944,48.850556],[1.191944,48.873333],[1.400833,48.771111],[1.899651,48.771551]]}}
]}