{"type":"FeatureCollection","features":[
{"type":"Feature","properties":{"uuid":"Paris-Orly_FIX_Names","textStyle":{"color":[181,162,153],"fontFamily":"Arial","fontSize":10,"fontWeight":400,"text":"DIDOS"},"activation":{"activeRunways":{"LFPO":{"arr":["06"],"dep":["07"]}}}},"geometry":{"type":"MultiPoint","coordinates":[[2.447381,48.676524]]}},
{"type":"Feature","properties":{"uuid":"Paris-Orly_FIX_Names","textStyle":{"color":[181,162,153],"fontFamily":"Arial","fontSize":10,"fontWeight":400,"text":"ABORO"},"activation":{"activeRunways":{"LFPO":{"arr":["06"],"dep":["07"]}}}},"geometry":{"type":"MultiPoint","coordinates":[[2.415807,48.548142]]}},
{"type":"Feature","properties":{"uuid":"Paris-Orly_FIX_Names","textStyle":{"color":[181,162,153],"fontFamily":"Arial","fontSize":10,"fontWeight":400,"text":"OBAMO"},"activation":{"activeRunways":{"LFPO":{"arr":["06"],"dep":["07"]}}}},"geometry":{"type":"MultiPoint","coordinates":[[2.490006,48.483305]]}},
{"type":"Feature","properties":{"uuid":"Paris-Orly_FIX_Names","textStyle":{"color":[181,162,153],"fontFamily":"Arial","fontSize":10,"fontWeight":400,"text":"IN07L"},"activation":{"activeRunways":{"LFPO":{"arr":["06"],"dep":["07"]}}}},"geometry":{"type":"MultiPoint","coordinates":[[1.847473,48.718204]]}},
{"type":"Feature","properties":{"uuid":"Paris-Orly_FIX_Names","textStyle":{"color":[181,162,153],"fontFamily":"Arial","fontSize":10,"fontWeight":400,"text":"BANOX"}},"geometry":{"type":"MultiPoint","coordinates":[[1.504893,48.605589]]}},
{"type":"Feature","properties":{"uuid":"Paris-Orly_FIX_Names","textStyle":{"color":[181,162,153],"fontFamily":"Arial","fontSize":10,"fontWeight":400,"text":"NERKI"}},"geometry":{"type":"MultiPoint","coordinates":[[1.3265,48.547097]]}},
{"type":"Feature","properties":{"uuid":"Paris-Orly_FIX_Names","textStyle":{"color":[181,162,153],"fontFamily":"Arial","fontSize":10,"fontWeight":400,"text":"ODILO"}},"geometry":{"type":"MultiPoint","coordinates":[[1.571199,48.275689]]}},
{"type":"Feature","properties":{"uuid":"Paris-Orly_FIX_Names","textStyle":{"color":[181,162,153],"fontFamily":"Arial","fontSize":10,"fontWeight":400,"text":"SOTIP"}},"geometry":{"type":"MultiPoint","coordinates":[[1.459111,48.167352]]}},
{"type":"Feature","properties":{"uuid":"Paris-Orly_FIX_Names","textStyle":{"color":[181,162,153],"fontFamily":"Arial","fontSize":10,"fontWeight":400,"text":"ADADA"}},"geometry":{"type":"MultiPoint","coordinates":[[2.003764,48.3177]]}},
{"type":"Feature","properties":{"uuid":"Paris-Orly_FIX_Names","textStyle":{"color":[181,162,153],"fontFamily":"Arial","fontSize":10,"fontWeight":400,"text":"EDOXA"}},"geometry":{"type":"MultiPoint","coordinates":[[2.208996,48.3177]]}},
{"type":"Feature","properties":{"uuid":"Paris-Orly_FIX_Names","textStyle":{"color":[181,162,153],"fontFamily":"Arial","fontSize":10,"fontWeight":400,"text":"LALUX"}},"geometry":{"type":"MultiPoint","coordinates":[[2.407913,48.31245]]}},
{"type":"Feature","properties":{"uuid":"Paris-Orly_FIX_Names","textStyle":{"color":[181,162,153],"fontFamily":"Arial","fontSize":10,"fontWeight":400,"text":"ODEBU"}},"geometry":{"type":"MultiPoint","coordinates":[[2.624196,48.30615]]}},
{"type":"Feature","properties":{"uuid":"Paris-Orly_FIX_Names","textStyle":{"color":[181,162,153],"fontFamily":"Arial","fontSize":10,"fontWeight":400,"text":"PEKIM"}},"geometry":{"type":"MultiPoint","coordinates":[[2.82627,48.298799]]}},
{"type":"Feature","properties":{"uuid":"Paris-Orly_FIX_Names","textStyle":{"color":[181,162,153],"fontFamily":"Arial","fontSize":10,"fontWeight":400,"text":"DORDI"}},"geometry":{"type":"MultiPoint","coordinates":[[2.793117,48.192616]]}},
{"type":"Feature","properties":{"uuid":"Paris-Orly_FIX_Names","textStyle":{"color":[181,162,153],"fontFamily":"Arial","fontSize":10,"fontWeight":400,"text":"OLZOM"}},"geometry":{"type":"MultiPoint","coordinates":[[2.264251,48.178933]]}},
{"type":"Feature","properties":{"uuid":"Paris-Orly_FIX_Names","textStyle":{"color":[181,162,153],"fontFamily":"Arial","fontSize":10,"fontWeight":400,"text":"AGOPA"}},"geometry":{"type":"MultiPoint","coordinates":[[2.010079,48.109408]]}},
{"type":"Feature","properties":{"uuid":"Paris-Orly_FIX_Names","textStyle":{"color":[181,162,153],"fontFamily":"Arial","fontSize":10,"fontWeight":400,"text":"ERIXU"}},"geometry":{"type":"MultiPoint","coordinates":[[2.261093,48.110462]]}},
{"type":"Feature","properties":{"uuid":"Paris-Orly_FIX_Names","textStyle":{"color":[181,162,153],"fontFamily":"Arial","fontSize":10,"fontWeight":400,"text":"MONOT"}},"geometry":{"type":"MultiPoint","coordinates":[[2.456853,48.111516]]}},
{"type":"Feature","properties":{"uuid":"Paris-Orly_FIX_Names","textStyle":{"color":[181,162,153],"fontFamily":"Arial","fontSize":10,"fontWeight":400,"text":"LATRA"}},"geometry":{"type":"MultiPoint","coordinates":[[2.518423,48.05562]]}},
{"type":"Feature","properties":{"uuid":"Paris-Orly_FIX_Names","textStyle":{"color":[181,162,153],"fontFamily":"Arial","fontSize":10,"fontWeight":400,"text":"OKASI"}},"geometry":{"type":"MultiPoint","coordinates":[[2.778909,48.109408]]}},
{"type":"Feature","properties":{"uuid":"Paris-Orly_FIX_Names","textStyle":{"color":[181,162,153],"fontFamily":"Arial","fontSize":10,"fontWeight":400,"text":"PILUL"}},"geometry":{"type":"MultiPoint","coordinates":[[3.048868,48.05773]]}},
{"type":"Feature","properties":{"uuid":"Paris-Orly_FIX_Names","textStyle":{"color":[181,162,153],"fontFamily":"Arial","fontSize":10,"fontWeight":400,"text":"EBOMA"}},"geometry":{"type":"MultiPoint","coordinates":[[3.206738,48.23154]]}},
{"type":"Feature","properties":{"uuid":"Paris-Orly_FIX_Names","textStyle":{"color":[181,162,153],"fontFamily":"Arial","fontSize":10,"fontWeight":400,"text":"MOLBA"}},"geometry":{"type":"MultiPoint","coordinates":[[3.064655,48.328197]]}},
{"type":"Feature","properties":{"uuid":"Paris-Orly_FIX_Names","textStyle":{"color":[181,162,153],"fontFamily":"Arial","fontSize":10,"fontWeight":400,"text":"ATTUC"}},"geometry":{"type":"MultiPoint","coordinates":[[3.280938,48.39428]]}},
{"type":"Feature","properties":{"uuid":"Paris-Orly_FIX_Names","textStyle":{"color":[181,162,153],"fontFamily":"Arial","fontSize":10,"fontWeight":400,"text":"EPURI"}},"geometry":{"type":"MultiPoint","coordinates":[[3.637725,48.489583]]}},
{"type":"Feature","properties":{"uuid":"Paris-Orly_FIX_Names","textStyle":{"color":[181,162,153],"fontFamily":"Arial","fontSize":10,"fontWeight":400,"text":"URELO"}},"geometry":{"type":"MultiPoint","coordinates":[[3.732447,48.569039]]}},
{"type":"Feature","properties":{"uuid":"Paris-Orly_FIX_Names","textStyle":{"color":[181,162,153],"fontFamily":"Arial","fontSize":10,"fontWeight":400,"text":"OKIPA"}},"geometry":{"type":"MultiPoint","coordinates":[[3.565105,48.641069]]}},
{"type":"Feature","properties":{"uuid":"Paris-Orly_FIX_Names","textStyle":{"color":[181,162,153],"fontFamily":"Arial","fontSize":10,"fontWeight":400,"text":"OKABO"}},"geometry":{"type":"MultiPoint","coordinates":[[3.490905,48.57844]]}},
{"type":"Feature","properties":{"uuid":"Paris-Orly_FIX_Names","textStyle":{"color":[181,162,153],"fontFamily":"Arial","fontSize":10,"fontWeight":400,"text":"VALPO"}},"geometry":{"type":"MultiPoint","coordinates":[[3.123067,48.86589]]}},
{"type":"Feature","properties":{"uuid":"Paris-Orly_FIX_Names","textStyle":{"color":[181,162,153],"fontFamily":"Arial","fontSize":10,"fontWeight":400,"text":"BATAG"}},"geometry":{"type":"MultiPoint","coordinates":[[3.372503,48.849271]]}},
{"type":"Feature","properties":{"uuid":"Paris-Orly_FIX_Names","textStyle":{"color":[181,162,153],"fontFamily":"Arial","fontSize":10,"fontWeight":400,"text":"NERIN"}},"geometry":{"type":"MultiPoint","coordinates":[[2.957303,48.664014]]}},
{"type":"Feature","properties":{"uuid":"Paris-Orly_FIX_Names","textStyle":{"color":[181,162,153],"fontFamily":"Arial","fontSize":10,"fontWeight":400,"text":"VEZAQ"}},"geometry":{"type":"MultiPoint","coordinates":[[2.902048,48.714038]]}},
{"type":"Feature","properties":{"uuid":"Paris-Orly_FIX_Names","textStyle":{"color":[181,162,153],"fontFamily":"Arial","fontSize":10,"fontWeight":400,"text":"VANEX"}},"geometry":{"type":"MultiPoint","coordinates":[[2.977826,48.577396]]}},
{"type":"Feature","properties":{"uuid":"Paris-Orly_FIX_Names","textStyle":{"color":[181,162,153],"fontFamily":"Arial","fontSize":10,"fontWeight":400,"text":"PO301"}},"geometry":{"type":"MultiPoint","coordinates":[[2.316348,48.500045]]}},
{"type":"Feature","properties":{"uuid":"Paris-Orly_FIX_Names","textStyle":{"color":[181,162,153],"fontFamily":"Arial","fontSize":10,"fontWeight":400,"text":"FPO02"}},"geometry":{"type":"MultiPoint","coordinates":[[2.310033,48.602979]]}},
{"type":"Feature","properties":{"uuid":"Paris-Orly_FIX_Names","textStyle":{"color":[181,162,153],"fontFamily":"Arial","fontSize":10,"fontWeight":400,"text":"DER28"}},"geometry":{"type":"MultiPoint","coordinates":[[2.662874,48.617853]]}}
]}