{"type":"FeatureCollection","features":[
{"type":"Feature","properties":{"name":"Lille MVA","lineStyle":{"color":[71,116,156],"width":2}},"geometry":{"type":"MultiLineString","coordinates":[[[0.850833,49.190556],[1.219167,49.282778],[1.382778,49.351667],[1.458333,49.383333],[1.641389,49.502778],[1.550833,49.560556],[1.519167,49.595556],[1.527222,49.679167],[1.349167,49.711667],[1.058056,49.6475],[0.774167,49.4525],[0.755556,49.4],[0.770833,49.308333],[0.850833,49.190556]],[[0.850833,49.190556],[0.609444,49.185556],[0.666389,49.278056],[0.616667,49.833333],[0.999999,49.792571],[1.0,50.0],[2.284062,49.999969],[2.238889,49.941944],[2.375,49.716667],[1.778611,49.716667],[1.590833,49.738611],[1.527222,49.679167]],[[1.641389,49.502778],[1.606444,49.455444],[1.613056,49.380278],[1.573145,49.304716],[1.627778,49.216667],[1.495278,49.101111],[1.419167,48.917222],[1.425278,48.705833],[1.374164,48.688008],[1.106111,48.652778],[0.999701,48.598737],[1.000145,49.2276]],[[2.375,49.716667],[2.668611,49.716667],[2.780508,49.675012],[2.894444,49.783333],[3.195,49.783333],[3.160556,49.877222],[3.116667,50.0],[3.092222,50.0675],[3.043611,50.119444],[2.359722,50.097222],[2.344722,50.077778],[2.284062,49.999969]],[[2.668611,49.716667],[2.832222,49.849167],[3.078333,49.849167],[3.160556,49.877222]],[[3.116667,50.0],[3.779444,50.0],[4.000278,50.160556],[3.74,50.308333],[3.718364,50.308333],[3.716667,50.308333],[3.716765,50.30826],[3.715436,50.306483],[3.720031,50.305017],[3.714384,50.303984],[3.71025,50.303228],[3.702033,50.310956],[3.702033,50.310956],[3.698178,50.31221],[3.694322,50.313464],[3.695277,50.316107],[3.695277,50.316107],[3.415278,50.206111],[2.776944,50.214722],[2.525,50.305556],[2.359722,50.097222]],[[1.25,50.633333],[1.483333,50.766667],[1.733333,50.683333],[1.933333,50.55],[1.95,50.433333],[1.791667,50.333333],[1.700126,50.378039],[1.631111,50.42],[1.601667,50.437778],[1.554444,50.437778],[1.25,50.633333]],[[1.750556,50.748889],[1.650556,50.805556],[1.591111,50.868889],[1.824167,51.078611],[2.0,51.116667],[2.241389,51.102222],[2.398889,50.970278],[2.2375,50.8325],[1.750556,50.748889]],[[2.525,50.305556],[2.560556,50.350278],[2.585608,50.38178],[2.585238,50.382012],[2.579787,50.386411],[2.577572,50.388752],[2.297222,50.430556],[2.283333,50.391667],[2.560556,50.350278]],[[2.560556,50.350278],[2.777222,50.3175],[2.884722,50.344722],[3.103558,50.335],[3.086111,50.414167],[2.823889,50.403333],[2.668333,50.485833],[2.644685,50.456107]],[[3.103558,50.335],[3.107778,50.315833],[3.434444,50.279444],[3.475,50.383333],[3.469471,50.389657],[3.405,50.463333],[3.49,50.506667],[3.499411,50.494561],[3.497447,50.493203],[3.500653,50.486733],[3.506683,50.48676],[3.573611,50.4425],[3.469471,50.389657]],[[3.573611,50.4425],[3.614444,50.409167],[3.658158,50.373306],[3.657103,50.369308],[3.658947,50.366861],[3.658947,50.366861],[3.662231,50.366075],[3.664542,50.365522],[3.667214,50.360892],[3.667192,50.3512],[3.664689,50.347667],[3.669336,50.346731],[3.669164,50.345261],[3.6774,50.3403],[3.672914,50.334819],[3.674547,50.332922],[3.677839,50.33295],[3.678579,50.331249],[3.679481,50.329178],[3.685606,50.326483],[3.684878,50.324967],[3.684878,50.324967],[3.684878,50.324967],[3.688678,50.322764],[3.688678,50.322764],[3.693872,50.321822],[3.692647,50.318794],[3.691865,50.318914],[3.691614,50.318953],[3.692156,50.320114],[3.690575,50.320339],[3.6903,50.319871],[3.689792,50.319006],[3.683997,50.320133],[3.695277,50.316107]],[[3.49,50.506667],[3.473611,50.669167],[3.423611,50.6875],[3.07,50.67],[2.8925,50.693889],[2.896081,50.696644],[2.917475,50.721521],[2.804444,50.843889],[2.611944,50.813889],[2.593658,50.803593],[2.325278,50.652222],[2.269444,50.503889],[2.297222,50.430556]],[[2.596179,50.805013],[2.594897,50.801693],[2.594519,50.800976],[2.594519,50.800976],[2.594161,50.800255],[2.594161,50.800255],[2.593824,50.79953],[2.593824,50.79953],[2.593506,50.798802],[2.593506,50.798802],[2.593208,50.79807],[2.593208,50.79807],[2.592931,50.797335],[2.592931,50.797335],[2.592674,50.796597],[2.592674,50.796597],[2.592437,50.795856],[2.592437,50.795856],[2.592221,50.795113],[2.592221,50.795113],[2.592026,50.794367],[2.592026,50.794367],[2.591851,50.793619],[2.591851,50.793619],[2.591696,50.79287],[2.591696,50.79287],[2.591563,50.792119],[2.591563,50.792119],[2.59145,50.791366],[2.59145,50.791366],[2.591358,50.790612],[2.591358,50.790612],[2.591287,50.789858],[2.591287,50.789858],[2.591236,50.789103],[2.591236,50.789103],[2.591207,50.788347],[2.591207,50.788347],[2.591198,50.787591],[2.59121,50.786836],[2.59121,50.786836],[2.591243,50.78608],[2.591243,50.78608],[2.591297,50.785325],[2.591297,50.785325],[2.591372,50.78457],[2.591372,50.78457],[2.591468,50.783817],[2.591468,50.783817],[2.591584,50.783064],[2.591584,50.783064],[2.591721,50.782314],[2.591721,50.782314],[2.591879,50.781564],[2.591879,50.781564],[2.592057,50.780817],[2.592057,50.780817],[2.592256,50.780071],[2.592256,50.780071],[2.592476,50.779328],[2.592476,50.779328],[2.592716,50.778588],[2.592716,50.778588],[2.592976,50.777849],[2.592976,50.777849],[2.593257,50.777115],[2.593257,50.777115],[2.593558,50.776383],[2.593558,50.776383],[2.593879,50.775655],[2.593879,50.775655],[2.59422,50.77493],[2.59422,50.77493],[2.594581,50.774209],[2.594581,50.774209],[2.594962,50.773493],[2.594962,50.773493],[2.595363,50.77278],[2.595363,50.77278],[2.595783,50.772072],[2.595783,50.772072],[2.596223,50.771369],[2.596223,50.771369],[2.596682,50.770671],[2.596682,50.770671],[2.597161,50.769978],[2.597161,50.769978],[2.597658,50.76929],[2.597658,50.76929],[2.598174,50.768608],[2.598174,50.768608],[2.598709,50.767932],[2.598709,50.767932],[2.599263,50.767262],[2.599263,50.767262],[2.599835,50.766598],[2.599835,50.766598],[2.600425,50.76594],[2.600425,50.76594],[2.601033,50.765289],[2.601033,50.765289],[2.601659,50.764644],[2.601659,50.764644],[2.602303,50.764007],[2.602303,50.764007],[2.602964,50.763377],[2.602964,50.763377],[2.603643,50.762754],[2.603643,50.762754],[2.604338,50.762139],[2.604338,50.762139],[2.605051,50.761532],[2.605051,50.761532],[2.60578,50.760933],[2.60578,50.760933],[2.606526,50.760341],[2.606526,50.760341],[2.607287,50.759758],[2.607287,50.759758],[2.608065,50.759184],[2.608065,50.759184],[2.608859,50.758618],[2.608859,50.758618],[2.609667,50.758061],[2.609667,50.758061],[2.610492,50.757513],[2.610492,50.757513],[2.611331,50.756974],[2.611331,50.756974],[2.612185,50.756445],[2.612185,50.756445],[2.613053,50.755925],[2.613053,50.755925],[2.613936,50.755415],[2.613936,50.755415],[2.614832,50.754914],[2.614832,50.754914],[2.615743,50.754424],[2.615743,50.754424],[2.616666,50.753943],[2.616666,50.753943],[2.617603,50.753473],[2.617603,50.753473],[2.618552,50.753014],[2.618552,50.753014],[2.619514,50.752564],[2.619514,50.752564],[2.620489,50.752126],[2.620489,50.752126],[2.621475,50.751698],[2.621475,50.751698],[2.622473,50.751282],[2.622473,50.751282],[2.623482,50.750876],[2.623482,50.750876],[2.624502,50.750481],[2.624502,50.750481],[2.625533,50.750098],[2.625533,50.750098],[2.626574,50.749727],[2.626574,50.749727],[2.627626,50.749367],[2.627626,50.749367],[2.628687,50.749018],[2.628687,50.749018],[2.629758,50.748681],[2.629758,50.748681],[2.630838,50.748357],[2.630838,50.748357],[2.631926,50.748044],[2.631926,50.748044],[2.633023,50.747743],[2.633023,50.747743],[2.634129,50.747454],[2.634129,50.747454],[2.635242,50.747178],[2.635242,50.747178],[2.636362,50.746914],[2.636362,50.746914],[2.63749,50.746662],[2.63749,50.746662],[2.638624,50.746423],[2.638624,50.746423],[2.639765,50.746196],[2.639765,50.746196],[2.640912,50.745983],[2.640912,50.745983],[2.642064,50.745781],[2.642064,50.745781],[2.643222,50.745592],[2.643222,50.745592],[2.644385,50.745417],[2.644385,50.745417],[2.645552,50.745254],[2.645552,50.745254],[2.646724,50.745104],[2.646724,50.745104],[2.6479,50.744967],[2.6479,50.744967],[2.64908,50.744843],[2.64908,50.744843],[2.650262,50.744732],[2.650262,50.744732],[2.651448,50.744634],[2.651448,50.744634],[2.652636,50.744549],[2.652636,50.744549],[2.653827,50.744478],[2.653827,50.744478],[2.655019,50.744419],[2.655019,50.744419],[2.656212,50.744374],[2.656212,50.744374],[2.657407,50.744342],[2.657407,50.744342],[2.658602,50.744323],[2.658602,50.744323],[2.659798,50.744318],[2.660993,50.744325],[2.660993,50.744325],[2.662188,50.744346],[2.662188,50.744346],[2.663383,50.744379],[2.663383,50.744379],[2.664576,50.744427],[2.664576,50.744427],[2.665768,50.744487],[2.665768,50.744487],[2.666958,50.74456],[2.666958,50.74456],[2.668146,50.744647],[2.668146,50.744647],[2.669331,50.744746],[2.669331,50.744746],[2.670513,50.744859],[2.670513,50.744859],[2.671692,50.744985],[2.671692,50.744985],[2.672868,50.745123],[2.672868,50.745123],[2.674039,50.745275],[2.674039,50.745275],[2.675206,50.74544],[2.675206,50.74544],[2.676369,50.745617],[2.676369,50.745617],[2.677526,50.745807],[2.677526,50.745807],[2.678677,50.74601],[2.678677,50.74601],[2.679824,50.746226],[2.679824,50.746226],[2.680963,50.746454],[2.680963,50.746454],[2.682097,50.746695],[2.682097,50.746695],[2.683224,50.746949],[2.683224,50.746949],[2.684343,50.747214],[2.684343,50.747214],[2.685455,50.747492],[2.685455,50.747492],[2.686559,50.747782],[2.686559,50.747782],[2.687655,50.748085],[2.687655,50.748085],[2.688742,50.748399],[2.688742,50.748399],[2.689821,50.748726],[2.689821,50.748726],[2.690891,50.749064],[2.690891,50.749064],[2.691951,50.749414],[2.691951,50.749414],[2.693001,50.749776],[2.693001,50.749776],[2.694041,50.750149],[2.694041,50.750149],[2.69507,50.750534],[2.69507,50.750534],[2.696089,50.75093],[2.696089,50.75093],[2.697097,50.751337],[2.697097,50.751337],[2.698093,50.751755],[2.698093,50.751755],[2.699078,50.752184],[2.699078,50.752184],[2.70005,50.752624],[2.70005,50.752624],[2.701011,50.753075],[2.701011,50.753075],[2.701959,50.753536],[2.701959,50.753536],[2.702893,50.754008],[2.702893,50.754008],[2.703815,50.754489],[2.703815,50.754489],[2.704724,50.754981],[2.704724,50.754981],[2.705618,50.755483],[2.705618,50.755483],[2.706499,50.755994],[2.706499,50.755994],[2.707365,50.756516],[2.707365,50.756516],[2.708217,50.757046],[2.708217,50.757046],[2.709054,50.757586],[2.709054,50.757586],[2.709877,50.758136],[2.709877,50.758136],[2.710684,50.758694],[2.710684,50.758694],[2.711475,50.759261],[2.711475,50.759261],[2.712251,50.759836],[2.712251,50.759836],[2.71301,50.76042],[2.71301,50.76042],[2.713753,50.761013],[2.713753,50.761013],[2.71448,50.761613],[2.71448,50.761613],[2.715191,50.762222],[2.715191,50.762222],[2.715884,50.762838],[2.715884,50.762838],[2.71656,50.763461],[2.71656,50.763461],[2.717219,50.764092],[2.717219,50.764092],[2.717861,50.764731],[2.717861,50.764731],[2.718484,50.765376],[2.718484,50.765376],[2.71909,50.766028],[2.71909,50.766028],[2.719678,50.766686],[2.719678,50.766686],[2.720247,50.767351],[2.720247,50.767351],[2.720798,50.768023],[2.720798,50.768023],[2.721331,50.768699],[2.721331,50.768699],[2.721844,50.769382],[2.721844,50.769382],[2.722339,50.770071],[2.722339,50.770071],[2.722815,50.770764],[2.722815,50.770764],[2.723272,50.771463],[2.723272,50.771463],[2.723709,50.772167],[2.723709,50.772167],[2.724126,50.772876],[2.724126,50.772876],[2.724524,50.773589],[2.724524,50.773589],[2.724903,50.774306],[2.724903,50.774306],[2.725261,50.775027],[2.725261,50.775027],[2.7256,50.775752],[2.7256,50.775752],[2.725918,50.776481],[2.725918,50.776481],[2.726216,50.777213],[2.726216,50.777213],[2.726494,50.777949],[2.726494,50.777949],[2.726752,50.778687],[2.726752,50.778687],[2.726989,50.779428],[2.726989,50.779428],[2.727206,50.780171],[2.727206,50.780171],[2.727403,50.780917],[2.727403,50.780917],[2.727578,50.781665],[2.727578,50.781665],[2.727733,50.782414],[2.727733,50.782414],[2.727867,50.783166],[2.727867,50.783166],[2.727981,50.783918],[2.727981,50.783918],[2.728074,50.784672],[2.728074,50.784672],[2.728146,50.785426],[2.728146,50.785426],[2.728197,50.786182],[2.728197,50.786182],[2.728227,50.786937],[2.728227,50.786937],[2.728237,50.787693],[2.728225,50.788449],[2.728225,50.788449],[2.728193,50.789204],[2.728193,50.789204],[2.728139,50.78996],[2.728139,50.78996],[2.728066,50.790714],[2.728066,50.790714],[2.727971,50.791468],[2.727971,50.791468],[2.727855,50.79222],[2.727855,50.79222],[2.727719,50.792971],[2.727719,50.792971],[2.727562,50.79372],[2.727562,50.79372],[2.727384,50.794467],[2.727384,50.794467],[2.727186,50.795212],[2.727186,50.795212],[2.726967,50.795956],[2.726967,50.795956],[2.726727,50.796696],[2.726727,50.796696],[2.726467,50.797434],[2.726467,50.797434],[2.726187,50.798168],[2.726187,50.798168],[2.725887,50.7989],[2.725887,50.7989],[2.725567,50.799628],[2.725567,50.799628],[2.725226,50.800352],[2.725226,50.800352],[2.724866,50.801073],[2.724866,50.801073],[2.724485,50.801789],[2.724485,50.801789],[2.724085,50.802501],[2.724085,50.802501],[2.723666,50.803209],[2.723666,50.803209],[2.723227,50.803912],[2.723227,50.803912],[2.722768,50.804609],[2.722768,50.804609],[2.722291,50.805302],[2.722291,50.805302],[2.721794,50.805989],[2.721794,50.805989],[2.721278,50.806671],[2.721278,50.806671],[2.720744,50.807347],[2.720744,50.807347],[2.720191,50.808017],[2.720191,50.808017],[2.71962,50.808681],[2.71962,50.808681],[2.71903,50.809338],[2.71903,50.809338],[2.718422,50.809989],[2.718422,50.809989],[2.717797,50.810633],[2.717797,50.810633],[2.717154,50.811269],[2.717154,50.811269],[2.716493,50.811899],[2.716493,50.811899],[2.715815,50.812521],[2.715815,50.812521],[2.71512,50.813136],[2.71512,50.813136],[2.714408,50.813743],[2.714408,50.813743],[2.713679,50.814342],[2.713679,50.814342],[2.712934,50.814933],[2.712934,50.814933],[2.712173,50.815516],[2.712173,50.815516],[2.711396,50.81609],[2.711396,50.81609],[2.710603,50.816655],[2.710603,50.816655],[2.709795,50.817212],[2.709795,50.817212],[2.708971,50.817759],[2.708971,50.817759],[2.708133,50.818297],[2.708133,50.818297],[2.707279,50.818827],[2.707279,50.818827],[2.706411,50.819346],[2.706411,50.819346],[2.705529,50.819856],[2.693449,50.826593]],[[2.668579,50.451734],[2.668579,50.451734],[2.676186,50.448927],[2.676186,50.448927],[2.683181,50.445534],[2.683181,50.445534],[2.689452,50.44161],[2.689452,50.44161],[2.694902,50.437216],[2.699444,50.432421],[2.699444,50.432421],[2.703007,50.4273],[2.703007,50.4273],[2.705534,50.421935],[2.705534,50.421935],[2.706986,50.41641],[2.706986,50.41641],[2.70734,50.410812],[2.706589,50.405229],[2.706589,50.405229],[2.704747,50.399749],[2.704747,50.399749],[2.701842,50.394459],[2.701842,50.394459],[2.697919,50.389442],[2.697919,50.389442],[2.693042,50.384778],[2.693042,50.384778],[2.687286,50.38054],[2.687286,50.38054],[2.680742,50.376796],[2.680742,50.376796],[2.673514,50.373603],[2.673514,50.373603],[2.665715,50.371013],[2.665715,50.371013],[2.657469,50.369067],[2.657469,50.369067],[2.648906,50.367796],[2.648906,50.367796],[2.64016,50.367219],[2.63137,50.367345],[2.63137,50.367345],[2.622674,50.368174],[2.622674,50.368174],[2.61421,50.369691],[2.61421,50.369691],[2.606111,50.371873],[2.606111,50.371873],[2.598504,50.374684],[2.598504,50.374684],[2.591509,50.378082],[2.591509,50.378082],[2.585238,50.382012],[2.585238,50.382012],[2.579787,50.386411],[2.579787,50.386411],[2.575246,50.391211],[2.575246,50.391211],[2.571683,50.396335],[2.571683,50.396335],[2.569155,50.401703],[2.569155,50.401703],[2.567704,50.40723],[2.567704,50.40723],[2.56735,50.412829],[2.5681,50.418411],[2.5681,50.418411],[2.569942,50.423888],[2.569942,50.423888],[2.572848,50.429175],[2.572848,50.429175],[2.57677,50.434188],[2.57677,50.434188],[2.581648,50.438847],[2.581648,50.438847],[2.587404,50.443079],[2.587404,50.443079],[2.593948,50.446819],[2.593948,50.446819],[2.601176,50.450007],[2.601176,50.450007],[2.608974,50.452592],[2.608974,50.452592],[2.61722,50.454535],[2.61722,50.454535],[2.625784,50.455804],[2.625784,50.455804],[2.634529,50.45638],[2.643319,50.456253],[2.643319,50.456253],[2.652015,50.455426],[2.652015,50.455426],[2.660479,50.453912],[2.660479,50.453912],[2.668579,50.451734]]]}},
{"type":"Feature","properties":{"uuid":"Lille_MVA_Text","textStyle":{"color":[71,116,156],"fontFamily":"Arial","fontSize":12,"fontWeight":600,"text":"3500"}},"geometry":{"type":"MultiPoint","coordinates":[[1.214056,49.028528]]}},
{"type":"Feature","properties":{"uuid":"Lille_MVA_Text","textStyle":{"color":[71,116,156],"fontFamily":"Arial","fontSize":12,"fontWeight":600,"text":"3000"}},"geometry":{"type":"MultiPoint","coordinates":[[1.124107,49.566227]]}},
{"type":"Feature","properties":{"uuid":"Lille_MVA_Text","textStyle":{"color":[71,116,156],"fontFamily":"Arial","fontSize":12,"fontWeight":600,"text":"3500"}},"geometry":{"type":"MultiPoint","coordinates":[[1.58569,49.889848]]}},
{"type":"Feature","properties":{"uuid":"Lille_MVA_Text","textStyle":{"color":[71,116,156],"fontFamily":"Arial","fontSize":12,"fontWeight":600,"text":"3500"}},"geometry":{"type":"MultiPoint","coordinates":[[2.853268,49.809718]]}},
{"type":"Feature","properties":{"uuid":"Lille_MVA_Text","textStyle":{"color":[71,116,156],"fontFamily":"Arial","fontSize":12,"fontWeight":600,"text":"2000"}},"geometry":{"type":"MultiPoint","coordinates":[[2.547913,49.844075]]}},
{"type":"Feature","properties":{"uuid":"Lille_MVA_Text","textStyle":{"color":[71,116,156],"fontFamily":"Arial","fontSize":12,"fontWeight":600,"text":"5000"}},"geometry":{"type":"MultiPoint","coordinates":[[3.261591,50.106674]]}},
{"type":"Feature","properties":{"uuid":"Lille_MVA_Text","textStyle":{"color":[71,116,156],"fontFamily":"Arial","fontSize":12,"fontWeight":600,"text":"2000"}},"geometry":{"type":"MultiPoint","coordinates":[[1.610362,50.548163]]}},
{"type":"Feature","properties":{"uuid":"Lille_MVA_Text","textStyle":{"color":[71,116,156],"fontFamily":"Arial","fontSize":12,"fontWeight":600,"text":"2000"}},"geometry":{"type":"MultiPoint","coordinates":[[1.983362,50.928429]]}},
{"type":"Feature","properties":{"uuid":"Lille_MVA_Text","textStyle":{"color":[71,116,156],"fontFamily":"Arial","fontSize":12,"fontWeight":600,"text":"2500"}},"geometry":{"type":"MultiPoint","coordinates":[[2.657983,50.780491]]}},
{"type":"Feature","properties":{"uuid":"Lille_MVA_Text","textStyle":{"color":[71,116,156],"fontFamily":"Arial","fontSize":12,"fontWeight":600,"text":"2000"}},"geometry":{"type":"MultiPoint","coordinates":[[2.789357,50.562214]]}},
{"type":"Feature","properties":{"uuid":"Lille_MVA_Text","textStyle":{"color":[71,116,156],"fontFamily":"Arial","fontSize":12,"fontWeight":600,"text":"4500"}},"geometry":{"type":"MultiPoint","coordinates":[[2.430298,50.388786]]}},
{"type":"Feature","properties":{"uuid":"Lille_MVA_Text","textStyle":{"color":[71,116,156],"fontFamily":"Arial","fontSize":12,"fontWeight":600,"text":"2500"}},"geometry":{"type":"MultiPoint","coordinates":[[2.830633,50.37237]]}},
{"type":"Feature","properties":{"uuid":"Lille_MVA_Text","textStyle":{"color":[71,116,156],"fontFamily":"Arial","fontSize":12,"fontWeight":600,"text":"4500"}},"geometry":{"type":"MultiPoint","coordinates":[[2.927388,50.269787]]}},
{"type":"Feature","properties":{"uuid":"Lille_MVA_Text","textStyle":{"color":[71,116,156],"fontFamily":"Arial","fontSize":12,"fontWeight":600,"text":"2500"}},"geometry":{"type":"MultiPoint","coordinates":[[3.475074,50.447043]]}},
{"type":"Feature","properties":{"uuid":"Lille_MVA_Text","textStyle":{"color":[71,116,156],"fontFamily":"Arial","fontSize":12,"fontWeight":600,"text":"3000"}},"geometry":{"type":"MultiPoint","coordinates":[[2.635348,50.409721]]}}
]}