{"type":"FeatureCollection","features":[
{"type":"Feature","properties":{"name":"Calais RNP 24","lineStyle":{"color":[226,226,226],"width":1},"activation":{"activeRunways":{"LFAC":{"arr":["24"]}}}},"geometry":{"type":"MultiLineString","coordinates":[[[1.968333,50.851667],[2.253889,50.992056],[2.183583,51.041722],[2.145389,51.085472]],[[2.183583,51.041722],[1.964314,50.965436]]]}},
{"type":"Feature","properties":{"name":"Le Touquet ILS 13","lineStyle":{"color":[226,226,226],"width":1},"activation":{"activeRunways":{"LFAT":{"arr":["13"]}}}},"geometry":{"type":"MultiLineString","coordinates":[[[1.612472,50.523978],[1.403611,50.649639],[1.477528,50.699167],[1.572528,50.641861]],[[1.329806,50.600083],[1.403611,50.649639]]]}},
{"type":"Feature","properties":{"name":"Le Touquet ILS 31","lineStyle":{"color":[226,226,226],"width":1},"activation":{"activeRunways":{"LFAT":{"arr":["31"]}}}},"geometry":{"type":"MultiLineString","coordinates":[[[1.629883,50.513453],[1.824528,50.395278],[1.8965,50.443472],[1.754167,50.550278]]]}},
{"type":"Feature","properties":{"name":"Albert RNP 08","lineStyle":{"color":[226,226,226],"width":1},"activation":{"activeRunways":{"LFAQ":{"arr":["08"]}}}},"geometry":{"type":"MultiLineString","coordinates":[[[2.809417,49.97625],[2.652639,50.059444],[2.352833,50.043361],[2.365222,49.952111],[2.678697,49.969325]]]}},
{"type":"Feature","properties":{"name":"Albert RNP 26","lineStyle":{"color":[226,226,226],"width":1},"activation":{"activeRunways":{"LFAQ":{"arr":["26"]}}}},"geometry":{"type":"MultiLineString","coordinates":[[[2.6885,49.96975],[2.67275,50.055778],[3.007611,50.083167],[3.019861,49.987083],[2.709256,49.970956]]]}},
{"type":"Feature","properties":{"name":"Valenciennes RNP 11","lineStyle":{"color":[226,226,226],"width":1},"activation":{"activeRunways":{"LFAV":{"arr":["11"]}}}},"geometry":{"type":"MultiLineString","coordinates":[[[3.452311,50.327986],[3.193833,50.390472],[3.239722,50.468389]],[[3.193833,50.390472],[3.148083,50.312528]]]}},
{"type":"Feature","properties":{"name":"Valenciennes RNP 29","lineStyle":{"color":[226,226,226],"width":1},"activation":{"activeRunways":{"LFAV":{"arr":["29"]}}}},"geometry":{"type":"MultiLineString","coordinates":[[[3.470944,50.323453],[3.804861,50.241556]],[[3.880472,50.297111],[3.804861,50.241556],[3.802528,50.161833]]]}},
{"type":"Feature","properties":{"name":"Rouen RNP 04","lineStyle":{"color":[226,226,226],"width":1},"activation":{"activeRunways":{"LFOP":{"arr":["04"]}}}},"geometry":{"type":"MultiLineString","coordinates":[[[0.895083,49.332],[0.932889,49.259528],[1.038917,49.283111],[1.16845,49.379469]]]}},
{"type":"Feature","properties":{"name":"Rouen RNP 22","lineStyle":{"color":[226,226,226],"width":1},"activation":{"activeRunways":{"LFOP":{"arr":["22"]}}}},"geometry":{"type":"MultiLineString","coordinates":[[[1.250139,49.616167],[1.384472,49.538972],[1.480139,49.48375]],[[1.384472,49.538972],[1.183936,49.390953]]]}},
{"type":"Feature","properties":{"name":"Lille Procedure FIX","pointStyle":{"type":"triangle_hollow","color":[235,235,235]},"activation":{"activeRunways":{"LFOP":{"arr":["04"]}}}},"geometry":{"type":"MultiPoint","coordinates":[[0.895083,49.332],[1.038917,49.283111]]}},
{"type":"Feature","properties":{"name":"Lille Procedure FIX","pointStyle":{"type":"triangle_hollow","color":[235,235,235]},"activation":{"activeRunways":{"LFAV":{"arr":["11"]}}}},"geometry":{"type":"MultiPoint","coordinates":[[3.148083,50.312528],[3.193833,50.390472],[3.239722,50.468389]]}},
{"type":"Feature","properties":{"name":"Lille Procedure FIX","pointStyle":{"type":"triangle_hollow","color":[235,235,235]},"activation":{"activeRunways":{"LFAV":{"arr":["29"]}}}},"geometry":{"type":"MultiPoint","coordinates":[[3.880472,50.297111],[3.804861,50.241556],[3.802528,50.161833]]}},
{"type":"Feature","properties":{"name":"Lille Procedure FIX","pointStyle":{"type":"triangle_hollow","color":[235,235,235]},"activation":{"activeRunways":{"LFAQ":{"arr":["08"]}}}},"geometry":{"type":"MultiPoint","coordinates":[[2.652639,50.059444],[2.352833,50.043361]]}},
{"type":"Feature","properties":{"name":"Lille Procedure FIX","pointStyle":{"type":"triangle_hollow","color":[235,235,235]},"activation":{"activeRunways":{"LFAT":{"arr":["31"]}}}},"geometry":{"type":"MultiPoint","coordinates":[[1.754167,50.550278]]}}
]}