{"type":"FeatureCollection","features":[
{"type":"Feature","properties":{"uuid":"Lille_IFR_FIX_Names","textStyle":{"color":[169,169,169],"fontFamily":"Arial","fontSize":10,"fontWeight":400,"text":"ADNOR"}},"geometry":{"type":"MultiPoint","coordinates":[[2.405883,50.048685]]}},
{"type":"Feature","properties":{"uuid":"Lille_IFR_FIX_Names","textStyle":{"color":[169,169,169],"fontFamily":"Arial","fontSize":10,"fontWeight":400,"text":"ADSUD"}},"geometry":{"type":"MultiPoint","coordinates":[[2.459389,49.913634]]}},
{"type":"Feature","properties":{"uuid":"Lille_IFR_FIX_Names","textStyle":{"color":[169,169,169],"fontFamily":"Arial","fontSize":10,"fontWeight":400,"text":"AGLAX"}},"geometry":{"type":"MultiPoint","coordinates":[[2.449438,49.988298]]}},
{"type":"Feature","properties":{"uuid":"Lille_IFR_FIX_Names","textStyle":{"color":[169,169,169],"fontFamily":"Arial","fontSize":10,"fontWeight":400,"text":"ASBAR"}},"geometry":{"type":"MultiPoint","coordinates":[[3.364949,50.424753]]}},
{"type":"Feature","properties":{"uuid":"Lille_IFR_FIX_Names","textStyle":{"color":[169,169,169],"fontFamily":"Arial","fontSize":10,"fontWeight":400,"text":"BANTI"}},"geometry":{"type":"MultiPoint","coordinates":[[1.625263,49.955602]]}},
{"type":"Feature","properties":{"uuid":"Lille_IFR_FIX_Names","textStyle":{"color":[169,169,169],"fontFamily":"Arial","fontSize":10,"fontWeight":400,"text":"BILGO"}},"geometry":{"type":"MultiPoint","coordinates":[[3.447498,49.933384]]}},
{"type":"Feature","properties":{"uuid":"Lille_IFR_FIX_Names","textStyle":{"color":[169,169,169],"fontFamily":"Arial","fontSize":10,"fontWeight":400,"text":"BOGVA"}},"geometry":{"type":"MultiPoint","coordinates":[[1.479209,49.5152]]}},
{"type":"Feature","properties":{"uuid":"Lille_IFR_FIX_Names","textStyle":{"color":[169,169,169],"fontFamily":"Arial","fontSize":10,"fontWeight":400,"text":"DENIN"}},"geometry":{"type":"MultiPoint","coordinates":[[3.430268,50.40142]]}},
{"type":"Feature","properties":{"uuid":"Lille_IFR_FIX_Names","textStyle":{"color":[169,169,169],"fontFamily":"Arial","fontSize":10,"fontWeight":400,"text":"DIPKA"}},"geometry":{"type":"MultiPoint","coordinates":[[2.183068,51.07311]]}},
{"type":"Feature","properties":{"uuid":"Lille_IFR_FIX_Names","textStyle":{"color":[169,169,169],"fontFamily":"Arial","fontSize":10,"fontWeight":400,"text":"DUNKY"}},"geometry":{"type":"MultiPoint","coordinates":[[2.373216,51.063889]]}},
{"type":"Feature","properties":{"uuid":"Lille_IFR_FIX_Names","textStyle":{"color":[169,169,169],"fontFamily":"Arial","fontSize":10,"fontWeight":400,"text":"EKRIK"}},"geometry":{"type":"MultiPoint","coordinates":[[2.757265,50.547442]]}},
{"type":"Feature","properties":{"uuid":"Lille_IFR_FIX_Names","textStyle":{"color":[169,169,169],"fontFamily":"Arial","fontSize":10,"fontWeight":400,"text":"ELBOX"}},"geometry":{"type":"MultiPoint","coordinates":[[0.806442,49.317839]]}},
{"type":"Feature","properties":{"uuid":"Lille_IFR_FIX_Names","textStyle":{"color":[169,169,169],"fontFamily":"Arial","fontSize":10,"fontWeight":400,"text":"ELNUX"}},"geometry":{"type":"MultiPoint","coordinates":[[2.593719,50.472778]]}},
{"type":"Feature","properties":{"uuid":"Lille_IFR_FIX_Names","textStyle":{"color":[169,169,169],"fontFamily":"Arial","fontSize":10,"fontWeight":400,"text":"ELTEG"}},"geometry":{"type":"MultiPoint","coordinates":[[1.7906,50.941781]]}},
{"type":"Feature","properties":{"uuid":"Lille_IFR_FIX_Names","textStyle":{"color":[169,169,169],"fontFamily":"Arial","fontSize":10,"fontWeight":400,"text":"ELTUD"}},"geometry":{"type":"MultiPoint","coordinates":[[1.895812,50.474887]]}},
{"type":"Feature","properties":{"uuid":"Lille_IFR_FIX_Names","textStyle":{"color":[169,169,169],"fontFamily":"Arial","fontSize":10,"fontWeight":400,"text":"ELVES"}},"geometry":{"type":"MultiPoint","coordinates":[[3.965594,49.827831]]}},
{"type":"Feature","properties":{"uuid":"Lille_IFR_FIX_Names","textStyle":{"color":[169,169,169],"fontFamily":"Arial","fontSize":10,"fontWeight":400,"text":"ERNOD"}},"geometry":{"type":"MultiPoint","coordinates":[[2.790702,50.432864]]}},
{"type":"Feature","properties":{"uuid":"Lille_IFR_FIX_Names","textStyle":{"color":[169,169,169],"fontFamily":"Arial","fontSize":10,"fontWeight":400,"text":"ESIVI"}},"geometry":{"type":"MultiPoint","coordinates":[[1.823796,50.426694]]}},
{"type":"Feature","properties":{"uuid":"Lille_IFR_FIX_Names","textStyle":{"color":[169,169,169],"fontFamily":"Arial","fontSize":10,"fontWeight":400,"text":"IBRIG"}},"geometry":{"type":"MultiPoint","coordinates":[[1.916792,50.853425]]}},
{"type":"Feature","properties":{"uuid":"Lille_IFR_FIX_Names","textStyle":{"color":[169,169,169],"fontFamily":"Arial","fontSize":10,"fontWeight":400,"text":"IDLAB"}},"geometry":{"type":"MultiPoint","coordinates":[[1.383483,49.570419]]}},
{"type":"Feature","properties":{"uuid":"Lille_IFR_FIX_Names","textStyle":{"color":[169,169,169],"fontFamily":"Arial","fontSize":10,"fontWeight":400,"text":"IZUKE"}},"geometry":{"type":"MultiPoint","coordinates":[[2.36483,49.983548]]}},
{"type":"Feature","properties":{"uuid":"Lille_IFR_FIX_Names","textStyle":{"color":[169,169,169],"fontFamily":"Arial","fontSize":10,"fontWeight":400,"text":"LESDO"}},"geometry":{"type":"MultiPoint","coordinates":[[3.318252,49.839777]]}},
{"type":"Feature","properties":{"uuid":"Lille_IFR_FIX_Names","textStyle":{"color":[169,169,169],"fontFamily":"Arial","fontSize":10,"fontWeight":400,"text":"LUMIL"}},"geometry":{"type":"MultiPoint","coordinates":[[2.969425,50.451141]]}},
{"type":"Feature","properties":{"uuid":"Lille_IFR_FIX_Names","textStyle":{"color":[169,169,169],"fontFamily":"Arial","fontSize":10,"fontWeight":400,"text":"MAGIP"}},"geometry":{"type":"MultiPoint","coordinates":[[2.805434,50.784847]]}},
{"type":"Feature","properties":{"uuid":"Lille_IFR_FIX_Names","textStyle":{"color":[169,169,169],"fontFamily":"Arial","fontSize":10,"fontWeight":400,"text":"MATIX"}},"geometry":{"type":"MultiPoint","coordinates":[[3.914733,50.129763]]}},
{"type":"Feature","properties":{"uuid":"Lille_IFR_FIX_Names","textStyle":{"color":[169,169,169],"fontFamily":"Arial","fontSize":10,"fontWeight":400,"text":"NAKIB"}},"geometry":{"type":"MultiPoint","coordinates":[[1.249066,49.64761]]}},
{"type":"Feature","properties":{"uuid":"Lille_IFR_FIX_Names","textStyle":{"color":[169,169,169],"fontFamily":"Arial","fontSize":10,"fontWeight":400,"text":"NEKEN"}},"geometry":{"type":"MultiPoint","coordinates":[[2.816552,50.556025]]}},
{"type":"Feature","properties":{"uuid":"Lille_IFR_FIX_Names","textStyle":{"color":[169,169,169],"fontFamily":"Arial","fontSize":10,"fontWeight":400,"text":"NUMLO"}},"geometry":{"type":"MultiPoint","coordinates":[[2.144849,51.116857]]}},
{"type":"Feature","properties":{"uuid":"Lille_IFR_FIX_Names","textStyle":{"color":[169,169,169],"fontFamily":"Arial","fontSize":10,"fontWeight":400,"text":"NURMO"}},"geometry":{"type":"MultiPoint","coordinates":[[2.755127,49.857554]]}},
{"type":"Feature","properties":{"uuid":"Lille_IFR_FIX_Names","textStyle":{"color":[169,169,169],"fontFamily":"Arial","fontSize":10,"fontWeight":400,"text":"ODENI"}},"geometry":{"type":"MultiPoint","coordinates":[[2.386145,50.573801]]}},
{"type":"Feature","properties":{"uuid":"Lille_IFR_FIX_Names","textStyle":{"color":[169,169,169],"fontFamily":"Arial","fontSize":10,"fontWeight":400,"text":"OGLIB"}},"geometry":{"type":"MultiPoint","coordinates":[[3.019873,50.01852]]}},
{"type":"Feature","properties":{"uuid":"Lille_IFR_FIX_Names","textStyle":{"color":[169,169,169],"fontFamily":"Arial","fontSize":10,"fontWeight":400,"text":"OLBUS"}},"geometry":{"type":"MultiPoint","coordinates":[[3.368563,50.634549]]}},
{"type":"Feature","properties":{"uuid":"Lille_IFR_FIX_Names","textStyle":{"color":[169,169,169],"fontFamily":"Arial","fontSize":10,"fontWeight":400,"text":"OLMAV"}},"geometry":{"type":"MultiPoint","coordinates":[[1.476574,50.730567]]}},
{"type":"Feature","properties":{"uuid":"Lille_IFR_FIX_Names","textStyle":{"color":[169,169,169],"fontFamily":"Arial","fontSize":10,"fontWeight":400,"text":"OQSAM"}},"geometry":{"type":"MultiPoint","coordinates":[[0.93163,49.29098]]}},
{"type":"Feature","properties":{"uuid":"Lille_IFR_FIX_Names","textStyle":{"color":[169,169,169],"fontFamily":"Arial","fontSize":10,"fontWeight":400,"text":"OSDIT"}},"geometry":{"type":"MultiPoint","coordinates":[[1.328761,50.631487]]}},
{"type":"Feature","properties":{"uuid":"Lille_IFR_FIX_Names","textStyle":{"color":[169,169,169],"fontFamily":"Arial","fontSize":10,"fontWeight":400,"text":"OSLID"}},"geometry":{"type":"MultiPoint","coordinates":[[3.40214,50.536971]]}},
{"type":"Feature","properties":{"uuid":"Lille_IFR_FIX_Names","textStyle":{"color":[169,169,169],"fontFamily":"Arial","fontSize":10,"fontWeight":400,"text":"OTGUV"}},"geometry":{"type":"MultiPoint","coordinates":[[1.743292,50.974779]]}},
{"type":"Feature","properties":{"uuid":"Lille_IFR_FIX_Names","textStyle":{"color":[169,169,169],"fontFamily":"Arial","fontSize":10,"fontWeight":400,"text":"PERON"}},"geometry":{"type":"MultiPoint","coordinates":[[2.839901,49.94394]]}},
{"type":"Feature","properties":{"uuid":"Lille_IFR_FIX_Names","textStyle":{"color":[169,169,169],"fontFamily":"Arial","fontSize":10,"fontWeight":400,"text":"PIMIX"}},"geometry":{"type":"MultiPoint","coordinates":[[2.746341,50.7361]]}},
{"type":"Feature","properties":{"uuid":"Lille_IFR_FIX_Names","textStyle":{"color":[169,169,169],"fontFamily":"Arial","fontSize":10,"fontWeight":400,"text":"PITAV"}},"geometry":{"type":"MultiPoint","coordinates":[[0.932076,49.226177]]}},
{"type":"Feature","properties":{"uuid":"Lille_IFR_FIX_Names","textStyle":{"color":[169,169,169],"fontFamily":"Arial","fontSize":10,"fontWeight":400,"text":"REVGO"}},"geometry":{"type":"MultiPoint","coordinates":[[2.663095,50.776653]]}},
{"type":"Feature","properties":{"uuid":"Lille_IFR_FIX_Names","textStyle":{"color":[169,169,169],"fontFamily":"Arial","fontSize":10,"fontWeight":400,"text":"ROGEV"}},"geometry":{"type":"MultiPoint","coordinates":[[3.007616,50.1146]]}},
{"type":"Feature","properties":{"uuid":"Lille_IFR_FIX_Names","textStyle":{"color":[169,169,169],"fontFamily":"Arial","fontSize":10,"fontWeight":400,"text":"ROKRO"}},"geometry":{"type":"MultiPoint","coordinates":[[4.291907,49.913104]]}},
{"type":"Feature","properties":{"uuid":"Lille_IFR_FIX_Names","textStyle":{"color":[169,169,169],"fontFamily":"Arial","fontSize":10,"fontWeight":400,"text":"RONOR"}},"geometry":{"type":"MultiPoint","coordinates":[[2.787561,50.637188]]}},
{"type":"Feature","properties":{"uuid":"Lille_IFR_FIX_Names","textStyle":{"color":[169,169,169],"fontFamily":"Arial","fontSize":10,"fontWeight":400,"text":"RUCAC"}},"geometry":{"type":"MultiPoint","coordinates":[[1.741015,50.91456]]}},
{"type":"Feature","properties":{"uuid":"Lille_IFR_FIX_Names","textStyle":{"color":[169,169,169],"fontFamily":"Arial","fontSize":10,"fontWeight":400,"text":"SOPOL"}},"geometry":{"type":"MultiPoint","coordinates":[[1.684467,49.894493]]}},
{"type":"Feature","properties":{"uuid":"Lille_IFR_FIX_Names","textStyle":{"color":[169,169,169],"fontFamily":"Arial","fontSize":10,"fontWeight":400,"text":"SOSUN"}},"geometry":{"type":"MultiPoint","coordinates":[[1.516806,50.016293]]}},
{"type":"Feature","properties":{"uuid":"Lille_IFR_FIX_Names","textStyle":{"color":[169,169,169],"fontFamily":"Arial","fontSize":10,"fontWeight":400,"text":"SUDAP"}},"geometry":{"type":"MultiPoint","coordinates":[[2.84546,50.474862]]}},
{"type":"Feature","properties":{"uuid":"Lille_IFR_FIX_Names","textStyle":{"color":[169,169,169],"fontFamily":"Arial","fontSize":10,"fontWeight":400,"text":"SUDOD"}},"geometry":{"type":"MultiPoint","coordinates":[[2.253419,51.023446]]}},
{"type":"Feature","properties":{"uuid":"Lille_IFR_FIX_Names","textStyle":{"color":[169,169,169],"fontFamily":"Arial","fontSize":10,"fontWeight":400,"text":"SULEX"}},"geometry":{"type":"MultiPoint","coordinates":[[2.92551,50.031437]]}},
{"type":"Feature","properties":{"uuid":"Lille_IFR_FIX_Names","textStyle":{"color":[169,169,169],"fontFamily":"Arial","fontSize":10,"fontWeight":400,"text":"SUSON"}},"geometry":{"type":"MultiPoint","coordinates":[[2.410911,50.45714]]}},
{"type":"Feature","properties":{"uuid":"Lille_IFR_FIX_Names","textStyle":{"color":[169,169,169],"fontFamily":"Arial","fontSize":10,"fontWeight":400,"text":"TRACA"}},"geometry":{"type":"MultiPoint","coordinates":[[1.967684,50.883063]]}},
{"type":"Feature","properties":{"uuid":"Lille_IFR_FIX_Names","textStyle":{"color":[169,169,169],"fontFamily":"Arial","fontSize":10,"fontWeight":400,"text":"TUKVI"}},"geometry":{"type":"MultiPoint","coordinates":[[1.402611,50.681041]]}},
{"type":"Feature","properties":{"uuid":"Lille_IFR_FIX_Names","textStyle":{"color":[169,169,169],"fontFamily":"Arial","fontSize":10,"fontWeight":400,"text":"UPMIT"}},"geometry":{"type":"MultiPoint","coordinates":[[3.351692,50.683325]]}},
{"type":"Feature","properties":{"uuid":"Lille_IFR_FIX_Names","textStyle":{"color":[169,169,169],"fontFamily":"Arial","fontSize":10,"fontWeight":400,"text":"UPSAQ"}},"geometry":{"type":"MultiPoint","coordinates":[[3.892216,49.814776]]}},
{"type":"Feature","properties":{"uuid":"Lille_IFR_FIX_Names","textStyle":{"color":[169,169,169],"fontFamily":"Arial","fontSize":10,"fontWeight":400,"text":"VERMA"}},"geometry":{"type":"MultiPoint","coordinates":[[3.243483,50.031436]]}},
{"type":"Feature","properties":{"uuid":"Lille_IFR_FIX_Names","textStyle":{"color":[169,169,169],"fontFamily":"Arial","fontSize":10,"fontWeight":400,"text":"XORBI"}},"geometry":{"type":"MultiPoint","coordinates":[[2.450772,49.949217]]}}
]}