{"type":"FeatureCollection","features":[
{"type":"Feature","properties":{"uuid":"Lille_Navaids_Names","textStyle":{"color":[169,169,169],"fontFamily":"Arial","fontSize":10,"fontWeight":400,"text":"ABB"}},"geometry":{"type":"MultiPoint","coordinates":[[1.853984,50.166567]]}},
{"type":"Feature","properties":{"uuid":"Lille_Navaids_Names","textStyle":{"color":[169,169,169],"fontFamily":"Arial","fontSize":10,"fontWeight":400,"text":"ABY"}},"geometry":{"type":"MultiPoint","coordinates":[[2.809299,50.007687]]}},
{"type":"Feature","properties":{"uuid":"Lille_Navaids_Names","textStyle":{"color":[169,169,169],"fontFamily":"Arial","fontSize":10,"fontWeight":400,"text":"BV"}},"geometry":{"type":"MultiPoint","coordinates":[[2.028934,49.523147]]}},
{"type":"Feature","properties":{"uuid":"Lille_Navaids_Names","textStyle":{"color":[169,169,169],"fontFamily":"Arial","fontSize":10,"fontWeight":400,"text":"BFS"}},"geometry":{"type":"MultiPoint","coordinates":[[4.654276,50.272837]]}},
{"type":"Feature","properties":{"uuid":"Lille_Navaids_Names","textStyle":{"color":[169,169,169],"fontFamily":"Arial","fontSize":10,"fontWeight":400,"text":"BNE"}},"geometry":{"type":"MultiPoint","coordinates":[[1.906427,50.656184]]}},
{"type":"Feature","properties":{"uuid":"Lille_Navaids_Names","textStyle":{"color":[169,169,169],"fontFamily":"Arial","fontSize":10,"fontWeight":400,"text":"BOV"}},"geometry":{"type":"MultiPoint","coordinates":[[2.152676,49.467817]]}},
{"type":"Feature","properties":{"uuid":"Lille_Navaids_Names","textStyle":{"color":[169,169,169],"fontFamily":"Arial","fontSize":10,"fontWeight":400,"text":"GI"}},"geometry":{"type":"MultiPoint","coordinates":[[2.48396,49.873581]]}},
{"type":"Feature","properties":{"uuid":"Lille_Navaids_Names","textStyle":{"color":[169,169,169],"fontFamily":"Arial","fontSize":10,"fontWeight":400,"text":"CIV"}},"geometry":{"type":"MultiPoint","coordinates":[[3.833298,50.605299]]}},
{"type":"Feature","properties":{"uuid":"Lille_Navaids_Names","textStyle":{"color":[169,169,169],"fontFamily":"Arial","fontSize":10,"fontWeight":400,"text":"CMB"}},"geometry":{"type":"MultiPoint","coordinates":[[3.151594,50.259566]]}},
{"type":"Feature","properties":{"uuid":"Lille_Navaids_Names","textStyle":{"color":[169,169,169],"fontFamily":"Arial","fontSize":10,"fontWeight":400,"text":"MRV"}},"geometry":{"type":"MultiPoint","coordinates":[[2.705927,50.70274]]}},
{"type":"Feature","properties":{"uuid":"Lille_Navaids_Names","textStyle":{"color":[169,169,169],"fontFamily":"Arial","fontSize":10,"fontWeight":400,"text":"MVC"}},"geometry":{"type":"MultiPoint","coordinates":[[2.586964,50.602967]]}},
{"type":"Feature","properties":{"uuid":"Lille_Navaids_Names","textStyle":{"color":[169,169,169],"fontFamily":"Arial","fontSize":10,"fontWeight":400,"text":"DVL"}},"geometry":{"type":"MultiPoint","coordinates":[[0.311084,49.342193]]}},
{"type":"Feature","properties":{"uuid":"Lille_Navaids_Names","textStyle":{"color":[169,169,169],"fontFamily":"Arial","fontSize":10,"fontWeight":400,"text":"EVX"}},"geometry":{"type":"MultiPoint","coordinates":[[1.212973,49.05999]]}},
{"type":"Feature","properties":{"uuid":"Lille_Navaids_Names","textStyle":{"color":[169,169,169],"fontFamily":"Arial","fontSize":10,"fontWeight":400,"text":"GOS"}},"geometry":{"type":"MultiPoint","coordinates":[[4.482202,50.498272]]}},
{"type":"Feature","properties":{"uuid":"Lille_Navaids_Names","textStyle":{"color":[169,169,169],"fontFamily":"Arial","fontSize":10,"fontWeight":400,"text":"KOK"}},"geometry":{"type":"MultiPoint","coordinates":[[2.651447,51.126108]]}},
{"type":"Feature","properties":{"uuid":"Lille_Navaids_Names","textStyle":{"color":[169,169,169],"fontFamily":"Arial","fontSize":10,"fontWeight":400,"text":"LEQ"}},"geometry":{"type":"MultiPoint","coordinates":[[3.089223,50.59319]]}},
{"type":"Feature","properties":{"uuid":"Lille_Navaids_Names","textStyle":{"color":[169,169,169],"fontFamily":"Arial","fontSize":10,"fontWeight":400,"text":"LGL"}},"geometry":{"type":"MultiPoint","coordinates":[[0.528787,48.822073]]}},
{"type":"Feature","properties":{"uuid":"Lille_Navaids_Names","textStyle":{"color":[169,169,169],"fontFamily":"Arial","fontSize":10,"fontWeight":400,"text":"REM"}},"geometry":{"type":"MultiPoint","coordinates":[[4.045998,49.343098]]}},
{"type":"Feature","properties":{"uuid":"Lille_Navaids_Names","textStyle":{"color":[169,169,169],"fontFamily":"Arial","fontSize":10,"fontWeight":400,"text":"ROU"}},"geometry":{"type":"MultiPoint","coordinates":[[1.279587,49.497088]]}}
]}