{"type":"FeatureCollection","features":[
{"type":"Feature","properties":{"name":"LFQQ","pointStyle":{"type":"aerodrome_paved_ticks","color":[226,226,226]}},"geometry":{"type":"MultiPoint","coordinates":[[3.086944,50.563333]]}},
{"type":"Feature","properties":{"name":"LFQT","pointStyle":{"type":"aerodrome_paved_ticks","color":[226,226,226]}},"geometry":{"type":"MultiPoint","coordinates":[[2.64,50.616667]]}},
{"type":"Feature","properties":{"name":"LFQN","pointStyle":{"type":"aerodrome_paved_ticks","color":[226,226,226]}},"geometry":{"type":"MultiPoint","coordinates":[[2.234444,50.728611]]}},
{"type":"Feature","properties":{"name":"LFAC","pointStyle":{"type":"aerodrome_paved_ticks","color":[226,226,226]}},"geometry":{"type":"MultiPoint","coordinates":[[1.951389,50.960833]]}},
{"type":"Feature","properties":{"name":"LFIS","pointStyle":{"type":"aerodrome_paved_ticks","color":[226,226,226]}},"geometry":{"type":"MultiPoint","coordinates":[[1.734722,50.881667]]}},
{"type":"Feature","properties":{"name":"LFAT","pointStyle":{"type":"aerodrome_paved_ticks","color":[226,226,226]}},"geometry":{"type":"MultiPoint","coordinates":[[1.6275,50.514722]]}},
{"type":"Feature","properties":{"name":"LFAM","pointStyle":{"type":"aerodrome_ticks","color":[226,226,226]}},"geometry":{"type":"MultiPoint","coordinates":[[1.591944,50.423056]]}},
{"type":"Feature","properties":{"name":"LFOI","pointStyle":{"type":"aerodrome_paved_ticks","color":[226,226,226]}},"geometry":{"type":"MultiPoint","coordinates":[[1.831111,50.142222]]}},
{"type":"Feature","properties":{"name":"LFAE","pointStyle":{"type":"aerodrome_paved_ticks","color":[226,226,226]}},"geometry":{"type":"MultiPoint","coordinates":[[1.425328,50.068275]]}},
{"type":"Feature","properties":{"name":"LFAB","pointStyle":{"type":"aerodrome_paved_ticks","color":[226,226,226]}},"geometry":{"type":"MultiPoint","coordinates":[[1.085278,49.8825]]}},
{"type":"Feature","properties":{"name":"LFOS","pointStyle":{"type":"aerodrome_ticks","color":[226,226,226]}},"geometry":{"type":"MultiPoint","coordinates":[[0.655556,49.835278]]}},
{"type":"Feature","properties":{"name":"LFVY","pointStyle":{"type":"aerodrome_ticks","color":[226,226,226]}},"geometry":{"type":"MultiPoint","coordinates":[[0.7325,49.638611]]}},
{"type":"Feature","properties":{"name":"LFOP","pointStyle":{"type":"aerodrome_paved_ticks","color":[226,226,226]}},"geometry":{"type":"MultiPoint","coordinates":[[1.183889,49.390833]]}},
{"type":"Feature","properties":{"name":"LFOE","pointStyle":{"type":"aerodrome_paved_ticks","color":[226,226,226]}},"geometry":{"type":"MultiPoint","coordinates":[[1.22,49.028611]]}},
{"type":"Feature","properties":{"name":"LFFD","pointStyle":{"type":"aerodrome_ticks","color":[226,226,226]}},"geometry":{"type":"MultiPoint","coordinates":[[1.250833,48.8975]]}},
{"type":"Feature","properties":{"name":"LFOB","pointStyle":{"type":"aerodrome_paved_ticks","color":[226,226,226]}},"geometry":{"type":"MultiPoint","coordinates":[[2.112778,49.454444]]}},
{"type":"Feature","properties":{"name":"LFJS","pointStyle":{"type":"aerodrome_ticks","color":[226,226,226]}},"geometry":{"type":"MultiPoint","coordinates":[[3.283056,49.345]]}},
{"type":"Feature","properties":{"name":"LFAY","pointStyle":{"type":"aerodrome_paved_ticks","color":[226,226,226]}},"geometry":{"type":"MultiPoint","coordinates":[[2.386944,49.873056]]}},
{"type":"Feature","properties":{"name":"LFAQ","pointStyle":{"type":"aerodrome_paved_ticks","color":[226,226,226]}},"geometry":{"type":"MultiPoint","coordinates":[[2.6925,49.97]]}},
{"type":"Feature","properties":{"name":"LFAG","pointStyle":{"type":"aerodrome_paved_ticks","color":[226,226,226]}},"geometry":{"type":"MultiPoint","coordinates":[[3.029722,49.868889]]}},
{"type":"Feature","properties":{"name":"LFOW","pointStyle":{"type":"aerodrome_ticks","color":[226,226,226]}},"geometry":{"type":"MultiPoint","coordinates":[[3.205278,49.816111]]}},
{"type":"Feature","properties":{"name":"LFYG","pointStyle":{"type":"aerodrome_paved_ticks","color":[226,226,226]}},"geometry":{"type":"MultiPoint","coordinates":[[3.263611,50.141389]]}},
{"type":"Feature","properties":{"name":"LFAV","pointStyle":{"type":"aerodrome_paved_ticks","color":[226,226,226]}},"geometry":{"type":"MultiPoint","coordinates":[[3.465556,50.324722]]}},
{"type":"Feature","properties":{"uuid":"Lille_ARP_Names","textStyle":{"color":[169,169,169],"fontFamily":"Arial","fontSize":10,"fontWeight":400,"text":"LFQQ"}},"geometry":{"type":"MultiPoint","coordinates":[[3.087097,50.592022]]}},
{"type":"Feature","properties":{"uuid":"Lille_ARP_Names","textStyle":{"color":[169,169,169],"fontFamily":"Arial","fontSize":10,"fontWeight":400,"text":"LFAV"}},"geometry":{"type":"MultiPoint","coordinates":[[3.465211,50.348496]]}},
{"type":"Feature","properties":{"uuid":"Lille_ARP_Names","textStyle":{"color":[169,169,169],"fontFamily":"Arial","fontSize":10,"fontWeight":400,"text":"LFYG"}},"geometry":{"type":"MultiPoint","coordinates":[[3.26265,50.171516]]}},
{"type":"Feature","properties":{"uuid":"Lille_ARP_Names","textStyle":{"color":[169,169,169],"fontFamily":"Arial","fontSize":10,"fontWeight":400,"text":"LFAG"}},"geometry":{"type":"MultiPoint","coordinates":[[3.03083,49.904086]]}},
{"type":"Feature","properties":{"uuid":"Lille_ARP_Names","textStyle":{"color":[169,169,169],"fontFamily":"Arial","fontSize":10,"fontWeight":400,"text":"LFOW"}},"geometry":{"type":"MultiPoint","coordinates":[[3.201882,49.850421]]}},
{"type":"Feature","properties":{"uuid":"Lille_ARP_Names","textStyle":{"color":[169,169,169],"fontFamily":"Arial","fontSize":10,"fontWeight":400,"text":"LFAQ"}},"geometry":{"type":"MultiPoint","coordinates":[[2.690978,50.004004]]}},
{"type":"Feature","properties":{"uuid":"Lille_ARP_Names","textStyle":{"color":[169,169,169],"fontFamily":"Arial","fontSize":10,"fontWeight":400,"text":"LFAY"}},"geometry":{"type":"MultiPoint","coordinates":[[2.384886,49.909884]]}},
{"type":"Feature","properties":{"uuid":"Lille_ARP_Names","textStyle":{"color":[169,169,169],"fontFamily":"Arial","fontSize":10,"fontWeight":400,"text":"LFQT"}},"geometry":{"type":"MultiPoint","coordinates":[[2.639213,50.64914]]}},
{"type":"Feature","properties":{"uuid":"Lille_ARP_Names","textStyle":{"color":[169,169,169],"fontFamily":"Arial","fontSize":10,"fontWeight":400,"text":"LFQN"}},"geometry":{"type":"MultiPoint","coordinates":[[2.23184,50.76032]]}},
{"type":"Feature","properties":{"uuid":"Lille_ARP_Names","textStyle":{"color":[169,169,169],"fontFamily":"Arial","fontSize":10,"fontWeight":400,"text":"LFAC"}},"geometry":{"type":"MultiPoint","coordinates":[[1.950505,50.991809]]}},
{"type":"Feature","properties":{"uuid":"Lille_ARP_Names","textStyle":{"color":[169,169,169],"fontFamily":"Arial","fontSize":10,"fontWeight":400,"text":"LFIS"}},"geometry":{"type":"MultiPoint","coordinates":[[1.732189,50.913828]]}},
{"type":"Feature","properties":{"uuid":"Lille_ARP_Names","textStyle":{"color":[169,169,169],"fontFamily":"Arial","fontSize":10,"fontWeight":400,"text":"LFAT"}},"geometry":{"type":"MultiPoint","coordinates":[[1.621906,50.549138]]}},
{"type":"Feature","properties":{"uuid":"Lille_ARP_Names","textStyle":{"color":[169,169,169],"fontFamily":"Arial","fontSize":10,"fontWeight":400,"text":"LFAM"}},"geometry":{"type":"MultiPoint","coordinates":[[1.590397,50.454656]]}},
{"type":"Feature","properties":{"uuid":"Lille_ARP_Names","textStyle":{"color":[169,169,169],"fontFamily":"Arial","fontSize":10,"fontWeight":400,"text":"LFOI"}},"geometry":{"type":"MultiPoint","coordinates":[[1.828969,50.17584]]}},
{"type":"Feature","properties":{"uuid":"Lille_ARP_Names","textStyle":{"color":[169,169,169],"fontFamily":"Arial","fontSize":10,"fontWeight":400,"text":"LFAE"}},"geometry":{"type":"MultiPoint","coordinates":[[1.423847,50.102272]]}},
{"type":"Feature","properties":{"uuid":"Lille_ARP_Names","textStyle":{"color":[169,169,169],"fontFamily":"Arial","fontSize":10,"fontWeight":400,"text":"LFAB"}},"geometry":{"type":"MultiPoint","coordinates":[[1.086245,49.914232]]}},
{"type":"Feature","properties":{"uuid":"Lille_ARP_Names","textStyle":{"color":[169,169,169],"fontFamily":"Arial","fontSize":10,"fontWeight":400,"text":"LFOS"}},"geometry":{"type":"MultiPoint","coordinates":[[0.651864,49.864931]]}},
{"type":"Feature","properties":{"uuid":"Lille_ARP_Names","textStyle":{"color":[169,169,169],"fontFamily":"Arial","fontSize":10,"fontWeight":400,"text":"LFYV"}},"geometry":{"type":"MultiPoint","coordinates":[[0.730638,49.671594]]}},
{"type":"Feature","properties":{"uuid":"Lille_ARP_Names","textStyle":{"color":[169,169,169],"fontFamily":"Arial","fontSize":10,"fontWeight":400,"text":"LFOP"}},"geometry":{"type":"MultiPoint","coordinates":[[1.180773,49.423347]]}},
{"type":"Feature","properties":{"uuid":"Lille_ARP_Names","textStyle":{"color":[169,169,169],"fontFamily":"Arial","fontSize":10,"fontWeight":400,"text":"LFOB"}},"geometry":{"type":"MultiPoint","coordinates":[[2.108053,49.486258]]}},
{"type":"Feature","properties":{"uuid":"Lille_ARP_Names","textStyle":{"color":[169,169,169],"fontFamily":"Arial","fontSize":10,"fontWeight":400,"text":"LFJS"}},"geometry":{"type":"MultiPoint","coordinates":[[3.280656,49.379408]]}},
{"type":"Feature","properties":{"uuid":"Lille_ARP_Names","textStyle":{"color":[169,169,169],"fontFamily":"Arial","fontSize":10,"fontWeight":400,"text":"LFOE"}},"geometry":{"type":"MultiPoint","coordinates":[[1.219035,49.061884]]}},
{"type":"Feature","properties":{"uuid":"Lille_ARP_Names","textStyle":{"color":[169,169,169],"fontFamily":"Arial","fontSize":10,"fontWeight":400,"text":"LFFD"}},"geometry":{"type":"MultiPoint","coordinates":[[1.248294,48.930458]]}}
]}