{"type":"FeatureCollection","features":[
{"type":"Feature","properties":{"name":"Seine Fake Background","fillStyle":{"color":[0,0,0],"opacity":1.0},"lineStyle":{"color":[0,0,0],"width":1}},"geometry":{"type":"MultiPolygon","coordinates":[[[[-1.615362,51.30473],[8.263386,51.30473],[8.263386,45.718543],[-1.633406,45.718543],[-1.615362,51.30473]]]]}},
{"type":"Feature","properties":{"name":"Seine Outline Dash","lineStyle":{"color":[202,40,229],"width":1,"dashArray":[3.0,4.0]}},"geometry":{"type":"MultiLineString","coordinates":[[[3.250244,47.921451],[3.283889,47.890556],[3.794722,48.099722],[4.080833,48.455278],[3.915556,48.543889]],[[1.425278,48.705833],[1.576111,48.606667],[1.676111,48.546667],[1.885278,48.429444],[2.395833,48.406389]],[[1.676111,48.546667],[1.871944,48.3775]],[[1.576111,48.606667],[1.552222,48.498333],[1.753889,48.376944],[1.871944,48.3775],[2.747222,48.377222],[2.885,48.376667],[3.158611,48.608056],[3.656944,48.736667]],[[3.123889,48.6275],[2.813333,48.455833],[2.747222,48.377222]],[[1.425278,48.705833],[1.606111,49.059722],[1.723056,49.375278],[1.8525,49.41],[1.941111,49.433889],[2.243723,49.340861],[2.498623,49.433561]],[[2.243723,49.340861],[2.165833,49.3125],[2.055833,49.32],[1.899167,49.389444],[1.8525,49.41]],[[1.723056,49.375278],[1.613056,49.380278],[1.570556,49.3],[1.468056,49.2525],[1.488468,49.13862]],[[1.899167,49.389444],[1.742222,49.021111],[1.768889,48.899167],[1.739444,48.7875],[1.695833,48.621667],[1.676111,48.546667]],[[1.695833,48.621667],[1.772778,48.573333],[1.999167,48.633333],[1.986944,48.795833],[1.986667,48.798611],[1.739444,48.7875]],[[1.999167,48.633333],[2.025833,48.524167],[2.174444,48.490833],[2.368333,48.480556],[2.489167,48.556111],[2.488889,48.618889],[2.618889,48.698611],[2.721944,48.681389],[2.848333,48.728611],[2.857778,48.813889],[3.060833,48.907778],[2.866667,49.232778],[2.197222,49.121111],[2.000556,48.990278],[1.996667,48.798889],[1.986667,48.798611]],[[2.708889,49.510556],[3.157778,49.4375],[3.164722,49.383333],[3.238889,48.848333],[3.093056,48.845833],[2.98,48.777778],[2.911667,48.647222]],[[3.123889,48.6275],[3.084444,48.699167],[3.213056,48.790278],[3.500833,48.809722],[3.483333,49.033333]],[[3.123889,48.6275],[3.500833,48.809722],[3.656944,48.736667]],[[3.157778,49.4375],[3.314722,49.468611],[3.461667,49.445],[3.662222,49.140556],[3.661667,49.105833]],[[3.164722,49.383333],[3.374167,49.315589],[3.483333,49.033333]],[[3.374167,49.315589],[3.314722,49.468611]],[[3.314722,49.468611],[3.236389,49.666667]],[[0.607422,47.513573],[0.607595,47.513855],[0.616302,47.528071],[0.628426,47.541454],[0.643495,47.553393],[0.661139,47.563592],[0.680924,47.571799],[0.702361,47.57781],[0.724923,47.581478],[0.748056,47.58271],[0.771188,47.581478],[0.79375,47.57781],[0.815188,47.571799],[0.834972,47.563592],[0.852616,47.553393],[0.867685,47.541454],[0.879809,47.528071],[0.888689,47.513573],[0.894106,47.498318],[0.895926,47.482683],[0.894855,47.473484],[0.894106,47.467052],[0.890278,47.456389],[0.849167,47.355278],[0.847586,47.3507],[0.838723,47.336223],[0.826622,47.322866],[0.811582,47.310956],[0.793972,47.300787],[0.774225,47.292607],[0.758333,47.287778],[0.704167,47.299444],[0.652222,47.288889],[0.640219,47.292607],[0.620473,47.300787],[0.602863,47.310956],[0.587822,47.322866],[0.575721,47.336223],[0.566859,47.3507],[0.561453,47.365941],[0.559635,47.381572],[0.561453,47.397207]],[[4.132616,48.884811],[4.132616,48.884811],[4.138333,48.884167],[4.289167,48.864444],[4.289167,48.864444],[4.306296,48.861421],[4.306296,48.861421],[4.328276,48.855409],[4.328276,48.855409],[4.348561,48.847202],[4.348561,48.847202],[4.366651,48.837002],[4.366651,48.837002],[4.382102,48.825063],[4.382102,48.825063],[4.394533,48.811678],[4.394533,48.811678],[4.403637,48.79718],[4.403637,48.79718],[4.409191,48.781925],[4.409191,48.781925],[4.411058,48.766289],[4.409191,48.750659],[4.409191,48.750659],[4.403637,48.735418],[4.403637,48.735418],[4.394533,48.720942],[4.394533,48.720942],[4.382102,48.707585],[4.382102,48.707585],[4.366651,48.695676],[4.366651,48.695676],[4.348561,48.685508],[4.348561,48.685508],[4.328276,48.677328],[4.328276,48.677328],[4.306296,48.671338],[4.306296,48.671338],[4.283162,48.667684],[4.283162,48.667684],[4.259444,48.666456],[4.235727,48.667684],[4.235727,48.667684],[4.23,48.668333],[4.23,48.668333],[4.079722,48.688056],[4.079722,48.688056],[4.062019,48.69106],[4.062019,48.69106],[4.040031,48.69705],[4.040031,48.69705],[4.019738,48.70523],[4.019738,48.70523],[4.00164,48.715399],[4.00164,48.715399],[3.986183,48.727307],[3.986183,48.727307],[3.973748,48.740664],[3.973748,48.740664],[3.96464,48.75514],[3.96464,48.75514],[3.959084,48.770381],[3.959084,48.770381],[3.957217,48.786012],[3.959084,48.801647],[3.959084,48.801647],[3.96464,48.816902],[3.96464,48.816902],[3.973748,48.831401],[3.973748,48.831401],[3.986183,48.844785],[3.986183,48.844785],[4.00164,48.856724],[4.00164,48.856724],[4.019738,48.866924],[4.019738,48.866924],[4.040031,48.875131],[4.040031,48.875131],[4.062019,48.881143],[4.062019,48.881143],[4.085162,48.884811],[4.085162,48.884811],[4.108889,48.886044],[4.132616,48.884811]]]}},
{"type":"Feature","properties":{"name":"Seine Outline Solid","lineStyle":{"color":[202,40,229],"width":1}},"geometry":{"type":"MultiLineString","coordinates":[[[2.685278,48.483333],[2.489167,48.505],[2.395833,48.406389],[2.882222,48.404444],[3.110833,48.324167],[3.25,48.340278],[3.373333,48.231111],[3.518889,48.179167],[3.24993,48.0],[3.25,47.607778],[3.255278,47.6],[3.732778,47.6],[3.733333,47.890556],[4.1,48.083333],[4.416667,48.247778],[4.155556,48.583333],[4.538889,48.6825],[4.575,48.829167],[4.516667,48.9],[3.95,49.033333],[3.483333,49.033333],[3.711111,48.5675],[3.371667,48.5175],[3.28,48.570278],[3.181667,48.6275],[3.123889,48.6275],[2.911667,48.647222],[2.847222,48.522222],[2.685278,48.483333]],[[2.685278,48.483333],[3.177778,48.421667],[3.28,48.570278]],[[3.371667,48.5175],[3.25,48.340278]],[[3.780556,48.136389],[3.801944,48.379722],[3.711111,48.5675],[3.82,48.583333],[4.155556,48.583333]],[[3.518889,48.179167],[3.780556,48.136389],[4.1,48.083333]],[[1.005556,47.85],[0.976667,47.689722],[0.932222,47.4425],[0.848611,47.268611],[0.726667,47.2175],[0.496111,46.961944],[0.332778,47.2125],[0.284167,47.435833],[0.341111,47.580556],[0.548889,47.757222],[0.772222,47.85],[1.005556,47.85]],[[0.548889,47.757222],[0.369722,47.543611],[0.336111,47.458333],[0.332778,47.2125],[0.548889,47.757222]],[[0.548889,47.757222],[0.726389,47.764167],[0.615278,47.533056],[0.555556,47.383611],[0.479167,47.146389],[0.332778,47.2125]],[[0.479167,47.146389],[0.544167,47.120278],[0.606111,47.101389],[0.618333,47.097778]],[[0.606111,47.101389],[0.666667,47.194167],[0.726667,47.2175]],[[0.726389,47.764167],[0.838611,47.763333],[0.897222,47.750278],[0.976667,47.689722]],[[3.053889,48.101389],[3.053889,48.101389],[2.906667,48.273611],[1.897222,48.297222],[1.793716,48.15],[1.768333,48.110278],[1.726152,48.058953],[1.594722,48.015],[1.505422,48.00871],[1.403056,48.001667],[1.205556,48.083611],[1.159444,48.547222],[1.207778,48.598611],[1.286111,48.657222],[1.425278,48.705833],[1.419167,48.917222],[1.495305,49.100423],[1.488468,49.13862],[1.316667,49.166667],[1.233333,49.233333],[1.283443,49.56733],[1.4,49.75],[1.536111,49.751667],[1.723486,49.630856],[1.663499,49.537305],[2.498623,49.433561],[2.708889,49.510556],[2.743889,49.635278],[2.782778,49.674167],[2.976389,49.6025],[3.105833,49.611944],[3.236389,49.666667],[3.660278,49.748333],[3.765556,49.556111],[3.8825,49.256667],[3.661667,49.105833],[3.656944,48.736667],[3.656389,48.700556],[3.781667,48.672222],[3.853056,48.639444],[3.915556,48.543889],[3.786342,48.412025],[3.240556,48.089167],[3.053889,48.101389]],[[3.053889,48.101389],[3.250244,47.921451]],[[1.505422,48.00871],[1.439444,47.904444],[1.027222,47.848333],[0.740833,47.933333],[0.609167,48.268333],[0.755833,48.408611],[1.159444,48.547222]],[[2.321111,49.103611],[2.696667,49.11],[2.841389,48.993889],[2.838333,48.96],[2.833889,48.960255],[2.825958,48.959845],[2.818222,48.958624],[2.810872,48.956622],[2.804088,48.95389],[2.798039,48.950493],[2.792872,48.946517],[2.788715,48.942058],[2.786111,48.938056],[2.646667,48.916667],[2.64194,48.920215],[2.635894,48.923612],[2.629114,48.926345],[2.621769,48.928346],[2.614038,48.929567],[2.606111,48.929978],[2.598185,48.929567],[2.590453,48.928346],[2.583108,48.926345],[2.576329,48.923612],[2.570283,48.920215],[2.565119,48.916239],[2.560965,48.911781],[2.557922,48.90695],[2.556066,48.901867],[2.555442,48.896656],[2.555278,48.896389],[2.559444,48.821667],[2.560314,48.815414],[2.562631,48.809062],[2.566429,48.803027],[2.571614,48.797459],[2.578059,48.792493],[2.581389,48.790556],[2.611944,48.800556],[2.618889,48.698611],[2.513977,48.634284],[2.488889,48.618889],[2.488889,48.618889],[2.370833,48.571389],[2.268056,48.570833],[2.121389,48.609444],[2.115833,48.661111],[2.165833,48.708333],[2.159722,48.729167],[2.151667,48.755556],[2.149167,48.764722],[2.117222,48.758333],[2.080556,48.761667],[2.080556,48.786944],[2.089444,48.797222],[2.100556,48.809722],[2.077778,48.911111],[2.321111,49.103611]],[[2.618889,48.698611],[2.692617,48.686291],[2.721944,48.681389],[2.911667,48.647222],[2.85972,48.546488],[2.911667,48.647222],[2.85972,48.546488],[2.847222,48.522222],[2.685278,48.483333],[2.510068,48.502691],[2.489167,48.505],[2.489167,48.505],[2.489167,48.556111],[2.489167,48.556111],[2.488889,48.618889]],[[1.425278,48.705833],[1.425278,48.705833],[1.425278,48.705833],[1.17,48.662222],[1.106111,48.652778],[1.106111,48.652778],[0.517222,48.351944],[0.489722,48.337778],[0.21,47.586944],[0.3,47.166667],[1.466667,47.166667],[1.633611,47.550278],[1.655556,47.658611],[2.039722,47.540278],[3.295278,47.540278],[3.333333,47.540278],[4.333333,47.416667],[5.398611,48.370556],[5.398611,48.504167],[4.8,48.95],[4.291111,49.320278],[4.05,49.266667],[3.860833,49.241944],[3.628333,49.211111],[3.483333,49.033333],[3.500833,48.809722],[3.123889,48.6275]],[[1.17,48.662222],[1.159444,48.547222]],[[1.655556,47.658611],[1.768333,48.110278]],[[1.726152,48.058953],[1.885,48.059167],[2.031667,48.0],[3.164722,48.0],[3.250244,47.921451]],[[3.255278,47.6],[3.295278,47.540278]],[[3.915556,48.543889],[3.935278,48.576944],[3.925,49.033333]],[[4.176111,48.980278],[4.8,48.95]],[[3.500833,48.809722],[3.656944,48.736667]],[[1.15,47.863889],[1.381667,47.791667],[1.525161,47.746827],[1.541667,47.741667],[1.561973,47.747074],[1.541667,47.741667],[1.561973,47.747074],[1.599354,47.757028],[1.61042,47.759974],[1.685777,47.780032],[1.773977,47.803499],[1.886101,47.833316],[2.0325,47.872222],[2.120278,47.895556],[2.2,47.916667],[2.2,48.0],[2.2,48.025833],[2.133333,48.15],[2.133333,48.15],[2.052778,48.15],[2.052778,48.15],[1.793716,48.15],[1.629722,48.15],[1.629722,48.15],[1.537222,48.058889],[1.505422,48.00871],[1.439444,47.904444],[1.15,47.863889]]]}},
{"type":"Feature","properties":{"name":"Seine Runways","lineStyle":{"color":[202,40,229],"width":3}},"geometry":{"type":"MultiLineString","coordinates":[[[0.7318,47.442653],[0.723411,47.421789]],[[0.701272,47.268511],[0.696308,47.263858]],[[0.942561,47.340217],[0.948889,47.339069]],[[0.713333,47.151528],[0.708767,47.146228]],[[1.362333,48.059492],[1.389531,48.056922]],[[1.775689,47.991544],[1.745561,47.983911]],[[1.514183,48.457103],[1.5255,48.45675]],[[2.193383,48.156781],[2.183217,48.154153]],[[2.174447,47.902778],[2.159064,47.894283]],[[2.398144,47.481931],[2.388586,47.478025]],[[2.911053,47.362356],[2.920797,47.359461]],[[4.346256,47.483419],[4.340392,47.479192]],[[3.498206,47.857744],[3.49625,47.844033]],[[3.388517,47.994092],[3.398083,47.994714]],[[3.768797,47.9788],[3.782167,47.981694]],[[2.795003,48.339742],[2.802539,48.342983]],[[2.663286,48.606478],[2.688206,48.602508]],[[2.674975,48.617583],[2.671078,48.606164]],[[3.012278,48.599019],[3.001922,48.593875]],[[3.242072,48.295347],[3.250031,48.288358]],[[4.015328,48.329492],[4.017586,48.315753]],[[3.767731,48.710992],[3.759858,48.707747]],[[4.159883,48.779392],[4.20845,48.773022]],[[4.356192,48.909033],[4.346025,48.900058]],[[4.677883,48.703833],[4.683069,48.70238],[4.688825,48.700767]],[[4.465733,48.430958],[4.482794,48.429631]],[[4.884356,48.64025],[4.916122,48.632597]],[[5.049022,48.089264],[5.048889,48.067222]],[[4.152272,49.206903],[4.161794,49.209636]],[[2.358592,48.719408],[2.379578,48.72328],[2.395403,48.7262],[2.395301,48.726182]],[[2.386975,48.738025],[2.379578,48.72328],[2.376703,48.717547],[2.377135,48.718409]],[[2.341771,48.728767],[2.360678,48.735456],[2.375998,48.740875]],[[2.428383,48.950878],[2.438061,48.964644],[2.440606,48.968264]],[[2.420403,48.963681],[2.438061,48.964644],[2.445547,48.965053]],[[2.446881,48.970969],[2.425162,48.965144],[2.424064,48.96485],[2.420626,48.963928]],[[2.552744,48.995686],[2.609396,48.998708]],[[2.570421,49.023754],[2.513058,49.020617]],[[2.565882,48.992817],[2.60239,48.994759]],[[2.525132,49.024789],[2.561692,49.026694]],[[1.201978,47.681406],[1.215592,47.675775]]]}},
{"type":"Feature","properties":{"name":"Seine LF-X","lineStyle":{"color":[188,74,30],"width":2}},"geometry":{"type":"MultiLineString","coordinates":[[[0.455556,47.355833],[0.455,47.354167],[0.455,47.353889],[0.461389,47.351389],[0.4625,47.351667],[0.464167,47.350556],[0.465,47.349444],[0.467222,47.35],[0.468333,47.348889],[0.471111,47.349444],[0.47,47.350833],[0.4725,47.351667],[0.470556,47.352778],[0.469444,47.354444],[0.458333,47.356111],[0.455556,47.355833]],[[0.661977,47.302923],[0.665176,47.302835],[0.668313,47.302401],[0.671306,47.301631],[0.674078,47.300545],[0.676557,47.299172],[0.67868,47.297547],[0.68039,47.295712],[0.681002,47.294737],[0.681644,47.293714],[0.682409,47.291606],[0.682666,47.289442],[0.682407,47.287278],[0.681641,47.285171],[0.680386,47.283174],[0.678675,47.281339],[0.676552,47.279714],[0.674073,47.278342],[0.671302,47.277256],[0.66831,47.276487],[0.665175,47.276053],[0.661977,47.275965],[0.658801,47.276227],[0.655727,47.276831],[0.652836,47.277761],[0.650203,47.278994],[0.647894,47.280498],[0.645971,47.282233],[0.644483,47.284155],[0.643469,47.286214],[0.642955,47.288357],[0.642954,47.290528],[0.643228,47.291675],[0.643467,47.292671],[0.64448,47.29473],[0.645967,47.296653],[0.647889,47.298388],[0.650198,47.299893],[0.652832,47.301126],[0.655724,47.302057],[0.658799,47.302661],[0.661977,47.302923]],[[0.163998,47.278263],[0.174656,47.277971],[0.185106,47.276522],[0.195078,47.273954],[0.204312,47.270333],[0.212569,47.265753],[0.219635,47.260334],[0.225327,47.254215],[0.229498,47.247555],[0.232041,47.240527],[0.23289,47.233314],[0.232023,47.226101],[0.229465,47.219077],[0.225281,47.212421],[0.219581,47.206308],[0.212513,47.200894],[0.204259,47.19632],[0.195034,47.192705],[0.185076,47.190141],[0.174643,47.188694],[0.164003,47.188403],[0.153432,47.189275],[0.143203,47.191287],[0.13358,47.194386],[0.124812,47.198494],[0.117127,47.203504],[0.110722,47.209287],[0.105764,47.215692],[0.102382,47.222554],[0.100664,47.229696],[0.100655,47.236932],[0.102356,47.244076],[0.105723,47.250942],[0.110671,47.257352],[0.117071,47.26314],[0.124757,47.268156],[0.133531,47.27227],[0.143166,47.275375],[0.15341,47.27739],[0.163998,47.278263]],[[1.544836,47.7589],[1.572222,47.74],[1.606322,47.7614],[1.606407,47.761404],[1.614479,47.758527],[1.621892,47.754937],[1.628508,47.750703],[1.634205,47.745902],[1.638876,47.740624],[1.642434,47.734968],[1.644814,47.729039],[1.645972,47.722947],[1.645886,47.716805],[1.644559,47.710729],[1.642016,47.70483],[1.638304,47.69922],[1.633493,47.694001],[1.627672,47.689271],[1.620951,47.685119],[1.613453,47.68162],[1.605319,47.67884],[1.596699,47.676831],[1.587754,47.675629],[1.578649,47.675258],[1.569554,47.675724],[1.560638,47.677019],[1.552065,47.679117],[1.543996,47.681982],[1.536579,47.685558],[1.529954,47.68978],[1.524243,47.69457],[1.519552,47.699838],[1.51597,47.705487],[1.513563,47.711411],[1.512375,47.717501],[1.512431,47.723642],[1.513729,47.729721],[1.516245,47.735625],[1.519934,47.741244],[1.524726,47.746472],[1.530532,47.751213],[1.537245,47.755378],[1.54474,47.75889]],[[1.766667,48.005278],[1.801667,47.989722],[1.759167,47.970556],[1.736967,47.985053],[1.731944,47.988333],[1.7386,47.991582],[1.766667,48.005278]],[[2.524177,47.778527],[2.534727,47.777078],[2.544794,47.77451],[2.554117,47.770889],[2.562453,47.766309],[2.569587,47.76089],[2.575333,47.754771],[2.579544,47.748111],[2.582111,47.741083],[2.582968,47.73387],[2.582093,47.726657],[2.57951,47.719632],[2.575286,47.712977],[2.569531,47.706864],[2.562395,47.70145],[2.554063,47.696876],[2.54475,47.693261],[2.534696,47.690697],[2.524163,47.68925],[2.513421,47.688959],[2.502749,47.689831],[2.492422,47.691843],[2.482708,47.694942],[2.473856,47.69905],[2.466097,47.70406],[2.459631,47.709842],[2.454625,47.716247],[2.451211,47.72311],[2.449476,47.730251],[2.449467,47.737488],[2.451184,47.744632],[2.454583,47.751498],[2.459578,47.757908],[2.466039,47.763696],[2.4738,47.768712],[2.482658,47.772826],[2.492384,47.775931],[2.502727,47.777946],[2.513417,47.778819],[2.524177,47.778527]],[[2.8475,47.543056],[2.858655,47.540278],[2.922222,47.524444],[2.922442,47.524466],[2.926611,47.519451],[2.929796,47.514118],[2.931945,47.508554],[2.933025,47.50285],[2.933016,47.4971],[2.931921,47.491398],[2.929756,47.485836],[2.926559,47.480507],[2.922381,47.475498],[2.917292,47.47089],[2.911374,47.466759],[2.904725,47.463173],[2.897454,47.46019],[2.889679,47.457859],[2.881528,47.456218],[2.873134,47.455293],[2.864634,47.455101],[2.856168,47.455644],[2.847873,47.456914],[2.839886,47.458888],[2.832336,47.461536],[2.825348,47.464814],[2.819035,47.468669],[2.813502,47.473036],[2.808838,47.477846],[2.805121,47.483019],[2.802412,47.48847],[2.800755,47.49411],[2.800178,47.499847],[2.80069,47.505587],[2.802284,47.511236],[2.804934,47.516701],[2.808596,47.521892],[2.813211,47.526725],[2.818703,47.531119],[2.824983,47.535004],[2.831947,47.538314],[2.837462,47.540278],[2.839482,47.540997],[2.847463,47.543007]],[[2.576171,48.553533],[2.578342,48.553708],[2.580527,48.55365],[2.582669,48.55336],[2.584713,48.552847],[2.586607,48.552123],[2.5883,48.551208],[2.58975,48.550124],[2.590918,48.548901],[2.591775,48.547569],[2.592298,48.546164],[2.592473,48.544721],[2.592297,48.543279],[2.591773,48.541873],[2.590916,48.540542],[2.589748,48.539319],[2.588298,48.538236],[2.586605,48.53732],[2.584712,48.536597],[2.582668,48.536084],[2.580526,48.535794],[2.578342,48.535736],[2.576172,48.53591],[2.574073,48.536313],[2.572098,48.536933],[2.570299,48.537755],[2.568722,48.538758],[2.567409,48.539915],[2.566393,48.541196],[2.5657,48.542569],[2.565349,48.543998],[2.565349,48.545445],[2.565699,48.546873],[2.566391,48.548246],[2.567407,48.549528],[2.56872,48.550685],[2.570297,48.551688],[2.572096,48.55251],[2.574071,48.553131],[2.576171,48.553533]],[[3.51055,48.561325],[3.513931,48.561597],[3.524857,48.561305],[3.532305,48.560297],[3.535569,48.559856],[3.545791,48.557288],[3.555257,48.553667],[3.563722,48.549087],[3.567397,48.546337],[3.570965,48.543667],[3.5768,48.537548],[3.581075,48.530888],[3.583681,48.523861],[3.58455,48.516647],[3.583662,48.509434],[3.581039,48.50241],[3.57675,48.495755],[3.570907,48.489641],[3.563661,48.484228],[3.558517,48.481447],[3.555201,48.479654],[3.545745,48.476039],[3.535537,48.473475],[3.524842,48.472028],[3.513936,48.471737],[3.5031,48.472609],[3.492615,48.47462],[3.482751,48.47772],[3.473764,48.481828],[3.465885,48.486838],[3.463648,48.488808],[3.45932,48.49262],[3.454237,48.499025],[3.45077,48.505887],[3.449009,48.513029],[3.448999,48.520265],[3.450742,48.527409],[3.451688,48.529292],[3.454194,48.534275],[3.459265,48.540686],[3.465826,48.546474],[3.473705,48.55149],[3.482699,48.555604],[3.492575,48.558709],[3.503077,48.560724],[3.513931,48.561597]],[[4.548056,48.411111],[4.569167,48.426389],[4.582222,48.404167],[4.585556,48.381944],[4.566389,48.380556],[4.5575,48.397222],[4.548056,48.411111]],[[4.892918,48.682289],[4.905009,48.683259],[4.917178,48.682935],[4.929111,48.681325],[4.940497,48.678471],[4.95104,48.674446],[4.960468,48.669357],[4.968535,48.663334],[4.975033,48.656534],[4.979794,48.649133],[4.982695,48.641324],[4.983662,48.633308],[4.982671,48.625294],[4.979749,48.617488],[4.974971,48.610093],[4.968463,48.6033],[4.960393,48.597285],[4.95097,48.592204],[4.940439,48.588186],[4.929071,48.585338],[4.91716,48.583731],[4.905015,48.583407],[4.892947,48.584375],[4.88127,48.586611],[4.870285,48.590055],[4.860276,48.594619],[4.851501,48.600185],[4.844188,48.60661],[4.838527,48.613727],[4.834664,48.621352],[4.832701,48.629288],[4.832689,48.637329],[4.834629,48.645267],[4.838473,48.652897],[4.844121,48.660021],[4.851427,48.666453],[4.860202,48.672027],[4.87022,48.676599],[4.881221,48.680049],[4.892918,48.682289]],[[5.053056,48.095],[5.048889,48.067222],[5.058611,48.068056],[5.060833,48.071389],[5.060833,48.076389],[5.064167,48.076667],[5.065278,48.083611],[5.06,48.094722],[5.053056,48.095]],[[4.880646,47.628263],[4.891375,47.627971],[4.901895,47.626522],[4.911934,47.623954],[4.921229,47.620333],[4.929541,47.615753],[4.936655,47.610334],[4.942385,47.604215],[4.946584,47.597555],[4.949143,47.590527],[4.949997,47.583314],[4.949125,47.576101],[4.946549,47.569076],[4.942338,47.562421],[4.9366,47.556308],[4.929484,47.550894],[4.921176,47.54632],[4.911889,47.542705],[4.901865,47.540141],[4.891362,47.538694],[4.880651,47.538403],[4.87001,47.539275],[4.859713,47.541287],[4.850026,47.544386],[4.8412,47.548494],[4.833463,47.553504],[4.827015,47.559286],[4.822024,47.565691],[4.818619,47.572554],[4.81689,47.579696],[4.81688,47.586932],[4.818593,47.594076],[4.821983,47.600942],[4.826963,47.607352],[4.833406,47.61314],[4.841144,47.618156],[4.849976,47.62227],[4.859675,47.625375],[4.869987,47.62739],[4.880646,47.628263]]]}},
{"type":"Feature","properties":{"name":"AMB","pointStyle":{"type":"dme","color":[202,40,229]}},"geometry":{"type":"MultiPoint","coordinates":[[1.064444,47.428917]]}},
{"type":"Feature","properties":{"name":"CAD","pointStyle":{"type":"vor_dme","color":[202,40,229]}},"geometry":{"type":"MultiPoint","coordinates":[[1.387083,48.059167]]}},
{"type":"Feature","properties":{"name":"BCY","pointStyle":{"type":"vor_dme","color":[202,40,229]}},"geometry":{"type":"MultiPoint","coordinates":[[1.755556,47.985306]]}},
{"type":"Feature","properties":{"name":"CHW","pointStyle":{"type":"vor_dme","color":[202,40,229]}},"geometry":{"type":"MultiPoint","coordinates":[[0.987056,48.48]]}},
{"type":"Feature","properties":{"name":"EPR","pointStyle":{"type":"vor_dme","color":[202,40,229]}},"geometry":{"type":"MultiPoint","coordinates":[[1.656556,48.625694]]}},
{"type":"Feature","properties":{"name":"RBT","pointStyle":{"type":"dme","color":[202,40,229]}},"geometry":{"type":"MultiPoint","coordinates":[[1.994222,48.653944]]}},
{"type":"Feature","properties":{"name":"TSU","pointStyle":{"type":"vor_dme","color":[202,40,229]}},"geometry":{"type":"MultiPoint","coordinates":[[2.102361,48.753722]]}},
{"type":"Feature","properties":{"name":"PON","pointStyle":{"type":"vor","color":[202,40,229]}},"geometry":{"type":"MultiPoint","coordinates":[[2.035889,49.096083]]}},
{"type":"Feature","properties":{"name":"EVX","pointStyle":{"type":"vortac","color":[202,40,229]}},"geometry":{"type":"MultiPoint","coordinates":[[1.214056,49.028528]]}},
{"type":"Feature","properties":{"name":"LGL","pointStyle":{"type":"vor_dme","color":[202,40,229]}},"geometry":{"type":"MultiPoint","coordinates":[[0.530278,48.790611]]}},
{"type":"Feature","properties":{"name":"ANG","pointStyle":{"type":"dme","color":[202,40,229]}},"geometry":{"type":"MultiPoint","coordinates":[[-0.851833,47.536861]]}},
{"type":"Feature","properties":{"name":"POI","pointStyle":{"type":"vor","color":[202,40,229]}},"geometry":{"type":"MultiPoint","coordinates":[[0.298194,46.581]]}},
{"type":"Feature","properties":{"name":"PT","pointStyle":{"type":"dme","color":[202,40,229]}},"geometry":{"type":"MultiPoint","coordinates":[[0.31475,46.594556]]}},
{"type":"Feature","properties":{"name":"CHX","pointStyle":{"type":"ndb","color":[202,40,229]}},"geometry":{"type":"MultiPoint","coordinates":[[1.741861,46.871194]]}},
{"type":"Feature","properties":{"name":"AVD","pointStyle":{"type":"ndb","color":[202,40,229]}},"geometry":{"type":"MultiPoint","coordinates":[[2.629861,47.058083],[2.799611,47.120667]]}},
{"type":"Feature","properties":{"name":"MOU","pointStyle":{"type":"vor_dme","color":[202,40,229]}},"geometry":{"type":"MultiPoint","coordinates":[[3.631667,46.706778]]}},
{"type":"Feature","properties":{"name":"DJL","pointStyle":{"type":"vor_dme","color":[202,40,229]}},"geometry":{"type":"MultiPoint","coordinates":[[5.097333,47.270778]]}},
{"type":"Feature","properties":{"name":"RLP","pointStyle":{"type":"dme","color":[202,40,229]}},"geometry":{"type":"MultiPoint","coordinates":[[5.249167,47.906306]]}},
{"type":"Feature","properties":{"name":"EPL","pointStyle":{"type":"vor","color":[202,40,229]}},"geometry":{"type":"MultiPoint","coordinates":[[6.059417,48.317833]]}},
{"type":"Feature","properties":{"name":"NAY","pointStyle":{"type":"tacan","color":[202,40,229]}},"geometry":{"type":"MultiPoint","coordinates":[[5.951833,48.583639]]}},
{"type":"Feature","properties":{"name":"MMD","pointStyle":{"type":"vor","color":[202,40,229]}},"geometry":{"type":"MultiPoint","coordinates":[[5.124417,49.39125]]}},
{"type":"Feature","properties":{"name":"REM","pointStyle":{"type":"vor","color":[202,40,229]}},"geometry":{"type":"MultiPoint","coordinates":[[4.045361,49.311639]]}},
{"type":"Feature","properties":{"name":"CTL","pointStyle":{"type":"dme","color":[202,40,229]}},"geometry":{"type":"MultiPoint","coordinates":[[3.577694,49.13775]]}},
{"type":"Feature","properties":{"name":"BSN","pointStyle":{"type":"dme","color":[202,40,229]}},"geometry":{"type":"MultiPoint","coordinates":[[3.056528,49.188306]]}},
{"type":"Feature","properties":{"name":"CLM","pointStyle":{"type":"vor_dme","color":[202,40,229]}},"geometry":{"type":"MultiPoint","coordinates":[[3.013861,48.844639]]}},
{"type":"Feature","properties":{"name":"MLN","pointStyle":{"type":"vor_dme","color":[202,40,229]}},"geometry":{"type":"MultiPoint","coordinates":[[2.813278,48.455778]]}},
{"type":"Feature","properties":{"name":"BRY","pointStyle":{"type":"dme","color":[202,40,229]}},"geometry":{"type":"MultiPoint","coordinates":[[3.294778,48.407]]}},
{"type":"Feature","properties":{"name":"TRO","pointStyle":{"type":"vor","color":[202,40,229]}},"geometry":{"type":"MultiPoint","coordinates":[[3.963139,48.251222]]}},
{"type":"Feature","properties":{"name":"LOL","pointStyle":{"type":"dme","color":[202,40,229]}},"geometry":{"type":"MultiPoint","coordinates":[[2.386361,48.729944]]}},
{"type":"Feature","properties":{"name":"CAV","pointStyle":{"type":"vor_dme","color":[202,40,229]}},"geometry":{"type":"MultiPoint","coordinates":[[4.146944,48.781083]]}},
{"type":"Feature","properties":{"name":"SDI","pointStyle":{"type":"tacan","color":[202,40,229]}},"geometry":{"type":"MultiPoint","coordinates":[[4.889194,48.637]]}},
{"type":"Feature","properties":{"name":"BLB","pointStyle":{"type":"ndb","color":[202,40,229]}},"geometry":{"type":"MultiPoint","coordinates":[[1.202472,47.673944]]}},
{"type":"Feature","properties":{"name":"ORS","pointStyle":{"type":"ndb","color":[202,40,229]}},"geometry":{"type":"MultiPoint","coordinates":[[2.242639,47.937389]]}},
{"type":"Feature","properties":{"name":"AX","pointStyle":{"type":"ndb","color":[202,40,229]}},"geometry":{"type":"MultiPoint","coordinates":[[3.502139,47.920167]]}},
{"type":"Feature","properties":{"name":"CTX","pointStyle":{"type":"ndb","color":[202,40,229]}},"geometry":{"type":"MultiPoint","coordinates":[[1.801139,46.936611]]}},
{"type":"Feature","properties":{"name":"TY","pointStyle":{"type":"ndb","color":[202,40,229]}},"geometry":{"type":"MultiPoint","coordinates":[[4.003972,48.400194]]}},
{"type":"Feature","properties":{"name":"NV","pointStyle":{"type":"ndb","color":[202,40,229]}},"geometry":{"type":"MultiPoint","coordinates":[[3.189944,46.955639]]}},
{"type":"Feature","properties":{"name":"VAT","pointStyle":{"type":"ndb","color":[202,40,229]}},"geometry":{"type":"MultiPoint","coordinates":[[4.016111,48.797778]]}},
{"type":"Feature","properties":{"name":"CVT","pointStyle":{"type":"ndb","color":[202,40,229]}},"geometry":{"type":"MultiPoint","coordinates":[[4.318806,48.759194]]}},
{"type":"Feature","properties":{"name":"TA","pointStyle":{"type":"ndb","color":[202,40,229]}},"geometry":{"type":"MultiPoint","coordinates":[[2.097444,48.771583]]}},
{"type":"Feature","properties":{"name":"HOL","pointStyle":{"type":"ndb","color":[202,40,229]}},"geometry":{"type":"MultiPoint","coordinates":[[1.8205,48.730583]]}},
{"type":"Feature","properties":{"name":"Seine FIX","pointStyle":{"type":"triangle_hollow","color":[202,40,229]}},"geometry":{"type":"MultiPoint","coordinates":[[0.648333,48.495833],[0.381944,48.392222],[0.201667,47.9125],[0.119667,47.799389],[0.086111,47.596389],[0.413333,47.939444],[0.603333,48.12],[0.744444,48.253056],[0.844111,48.346583],[1.098972,48.214917],[0.846667,47.993056],[0.907222,47.837222],[1.285833,47.862778],[1.459889,48.131361],[1.597778,48.132083],[1.571639,48.24175],[1.327139,48.513056],[1.270833,48.550556],[1.338889,48.685833],[1.5055,48.574194],[1.726389,48.393611],[1.881889,48.545139],[1.648889,48.644167],[1.635278,48.749722],[0.356944,47.4725],[0.563694,47.531472],[0.512417,47.402833],[0.738611,47.495556],[0.941944,47.435833],[1.104722,47.5075],[1.369417,47.514167],[1.538639,47.541333],[1.511583,47.670139],[0.824722,47.166667],[0.4525,47.081389],[0.2775,47.064444],[0.18,47.166667],[0.691667,47.046944],[0.897778,47.009722],[0.930833,47.011944],[1.055,47.025833],[2.003611,48.295],[2.1,48.283333],[2.209444,48.290833],[2.3,48.283333],[2.408889,48.286389],[2.626111,48.281111],[2.825556,48.275833],[3.048056,48.083333],[3.120556,47.540278],[2.291111,47.585],[2.22,47.576667],[1.743056,47.724167],[1.8475,47.818139],[2.063778,47.711417],[2.036389,47.633333],[2.529722,47.665833],[2.571111,47.706111],[2.623333,47.7575],[2.755833,47.871111],[2.762222,47.893611],[3.266667,48.081667],[3.206111,48.202139],[3.062944,48.295028],[2.701667,48.391389],[3.334333,48.213139],[3.838556,48.484222],[3.987972,48.49525],[4.061667,48.56],[4.112528,48.504278],[4.244444,48.337778],[4.239444,48.261944],[3.876083,48.26075],[4.04875,48.1255],[3.900389,48.114556],[3.702222,48.157222],[3.525889,48.051194],[3.426944,48.057361],[3.5675,47.966111],[3.808611,47.959167],[3.913889,48.025833],[3.380972,47.729694],[3.434722,47.718889],[3.466389,47.6335],[3.3875,47.540278],[4.556111,47.620556],[5.165833,48.103056],[5.218639,48.32275],[5.2835,48.528778],[5.094444,48.655639],[5.08,48.743333],[4.960556,48.799444],[4.898333,48.741944],[4.842778,48.690278],[5.094444,48.655639],[5.107778,48.574722],[5.118806,48.4185],[5.153611,48.293889],[5.218639,48.32275],[4.822333,48.228167],[4.6735,48.278083],[4.634167,48.276722],[4.406667,48.134444],[4.151111,48.091944],[4.031389,47.952222],[3.948611,47.796667],[4.141111,47.883333],[4.256389,47.8075],[4.264722,47.651667],[4.5895,47.715639],[4.639694,47.846722],[3.813333,47.56],[4.116111,47.544444],[3.549444,48.938056],[3.548056,48.811667],[3.550833,49.086111],[3.661667,49.105556],[3.427778,49.184722],[3.350611,49.246056],[3.593056,49.264444],[3.683056,49.268611],[3.6225,49.209444],[4.009444,49.116111],[4.049167,49.1375],[4.265,49.253333],[4.361528,49.138778],[3.973833,49.3655],[4.22,49.411667],[4.357472,49.437111],[5.076389,49.0675],[5.155806,49.100694],[5.056111,48.8875],[5.085,48.869889],[4.226944,48.900917],[4.15,48.771611],[4.058333,48.793333],[4.117889,48.880389],[3.90275,48.914556],[3.873611,48.815833],[3.869917,48.790556],[3.871167,48.724417],[3.845028,48.718389],[3.932222,48.715833],[3.121611,48.83475],[3.079,48.997833],[3.208056,49.076944],[3.309167,49.126667],[2.9615,48.992028],[2.859333,48.937722],[2.960444,48.905889],[2.902639,48.684167],[2.957667,48.639833],[2.75,48.552222],[2.415083,48.524139],[2.44575,48.653333],[2.389778,48.730139],[2.242972,48.702167],[2.115583,48.677611],[2.759139,48.749556],[2.742361,48.789556],[2.745806,48.822],[2.701556,48.86075]]}}
]}