{"type":"FeatureCollection","features":[
{"type":"Feature","properties":{"name":"Seine AMG","lineStyle":{"color":[255,158,23],"width":3}},"geometry":{"type":"MultiLineString","coordinates":[[[0.3,47.166667],[0.362694,47.166696],[0.434286,47.166667],[0.485687,47.166677],[0.648707,47.166667],[0.680789,47.166833],[1.466667,47.166667],[1.633611,47.550278],[1.633611,47.550278],[1.655556,47.658611],[2.039722,47.540278],[2.526768,47.540278],[3.295278,47.540278],[3.295278,47.540278],[3.333333,47.540278],[4.333333,47.416667],[5.398611,48.370556],[5.398611,48.370556],[5.398611,48.504167],[4.97843,48.817523],[4.8,48.95],[4.8,48.95],[4.291111,49.320278],[4.05,49.266667],[4.05,49.266667],[3.860833,49.241944],[3.860833,49.241944],[3.628333,49.211111],[3.628333,49.211111],[3.616857,49.209553],[3.62143,49.202631],[3.483333,49.033333],[3.500833,48.809722],[3.123889,48.6275],[2.911667,48.647222],[2.911667,48.647222],[2.650436,48.688826],[2.49535,48.596953],[2.49535,48.596953],[2.489167,48.505],[2.395833,48.406389],[1.885278,48.429444],[1.676111,48.546667],[1.676111,48.546667],[1.576111,48.606667],[1.576111,48.606667],[1.425278,48.705833],[1.17,48.662222],[1.17,48.662222],[1.106111,48.652778],[1.106111,48.652778],[0.517222,48.351944],[0.517222,48.351944],[0.489722,48.337778],[0.489722,48.337778],[0.217499,47.607216],[0.21,47.586944],[0.3,47.166667]],[[0.217499,47.607216],[0.472328,47.635167],[0.740833,47.933333],[1.404625,48.353882],[1.885278,48.429444]],[[0.362694,47.166696],[0.496111,46.961944],[0.680056,47.166022]],[[2.489167,48.505],[2.596088,48.493188],[2.593393,48.558624],[2.492812,48.559236]],[[3.123889,48.6275],[3.181667,48.6275],[3.371667,48.5175],[3.25,48.340278],[3.110833,48.324167],[2.882222,48.404444],[2.395833,48.406389]],[[2.526768,47.540278],[3.303979,47.800819],[3.587412,47.758294],[3.631977,47.878591],[3.733333,47.890556],[4.874445,48.48653],[4.97843,48.817523]],[[3.972346,49.137767],[3.972346,49.137767],[3.980969,49.134504],[3.980969,49.134504],[3.988898,49.13056],[3.988898,49.13056],[3.996009,49.125996],[3.996009,49.125996],[4.002191,49.120884],[4.002191,49.120884],[4.007344,49.115304],[4.007344,49.115304],[4.011389,49.109346],[4.011389,49.109346],[4.014261,49.103102],[4.014261,49.103102],[4.015914,49.096671],[4.015914,49.096671],[4.016324,49.090153],[4.015483,49.083653],[4.015483,49.083653],[4.013404,49.077272],[4.013404,49.077272],[4.010121,49.071112],[4.010121,49.071112],[4.005685,49.065268],[4.005685,49.065268],[4.000166,49.059835],[4.000166,49.059835],[3.993652,49.054897],[3.993652,49.054897],[3.986244,49.050533],[3.986244,49.050533],[3.978061,49.046811],[3.978061,49.046811],[3.969229,49.04379],[3.969229,49.04379],[3.959891,49.041519],[3.959891,49.041519],[3.950191,49.040033],[3.950191,49.040033],[3.940284,49.039355],[3.930325,49.039497],[3.930325,49.039497],[3.920472,49.040456],[3.920472,49.040456],[3.91088,49.042217],[3.91088,49.042217],[3.901701,49.044751],[3.901701,49.044751],[3.893078,49.04802],[3.893078,49.04802],[3.885148,49.051971],[3.885148,49.051971],[3.878037,49.056542],[3.878037,49.056542],[3.871856,49.061661],[3.871856,49.061661],[3.866702,49.067246],[3.866702,49.067246],[3.862658,49.073209],[3.862658,49.073209],[3.859786,49.079457],[3.859786,49.079457],[3.858133,49.085891],[3.858133,49.085891],[3.857723,49.092409],[3.858564,49.098908],[3.858564,49.098908],[3.860642,49.105286],[3.860642,49.105286],[3.863926,49.111442],[3.863926,49.111442],[3.868361,49.11728],[3.868361,49.11728],[3.87388,49.122707],[3.87388,49.122707],[3.880395,49.127638],[3.880395,49.127638],[3.887802,49.131996],[3.887802,49.131996],[3.895986,49.135711],[3.895986,49.135711],[3.904817,49.138726],[3.904817,49.138726],[3.914156,49.140993],[3.914156,49.140993],[3.923855,49.142476],[3.923855,49.142476],[3.933762,49.143152],[3.943721,49.143011],[3.943721,49.143011],[3.953574,49.142054],[3.953574,49.142054],[3.963166,49.140297],[3.963166,49.140297],[3.972346,49.137767]]]}},
{"type":"Feature","properties":{"uuid":"Seine_AMG_Altitudes","textStyle":{"color":[255,158,23],"fontFamily":"Arial","fontSize":12,"fontWeight":600,"text":"3000"}},"geometry":{"type":"MultiPoint","coordinates":[[0.503139,47.120053]]}},
{"type":"Feature","properties":{"uuid":"Seine_AMG_Altitudes","textStyle":{"color":[255,158,23],"fontFamily":"Arial","fontSize":12,"fontWeight":600,"text":"2500"}},"geometry":{"type":"MultiPoint","coordinates":[[1.340905,47.803136]]}},
{"type":"Feature","properties":{"uuid":"Seine_AMG_Altitudes","textStyle":{"color":[255,158,23],"fontFamily":"Arial","fontSize":12,"fontWeight":600,"text":"2900"}},"geometry":{"type":"MultiPoint","coordinates":[[0.877818,48.323627]]}},
{"type":"Feature","properties":{"uuid":"Seine_AMG_Altitudes","textStyle":{"color":[255,158,23],"fontFamily":"Arial","fontSize":12,"fontWeight":600,"text":"2300"}},"geometry":{"type":"MultiPoint","coordinates":[[2.544932,48.53035]]}},
{"type":"Feature","properties":{"uuid":"Seine_AMG_Altitudes","textStyle":{"color":[255,158,23],"fontFamily":"Arial","fontSize":12,"fontWeight":600,"text":"2000"}},"geometry":{"type":"MultiPoint","coordinates":[[2.97434,48.541501]]}},
{"type":"Feature","properties":{"uuid":"Seine_AMG_Altitudes","textStyle":{"color":[255,158,23],"fontFamily":"Arial","fontSize":12,"fontWeight":600,"text":"3300"}},"geometry":{"type":"MultiPoint","coordinates":[[4.565675,47.995063]]}},
{"type":"Feature","properties":{"uuid":"Seine_AMG_Altitudes","textStyle":{"color":[255,158,23],"fontFamily":"Arial","fontSize":12,"fontWeight":600,"text":"2500"}},"geometry":{"type":"MultiPoint","coordinates":[[4.325712,48.477353]]}},
{"type":"Feature","properties":{"uuid":"Seine_AMG_Altitudes","textStyle":{"color":[255,158,23],"fontFamily":"Arial","fontSize":12,"fontWeight":600,"text":"2900"}},"geometry":{"type":"MultiPoint","coordinates":[[3.934193,49.090374]]}}
]}