{"type":"FeatureCollection","features":[
{"type":"Feature","properties":{"name":"Seine Paris TMA","lineStyle":{"color":[83,1,0],"width":3}},"geometry":{"type":"MultiLineString","coordinates":[[[1.159444,48.547222],[0.755833,48.408611],[0.609167,48.268333],[0.740833,47.933333],[1.027222,47.848333],[1.15,47.863889],[1.439444,47.904444],[1.505422,48.00871],[1.403056,48.001667],[1.205556,48.083611],[1.159444,48.547222]],[[1.505422,48.00871],[1.594722,48.015],[1.726152,48.058953],[1.768333,48.110278],[1.793716,48.15],[1.897222,48.297222],[2.906667,48.273611],[3.053889,48.101389],[3.164722,48.0],[3.250244,47.921451],[3.283889,47.890556],[3.794722,48.099722],[4.080833,48.455278],[3.915556,48.543889],[3.786342,48.412025],[3.240556,48.089167],[3.053889,48.101389]],[[3.915556,48.543889],[3.853056,48.639444],[3.781667,48.672222],[3.656389,48.700556],[3.656944,48.736667],[3.158611,48.608056],[2.885,48.376667],[2.747222,48.377222],[1.871944,48.3775],[1.753889,48.376944],[1.552222,48.498333],[1.576111,48.606667],[1.425278,48.705833],[1.286111,48.657222],[1.207778,48.598611],[1.159444,48.547222]],[[1.576111,48.606667],[1.676111,48.546667],[1.871944,48.3775]],[[1.676111,48.546667],[1.885278,48.429444],[2.395833,48.406389]],[[1.425278,48.705833],[1.606111,49.059722],[1.723056,49.375278],[1.613056,49.380278],[1.570556,49.3],[1.468056,49.2525],[1.488468,49.13862],[1.495305,49.100423],[1.419167,48.917222],[1.425278,48.705833]],[[1.488468,49.13862],[1.316667,49.166667],[1.233333,49.233333],[1.283443,49.56733],[1.4,49.75],[1.536111,49.751667],[1.723486,49.630856],[1.663499,49.537305],[2.498623,49.433561],[2.708889,49.510556],[2.743889,49.635278],[2.782778,49.674167],[2.976389,49.6025],[3.105833,49.611944],[3.236389,49.666667],[3.660278,49.748333],[3.765556,49.556111],[3.8825,49.256667],[3.661667,49.105556],[3.656944,48.736667]],[[1.676111,48.546667],[1.695833,48.621667],[1.739444,48.7875],[1.768889,48.899167],[1.742222,49.021111],[1.899167,49.389444],[2.055833,49.32],[2.165833,49.3125],[2.498623,49.433561]],[[2.243723,49.340861],[1.941111,49.433889],[1.8525,49.41],[1.899167,49.389444]],[[1.8525,49.41],[1.723056,49.375278]],[[2.708889,49.510556],[3.157778,49.4375],[3.314722,49.468611],[3.461667,49.445],[3.662222,49.140556],[3.661667,49.105556]],[[3.236389,49.666667],[3.314722,49.468611],[3.483333,49.033333]],[[3.157778,49.4375],[3.238889,48.848333],[3.093056,48.845833],[2.98,48.777778],[2.911667,48.647222]],[[3.123889,48.6275],[3.084444,48.699167],[3.213056,48.790278],[3.500833,48.809722]],[[3.164722,49.383333],[3.374167,49.315589]],[[3.483333,49.033333],[3.500833,48.809722],[3.123889,48.6275],[2.813278,48.455778],[2.747222,48.377222]],[[2.911667,48.647222],[2.721944,48.681389],[2.848333,48.728611],[2.857778,48.813889],[3.060833,48.907778],[2.866667,49.232778],[2.197222,49.121111],[2.000556,48.990278],[1.996667,48.798889],[1.739444,48.7875]],[[1.986944,48.795833],[1.999167,48.633333],[2.025833,48.524167],[2.174444,48.490833],[2.368333,48.480556],[2.489167,48.556111],[2.488889,48.618889],[2.618889,48.698611],[2.721944,48.681389]],[[1.999167,48.633333],[1.772778,48.573333],[1.695833,48.621667]]]}},
{"type":"Feature","properties":{"uuid":"Paris_TMA_Altitudes","textStyle":{"color":[139,2,0],"fontFamily":"Arial","fontSize":12,"fontWeight":600,"text":"FL85"}},"geometry":{"type":"MultiPoint","coordinates":[[0.903505,48.156624]]}},
{"type":"Feature","properties":{"uuid":"Paris_TMA_Altitudes","textStyle":{"color":[139,2,0],"fontFamily":"Arial","fontSize":12,"fontWeight":600,"text":"FL65"}},"geometry":{"type":"MultiPoint","coordinates":[[1.408691,48.337446]]}},
{"type":"Feature","properties":{"uuid":"Paris_TMA_Altitudes","textStyle":{"color":[139,2,0],"fontFamily":"Arial","fontSize":12,"fontWeight":600,"text":"2500"}},"geometry":{"type":"MultiPoint","coordinates":[[1.948608,48.515537]]}},
{"type":"Feature","properties":{"uuid":"Paris_TMA_Altitudes","textStyle":{"color":[139,2,0],"fontFamily":"Arial","fontSize":12,"fontWeight":600,"text":"2500"}},"geometry":{"type":"MultiPoint","coordinates":[[1.828627,48.705509]]}},
{"type":"Feature","properties":{"uuid":"Paris_TMA_Altitudes","textStyle":{"color":[139,2,0],"fontFamily":"Arial","fontSize":12,"fontWeight":600,"text":"3500"}},"geometry":{"type":"MultiPoint","coordinates":[[1.613923,48.815822]]}},
{"type":"Feature","properties":{"uuid":"Paris_TMA_Altitudes","textStyle":{"color":[139,2,0],"fontFamily":"Arial","fontSize":12,"fontWeight":600,"text":"1500"}},"geometry":{"type":"MultiPoint","coordinates":[[2.232775,48.584511]]}},
{"type":"Feature","properties":{"uuid":"Paris_TMA_Altitudes","textStyle":{"color":[139,2,0],"fontFamily":"Arial","fontSize":12,"fontWeight":600,"text":"2500"}},"geometry":{"type":"MultiPoint","coordinates":[[2.576933,48.452753]]}},
{"type":"Feature","properties":{"uuid":"Paris_TMA_Altitudes","textStyle":{"color":[139,2,0],"fontFamily":"Arial","fontSize":12,"fontWeight":600,"text":"3500"}},"geometry":{"type":"MultiPoint","coordinates":[[2.665341,48.601217]]}},
{"type":"Feature","properties":{"uuid":"Paris_TMA_Altitudes","textStyle":{"color":[139,2,0],"fontFamily":"Arial","fontSize":12,"fontWeight":600,"text":"4500"}},"geometry":{"type":"MultiPoint","coordinates":[[2.845313,48.438092]]}},
{"type":"Feature","properties":{"uuid":"Paris_TMA_Altitudes","textStyle":{"color":[139,2,0],"fontFamily":"Arial","fontSize":12,"fontWeight":600,"text":"FL065"}},"geometry":{"type":"MultiPoint","coordinates":[[3.413648,48.410853]]}},
{"type":"Feature","properties":{"uuid":"Paris_TMA_Altitudes","textStyle":{"color":[139,2,0],"fontFamily":"Arial","fontSize":12,"fontWeight":600,"text":"FL85"}},"geometry":{"type":"MultiPoint","coordinates":[[3.685185,48.247115]]}},
{"type":"Feature","properties":{"uuid":"Paris_TMA_Altitudes","textStyle":{"color":[139,2,0],"fontFamily":"Arial","fontSize":12,"fontWeight":600,"text":"4500"}},"geometry":{"type":"MultiPoint","coordinates":[[3.56915,48.961666]]}},
{"type":"Feature","properties":{"uuid":"Paris_TMA_Altitudes","textStyle":{"color":[139,2,0],"fontFamily":"Arial","fontSize":12,"fontWeight":600,"text":"3500"}},"geometry":{"type":"MultiPoint","coordinates":[[3.3134,49.096232]]}}
]}