{"type":"FeatureCollection","features":[
{"type":"Feature","properties":{"name":"Melun RNP 28","lineStyle":{"color":[188,188,188],"width":1},"activation":{"activeRunways":{"LFPM":{"arr":["28"]}}}},"geometry":{"type":"MultiLineString","coordinates":[[[2.688206,48.602508],[2.814667,48.582278],[2.887861,48.5705],[2.957667,48.639833]],[[2.887861,48.5705],[2.898583,48.506667],[2.811778,48.439333]],[[2.887861,48.5705],[3.091111,48.532944],[3.281111,48.369028]],[[2.887861,48.5705],[2.978,48.553917],[3.11025,48.533139],[3.327833,48.498583]]]}},
{"type":"Feature","properties":{"name":"Tours Arrivals 02","lineStyle":{"color":[188,188,188],"width":1},"activation":{"activeRunways":{"LFOT":{"arr":["02"]}}}},"geometry":{"type":"MultiLineString","coordinates":[[[0.298194,46.581],[0.558861,46.872833],[0.516694,47.0265],[0.642556,47.219833],[0.670806,47.290583],[0.723411,47.421789]],[[0.512417,47.402833],[0.453667,47.254639],[0.516694,47.0265]],[[0.907222,47.837222],[0.623056,47.679583],[0.563694,47.531472],[0.512417,47.402833]],[[1.055,47.025833],[0.824722,47.166667],[0.743083,47.281361],[0.512417,47.402833]]]}},
{"type":"Feature","properties":{"name":"Tours Arrivals 20","lineStyle":{"color":[188,188,188],"width":1},"activation":{"activeRunways":{"LFOT":{"arr":["20"]}}}},"geometry":{"type":"MultiLineString","coordinates":[[[0.298194,46.581],[0.558861,46.872833],[0.453667,47.254639],[0.563694,47.531472],[0.623056,47.679583],[0.813333,47.644528],[0.7318,47.442653]],[[0.623056,47.679583],[0.907222,47.837222],[0.813333,47.644528]],[[1.055,47.025833],[0.824722,47.166667],[0.563694,47.531472]]]}},
{"type":"Feature","properties":{"name":"Vatry ILS 10","lineStyle":{"color":[188,188,188],"width":1},"activation":{"activeRunways":{"LFOK":{"arr":["10"]}}}},"geometry":{"type":"MultiLineString","coordinates":[[[4.159883,48.779392],[3.873611,48.815833]],[[3.95981,48.804863],[3.960948,48.804718],[3.93113,48.791438]],[[3.95981,48.804863],[3.960948,48.804718],[3.940636,48.824502]]]}},
{"type":"Feature","properties":{"name":"Vatry ILS 28","lineStyle":{"color":[188,188,188],"width":1},"activation":{"activeRunways":{"LFOK":{"arr":["28"]}}}},"geometry":{"type":"MultiLineString","coordinates":[[[3.873611,48.815833],[4.146944,48.781083],[4.444222,48.798224],[4.447287,48.798311],[4.448277,48.798282],[4.450354,48.79822],[4.451532,48.798116],[4.453393,48.797952],[4.454682,48.797762],[4.456387,48.797508],[4.457664,48.797241],[4.45931,48.796893],[4.460581,48.796543],[4.462138,48.796111],[4.463372,48.795684],[4.464853,48.795167],[4.466058,48.794657],[4.467427,48.794072],[4.468567,48.793491],[4.469852,48.792828],[4.470899,48.792189],[4.472095,48.791452],[4.47309,48.790729],[4.474147,48.789951],[4.475037,48.789178],[4.475995,48.788334],[4.476765,48.787525],[4.477616,48.786619],[4.47829,48.785751],[4.479002,48.784817],[4.479567,48.783898],[4.480143,48.782941],[4.480583,48.781993],[4.481071,48.780911],[4.481654,48.779025],[4.481835,48.778049],[4.482011,48.777017],[4.482062,48.776036],[4.4821,48.774996],[4.482019,48.774015],[4.481918,48.772977],[4.481708,48.772007],[4.481468,48.770978],[4.48113,48.770025],[4.480752,48.769012],[4.480287,48.768078],[4.479778,48.767096],[4.479187,48.766188],[4.478551,48.765243],[4.477842,48.764373],[4.477082,48.763469],[4.476263,48.762647],[4.475379,48.761785],[4.474453,48.761012],[4.473464,48.76021],[4.472424,48.759483],[4.471343,48.75875],[4.470217,48.75809],[4.469033,48.757417],[4.467825,48.756826],[4.466559,48.756226],[4.465266,48.755703],[4.463933,48.755182],[4.462583,48.754737],[4.460911,48.754209],[4.458029,48.753498],[4.427544,48.74697],[4.424614,48.746435],[4.421625,48.74607],[4.418599,48.745878],[4.415558,48.74586],[4.412527,48.746018],[4.411546,48.746126],[4.402616,48.747316],[4.401942,48.747411],[4.353083,48.753972],[4.304278,48.760401],[4.303036,48.760544],[4.20845,48.773022]]]}},
{"type":"Feature","properties":{"name":"Auxuerre RNP 18","lineStyle":{"color":[188,188,188],"width":1},"activation":{"activeRunways":{"LFLA":{"arr":["18"]}}}},"geometry":{"type":"MultiLineString","coordinates":[[[3.502139,47.920167],[3.336833,47.930667],[3.426944,48.057361],[3.525889,48.051194],[3.498206,47.857744]]]}},
{"type":"Feature","properties":{"name":"Auxerre RNP 36","lineStyle":{"color":[188,188,188],"width":1},"activation":{"activeRunways":{"LFLA":{"arr":["36"]}}}},"geometry":{"type":"MultiLineString","coordinates":[[[3.49625,47.844033],[3.466389,47.6335],[3.368361,47.639972],[3.380972,47.729694]]]}},
{"type":"Feature","properties":{"name":"Blois RNP 12","lineStyle":{"color":[188,188,188],"width":1},"activation":{"activeRunways":{"LFOQ":{"arr":["12"]}}}},"geometry":{"type":"MultiLineString","coordinates":[[[1.201978,47.681406],[0.849194,47.826333],[0.903056,47.886167],[1.172167,47.7535],[1.294556,47.680278],[1.369417,47.514167]]]}},
{"type":"Feature","properties":{"name":"Blois RNP 30","lineStyle":{"color":[188,188,188],"width":1},"activation":{"activeRunways":{"LFOQ":{"arr":["30"]}}}},"geometry":{"type":"MultiLineString","coordinates":[[[1.215592,47.675775],[1.434861,47.584694],[1.538639,47.541333]],[[1.369417,47.514167],[1.434861,47.584694],[1.511583,47.670139]]]}},
{"type":"Feature","properties":{"name":"Orleans RNP 05","lineStyle":{"color":[188,188,188],"width":1},"activation":{"activeRunways":{"LFOZ":{"arr":["05"]}}}},"geometry":{"type":"MultiLineString","coordinates":[[[1.8475,47.818139],[1.96775,47.798194],[2.063778,47.711417]],[[1.96775,47.798194],[2.157319,47.894142]]]}},
{"type":"Feature","properties":{"name":"Orleans RNP 23","lineStyle":{"color":[188,188,188],"width":1},"activation":{"activeRunways":{"LFOZ":{"arr":["23"]}}}},"geometry":{"type":"MultiLineString","coordinates":[[[2.174447,47.902778],[2.374806,48.003417],[2.474361,48.053111]],[[2.300528,48.070139],[2.374806,48.003417],[2.448861,47.936583]]]}},
{"type":"Feature","properties":{"name":"Reims RNP 07","lineStyle":{"color":[188,188,188],"width":1},"activation":{"activeRunways":{"LFQA":{"arr":["07"]}}}},"geometry":{"type":"MultiLineString","coordinates":[[[4.152272,49.206903],[3.888242,49.131175]],[[3.84625,49.192028],[3.888242,49.131175],[3.92795,49.069858]]]}},
{"type":"Feature","properties":{"name":"Reims RNP 25","lineStyle":{"color":[188,188,188],"width":1},"activation":{"activeRunways":{"LFQA":{"arr":["25"]}}}},"geometry":{"type":"MultiLineString","coordinates":[[[4.180339,49.215539],[4.339517,49.357244],[4.415183,49.424467]],[[4.268242,49.426472],[4.339517,49.357244]]]}},
{"type":"Feature","properties":{"name":"Troyes RNP 17","lineStyle":{"color":[188,188,188],"width":1},"activation":{"activeRunways":{"LFQB":{"arr":["17"]}}}},"geometry":{"type":"MultiLineString","coordinates":[[[3.838556,48.484222],[4.112528,48.504278]],[[3.987972,48.49525],[4.015328,48.329492]]]}},
{"type":"Feature","properties":{"name":"Troyes RNP 35","lineStyle":{"color":[188,188,188],"width":1},"activation":{"activeRunways":{"LFQB":{"arr":["35"]}}}},"geometry":{"type":"MultiLineString","coordinates":[[[4.017586,48.315753],[4.04875,48.1255],[3.900389,48.114556],[3.876083,48.26075]]]}},
{"type":"Feature","properties":{"uuid":"EGA_Paris_Satellite_FIX_Names","textStyle":{"color":[255,255,255],"fontFamily":"Arial","fontSize":10,"fontWeight":400,"text":"FPM28"},"activation":{"activeRunways":{"LFPM":{"arr":["28"],"dep":["26R","27L"]}}}},"geometry":{"type":"MultiPoint","coordinates":[[2.81545,48.619025]]}},
{"type":"Feature","properties":{"uuid":"EGA_Paris_Satellite_FIX_Names","textStyle":{"color":[255,255,255],"fontFamily":"Arial","fontSize":10,"fontWeight":400,"text":"NERIN"},"activation":{"activeRunways":{"LFPM":{"arr":["28"],"dep":["26R","27L"]}}}},"geometry":{"type":"MultiPoint","coordinates":[[2.959852,48.674828]]}},
{"type":"Feature","properties":{"uuid":"EGA_Paris_Satellite_FIX_Names","textStyle":{"color":[255,255,255],"fontFamily":"Arial","fontSize":10,"fontWeight":400,"text":"PM500"},"activation":{"activeRunways":{"LFPM":{"arr":["28"],"dep":["26R","27L"]}}}},"geometry":{"type":"MultiPoint","coordinates":[[2.81545,48.505427]]}},
{"type":"Feature","properties":{"uuid":"EGA_Paris_Satellite_FIX_Names","textStyle":{"color":[255,255,255],"fontFamily":"Arial","fontSize":10,"fontWeight":400,"text":"ADDOZ"},"activation":{"activeRunways":{"LFPM":{"arr":["28"],"dep":["26R","27L"]}}}},"geometry":{"type":"MultiPoint","coordinates":[[2.81545,48.400619]]}},
{"type":"Feature","properties":{"uuid":"EGA_Paris_Satellite_FIX_Names","textStyle":{"color":[255,255,255],"fontFamily":"Arial","fontSize":10,"fontWeight":400,"text":"IPM28"},"activation":{"activeRunways":{"LFPM":{"arr":["28"],"dep":["26R","27L"]}}}},"geometry":{"type":"MultiPoint","coordinates":[[2.826348,48.541517]]}},
{"type":"Feature","properties":{"uuid":"EGA_Paris_Satellite_FIX_Names","textStyle":{"color":[255,255,255],"fontFamily":"Arial","fontSize":10,"fontWeight":400,"text":"VANEX"},"activation":{"activeRunways":{"LFPM":{"arr":["28"],"dep":["26R","27L"]}}}},"geometry":{"type":"MultiPoint","coordinates":[[2.995272,48.590199]]}},
{"type":"Feature","properties":{"uuid":"EGA_Paris_Satellite_FIX_Names","textStyle":{"color":[255,255,255],"fontFamily":"Arial","fontSize":10,"fontWeight":400,"text":"PM501"},"activation":{"activeRunways":{"LFPM":{"arr":["28"],"dep":["26R","27L"]}}}},"geometry":{"type":"MultiPoint","coordinates":[[3.066111,48.494595]]}},
{"type":"Feature","properties":{"uuid":"EGA_Paris_Satellite_FIX_Names","textStyle":{"color":[255,255,255],"fontFamily":"Arial","fontSize":10,"fontWeight":400,"text":"PM504"},"activation":{"activeRunways":{"LFPM":{"arr":["28"],"dep":["26R","27L"]}}}},"geometry":{"type":"MultiPoint","coordinates":[[3.16692,48.566765]]}},
{"type":"Feature","properties":{"uuid":"EGA_Paris_Satellite_FIX_Names","textStyle":{"color":[255,255,255],"fontFamily":"Arial","fontSize":10,"fontWeight":400,"text":"APPOC"},"activation":{"activeRunways":{"LFPM":{"arr":["28"],"dep":["26R","27L"]}}}},"geometry":{"type":"MultiPoint","coordinates":[[3.330395,48.527084]]}},
{"type":"Feature","properties":{"uuid":"EGA_Paris_Satellite_FIX_Names","textStyle":{"color":[255,255,255],"fontFamily":"Arial","fontSize":10,"fontWeight":400,"text":"ATTUC"},"activation":{"activeRunways":{"LFPM":{"arr":["28"],"dep":["26R","27L"]}}}},"geometry":{"type":"MultiPoint","coordinates":[[3.278628,48.335457]]}},
{"type":"Feature","properties":{"uuid":"Tours_Arrivals_20","textStyle":{"color":[255,255,255],"fontFamily":"Arial","fontSize":10,"fontWeight":400,"text":"POI"},"activation":{"activeRunways":{"LFOT":{"arr":["20"]}}}},"geometry":{"type":"MultiPoint","coordinates":[[0.296805,46.526832]]}},
{"type":"Feature","properties":{"uuid":"Tours_Arrivals_20","textStyle":{"color":[255,255,255],"fontFamily":"Arial","fontSize":10,"fontWeight":400,"text":"OT801"},"activation":{"activeRunways":{"LFOT":{"arr":["20"]}}}},"geometry":{"type":"MultiPoint","coordinates":[[0.645632,46.873434]]}},
{"type":"Feature","properties":{"uuid":"Tours_Arrivals_20","textStyle":{"color":[255,255,255],"fontFamily":"Arial","fontSize":10,"fontWeight":400,"text":"OT802"},"activation":{"activeRunways":{"LFOT":{"arr":["20"]}}}},"geometry":{"type":"MultiPoint","coordinates":[[0.423152,47.021564]]}},
{"type":"Feature","properties":{"uuid":"Tours_Arrivals_20","textStyle":{"color":[255,255,255],"fontFamily":"Arial","fontSize":10,"fontWeight":400,"text":"OT804"},"activation":{"activeRunways":{"LFOT":{"arr":["20"]}}}},"geometry":{"type":"MultiPoint","coordinates":[[0.368218,47.163682]]}},
{"type":"Feature","properties":{"uuid":"Tours_Arrivals_20","textStyle":{"color":[255,255,255],"fontFamily":"Arial","fontSize":10,"fontWeight":400,"text":"OT804"},"activation":{"activeRunways":{"LFOT":{"arr":["20"]}}}},"geometry":{"type":"MultiPoint","coordinates":[[0.348991,47.256974]]}},
{"type":"Feature","properties":{"uuid":"Tours_Arrivals_20","textStyle":{"color":[255,255,255],"fontFamily":"Arial","fontSize":10,"fontWeight":400,"text":"OTKIG"},"activation":{"activeRunways":{"LFOT":{"arr":["20"]}}}},"geometry":{"type":"MultiPoint","coordinates":[[0.456112,47.541429]]}},
{"type":"Feature","properties":{"uuid":"Tours_Arrivals_20","textStyle":{"color":[255,255,255],"fontFamily":"Arial","fontSize":10,"fontWeight":400,"text":"OT800"},"activation":{"activeRunways":{"LFOT":{"arr":["20"]}}}},"geometry":{"type":"MultiPoint","coordinates":[[0.818673,47.303559]]}},
{"type":"Feature","properties":{"uuid":"Tours_Arrivals_20","textStyle":{"color":[255,255,255],"fontFamily":"Arial","fontSize":10,"fontWeight":400,"text":"OMARI"},"activation":{"activeRunways":{"LFOT":{"arr":["20"]}}}},"geometry":{"type":"MultiPoint","coordinates":[[0.90382,47.186087]]}},
{"type":"Feature","properties":{"uuid":"Tours_Arrivals_20","textStyle":{"color":[255,255,255],"fontFamily":"Arial","fontSize":10,"fontWeight":400,"text":"SOPIL"},"activation":{"activeRunways":{"LFOT":{"arr":["20"]}}}},"geometry":{"type":"MultiPoint","coordinates":[[1.118061,47.053387]]}},
{"type":"Feature","properties":{"uuid":"Tours_Arrivals_20","textStyle":{"color":[255,255,255],"fontFamily":"Arial","fontSize":10,"fontWeight":400,"text":"VANAD"},"activation":{"activeRunways":{"LFOT":{"arr":["20"]}}}},"geometry":{"type":"MultiPoint","coordinates":[[0.91206,47.883327]]}},
{"type":"Feature","properties":{"uuid":"Tours_Arrivals_20","textStyle":{"color":[255,255,255],"fontFamily":"Arial","fontSize":10,"fontWeight":400,"text":"OT902"},"activation":{"activeRunways":{"LFOT":{"arr":["20"]}}}},"geometry":{"type":"MultiPoint","coordinates":[[0.557739,47.713583]]}},
{"type":"Feature","properties":{"uuid":"Tours_Arrivals_20","textStyle":{"color":[255,255,255],"fontFamily":"Arial","fontSize":10,"fontWeight":400,"text":"OT901"},"activation":{"activeRunways":{"LFOT":{"arr":["20"]}}}},"geometry":{"type":"MultiPoint","coordinates":[[0.89558,47.637757]]}},
{"type":"Feature","properties":{"uuid":"Tours_Arrivals_20","textStyle":{"color":[255,255,255],"fontFamily":"Arial","fontSize":10,"fontWeight":400,"text":"IOT20"},"activation":{"activeRunways":{"LFOT":{"arr":["20"]}}}},"geometry":{"type":"MultiPoint","coordinates":[[0.859873,47.559968]]}},
{"type":"Feature","properties":{"uuid":"Tours_Arrivals_20","textStyle":{"color":[255,255,255],"fontFamily":"Arial","fontSize":10,"fontWeight":400,"text":"OT554"},"activation":{"activeRunways":{"LFOT":{"arr":["20"]}}}},"geometry":{"type":"MultiPoint","coordinates":[[0.689579,47.61184]]}},
{"type":"Feature","properties":{"uuid":"Tours_Arrivals_02","textStyle":{"color":[255,255,255],"fontFamily":"Arial","fontSize":10,"fontWeight":400,"text":"SOPIL"},"activation":{"activeRunways":{"LFOT":{"arr":["02"]}}}},"geometry":{"type":"MultiPoint","coordinates":[[1.057634,46.97848]]}},
{"type":"Feature","properties":{"uuid":"Tours_Arrivals_02","textStyle":{"color":[255,255,255],"fontFamily":"Arial","fontSize":10,"fontWeight":400,"text":"OMARI"},"activation":{"activeRunways":{"LFOT":{"arr":["02"]}}}},"geometry":{"type":"MultiPoint","coordinates":[[0.90382,47.187954]]}},
{"type":"Feature","properties":{"uuid":"Tours_Arrivals_02","textStyle":{"color":[255,255,255],"fontFamily":"Arial","fontSize":10,"fontWeight":400,"text":"OT800"},"activation":{"activeRunways":{"LFOT":{"arr":["02"]}}}},"geometry":{"type":"MultiPoint","coordinates":[[0.832406,47.294245]]}},
{"type":"Feature","properties":{"uuid":"Tours_Arrivals_02","textStyle":{"color":[255,255,255],"fontFamily":"Arial","fontSize":10,"fontWeight":400,"text":"POI"},"activation":{"activeRunways":{"LFOT":{"arr":["02"]}}}},"geometry":{"type":"MultiPoint","coordinates":[[0.296805,46.532501]]}},
{"type":"Feature","properties":{"uuid":"Tours_Arrivals_02","textStyle":{"color":[255,255,255],"fontFamily":"Arial","fontSize":10,"fontWeight":400,"text":"OT801"},"activation":{"activeRunways":{"LFOT":{"arr":["02"]}}}},"geometry":{"type":"MultiPoint","coordinates":[[0.450618,46.864045]]}},
{"type":"Feature","properties":{"uuid":"Tours_Arrivals_02","textStyle":{"color":[255,255,255],"fontFamily":"Arial","fontSize":10,"fontWeight":400,"text":"OT802"},"activation":{"activeRunways":{"LFOT":{"arr":["02"]}}}},"geometry":{"type":"MultiPoint","coordinates":[[0.423152,47.015946]]}},
{"type":"Feature","properties":{"uuid":"Tours_Arrivals_02","textStyle":{"color":[255,255,255],"fontFamily":"Arial","fontSize":10,"fontWeight":400,"text":"OT804"},"activation":{"activeRunways":{"LFOT":{"arr":["02"]}}}},"geometry":{"type":"MultiPoint","coordinates":[[0.362725,47.161815]]}},
{"type":"Feature","properties":{"uuid":"Tours_Arrivals_02","textStyle":{"color":[255,255,255],"fontFamily":"Arial","fontSize":10,"fontWeight":400,"text":"OT452"},"activation":{"activeRunways":{"LFOT":{"arr":["02"]}}}},"geometry":{"type":"MultiPoint","coordinates":[[0.348991,47.262567]]}},
{"type":"Feature","properties":{"uuid":"Tours_Arrivals_02","textStyle":{"color":[255,255,255],"fontFamily":"Arial","fontSize":10,"fontWeight":400,"text":"OTKUR"},"activation":{"activeRunways":{"LFOT":{"arr":["02"]}}}},"geometry":{"type":"MultiPoint","coordinates":[[0.401178,47.413336]]}},
{"type":"Feature","properties":{"uuid":"Tours_Arrivals_02","textStyle":{"color":[255,255,255],"fontFamily":"Arial","fontSize":10,"fontWeight":400,"text":"OT803"},"activation":{"activeRunways":{"LFOT":{"arr":["02"]}}}},"geometry":{"type":"MultiPoint","coordinates":[[0.689579,47.171152]]}},
{"type":"Feature","properties":{"uuid":"Tours_Arrivals_02","textStyle":{"color":[255,255,255],"fontFamily":"Arial","fontSize":10,"fontWeight":400,"text":"IOT02"},"activation":{"activeRunways":{"LFOT":{"arr":["02"]}}}},"geometry":{"type":"MultiPoint","coordinates":[[0.576965,47.294245]]}},
{"type":"Feature","properties":{"uuid":"Tours_Arrivals_02","textStyle":{"color":[255,255,255],"fontFamily":"Arial","fontSize":10,"fontWeight":400,"text":"OT552"},"activation":{"activeRunways":{"LFOT":{"arr":["02"]}}}},"geometry":{"type":"MultiPoint","coordinates":[[0.541259,47.702493]]}},
{"type":"Feature","properties":{"uuid":"Tours_Arrivals_02","textStyle":{"color":[255,255,255],"fontFamily":"Arial","fontSize":10,"fontWeight":400,"text":"OT802"},"activation":{"activeRunways":{"LFOT":{"arr":["02"]}}}},"geometry":{"type":"MultiPoint","coordinates":[[0.662112,47.781916]]}},
{"type":"Feature","properties":{"uuid":"Tours_Arrivals_02","textStyle":{"color":[255,255,255],"fontFamily":"Arial","fontSize":10,"fontWeight":400,"text":"VANAD"},"activation":{"activeRunways":{"LFOT":{"arr":["02"]}}}},"geometry":{"type":"MultiPoint","coordinates":[[0.82966,47.863061]]}},
{"type":"Feature","properties":{"uuid":"Vatry ILS 28","textStyle":{"color":[255,255,255],"fontFamily":"Arial","fontSize":10,"fontWeight":400,"text":"KELON"},"activation":{"activeRunways":{"LFOK":{"arr":["28"]}}}},"geometry":{"type":"MultiPoint","coordinates":[[3.874595,48.853153]]}},
{"type":"Feature","properties":{"uuid":"Vatry ILS 10","textStyle":{"color":[255,255,255],"fontFamily":"Arial","fontSize":10,"fontWeight":400,"text":"KELON"},"activation":{"activeRunways":{"LFOK":{"arr":["10"]}}}},"geometry":{"type":"MultiPoint","coordinates":[[3.874595,48.853153]]}},
{"type":"Feature","properties":{"uuid":"Vatry ILS 28","textStyle":{"color":[255,255,255],"fontFamily":"Arial","fontSize":10,"fontWeight":400,"text":"CAV"},"activation":{"activeRunways":{"LFOK":{"arr":["28"]}}}},"geometry":{"type":"MultiPoint","coordinates":[[4.14674,48.812287]]}},
{"type":"Feature","properties":{"name":"Melun RNP 28","pointStyle":{"type":"cross","color":[245,245,245]},"activation":{"activeRunways":{"LFPM":{"arr":["28"]}}}},"geometry":{"type":"MultiPoint","coordinates":[[2.814667,48.582278],[2.887861,48.5705],[2.957667,48.639833],[2.898583,48.506667],[2.811778,48.439333],[2.978,48.553917],[3.091111,48.532944],[3.11025,48.533139],[3.281111,48.369028],[3.327833,48.498583]]}},
{"type":"Feature","properties":{"name":"Tours Arrivals 20","pointStyle":{"type":"cross","color":[245,245,245]},"activation":{"activeRunways":{"LFOT":{"arr":["20"]}}}},"geometry":{"type":"MultiPoint","coordinates":[[0.298194,46.581],[0.558861,46.872833],[0.475583,47.175472],[0.453667,47.254639],[0.563694,47.531472],[0.743083,47.281361],[0.824722,47.166667],[1.055,47.025833],[0.623056,47.679583],[0.907222,47.837222],[0.813333,47.644528],[0.706333,47.664278],[0.516694,47.0265],[0.784722,47.573833]]}},
{"type":"Feature","properties":{"name":"Tours Arrivals 02","pointStyle":{"type":"cross","color":[245,245,245]},"activation":{"activeRunways":{"LFOT":{"arr":["02"]}}}},"geometry":{"type":"MultiPoint","coordinates":[[0.907222,47.837222],[0.735333,47.742083],[0.623056,47.679583],[1.055,47.025833],[0.824722,47.166667],[0.743083,47.281361],[0.513792,47.398464],[0.298194,46.581],[0.558861,46.872833],[0.516694,47.0265],[0.453667,47.254639],[0.475583,47.175472],[0.642556,47.219833],[0.670806,47.290583]]}},
{"type":"Feature","properties":{"name":"Vatry ILS 10","pointStyle":{"type":"cross","color":[245,245,245]},"activation":{"activeRunways":{"LFOK":{"arr":["10"]}}}},"geometry":{"type":"MultiPoint","coordinates":[[3.873611,48.815833]]}},
{"type":"Feature","properties":{"name":"Troyes RNP 17","pointStyle":{"type":"cross","color":[245,245,245]},"activation":{"activeRunways":{"LFQB":{"arr":["17"]}}}},"geometry":{"type":"MultiPoint","coordinates":[[3.838556,48.484222],[3.987972,48.49525],[4.112528,48.504278],[4.004041,48.397574]]}},
{"type":"Feature","properties":{"name":"Troyes RNP 35","pointStyle":{"type":"cross","color":[245,245,245]},"activation":{"activeRunways":{"LFQB":{"arr":["35"]}}}},"geometry":{"type":"MultiPoint","coordinates":[[3.876083,48.26075],[3.900389,48.114556],[4.04875,48.1255],[4.035222,48.208306]]}},
{"type":"Feature","properties":{"name":"Reims RNP 07","pointStyle":{"type":"cross","color":[245,245,245]},"activation":{"activeRunways":{"LFQA":{"arr":["07"]}}}},"geometry":{"type":"MultiPoint","coordinates":[[3.84625,49.192028],[3.888242,49.131175],[3.92795,49.069858],[3.981114,49.1581]]}},
{"type":"Feature","properties":{"name":"Reims RNP 25","pointStyle":{"type":"cross","color":[245,245,245]},"activation":{"activeRunways":{"LFQA":{"arr":["25"]}}}},"geometry":{"type":"MultiPoint","coordinates":[[4.180339,49.215539],[4.268242,49.426472],[4.339517,49.357244],[4.415183,49.424467]]}},
{"type":"Feature","properties":{"name":"Auxerre RNP 18","pointStyle":{"type":"cross","color":[245,245,245]},"activation":{"activeRunways":{"LFLA":{"arr":["18"]}}}},"geometry":{"type":"MultiPoint","coordinates":[[3.502139,47.920167],[3.336833,47.930667],[3.426944,48.057361],[3.525889,48.051194],[3.516361,47.984889]]}},
{"type":"Feature","properties":{"name":"Auxerre RNP 36","pointStyle":{"type":"cross","color":[245,245,245]},"activation":{"activeRunways":{"LFLA":{"arr":["36"]}}}},"geometry":{"type":"MultiPoint","coordinates":[[3.380972,47.729694],[3.368361,47.639972],[3.466389,47.6335],[3.473861,47.686444]]}},
{"type":"Feature","properties":{"name":"Orleans RNP 05","pointStyle":{"type":"cross","color":[245,245,245]},"activation":{"activeRunways":{"LFOZ":{"arr":["05"]}}}},"geometry":{"type":"MultiPoint","coordinates":[[1.8475,47.818139],[1.968499,47.799024],[2.063778,47.711417],[2.054083,47.841972]]}},
{"type":"Feature","properties":{"name":"Orleans RNP 23","pointStyle":{"type":"cross","color":[245,245,245]},"activation":{"activeRunways":{"LFOZ":{"arr":["23"]}}}},"geometry":{"type":"MultiPoint","coordinates":[[2.282247,47.957431],[2.374806,48.003417],[2.300528,48.070139],[2.448861,47.936583],[2.474361,48.053111]]}},
{"type":"Feature","properties":{"name":"Blois RNP","pointStyle":{"type":"cross","color":[245,245,245]}},"geometry":{"type":"MultiPoint","coordinates":[[1.369417,47.514167]]}},
{"type":"Feature","properties":{"name":"Blois RNP 12","pointStyle":{"type":"cross","color":[245,245,245]},"activation":{"activeRunways":{"LFOQ":{"arr":["12"]}}}},"geometry":{"type":"MultiPoint","coordinates":[[1.294556,47.680278],[1.172167,47.7535],[0.903056,47.886167],[0.849194,47.826333],[0.987194,47.769861],[1.092639,47.726556]]}},
{"type":"Feature","properties":{"name":"Blois RNP 30","pointStyle":{"type":"cross","color":[245,245,245]},"activation":{"activeRunways":{"LFOQ":{"arr":["30"]}}}},"geometry":{"type":"MultiPoint","coordinates":[[1.325778,47.630111],[1.434861,47.584694],[1.511583,47.670139],[1.538639,47.541333]]}}
]}