{"type":"FeatureCollection","features":[
{"type":"Feature","properties":{"uuid":"Seine_Navaid_Name","textStyle":{"color":[245,245,245],"fontFamily":"Arial","fontSize":10,"fontWeight":400,"text":"ANG"}},"geometry":{"type":"MultiPoint","coordinates":[[-0.850182,47.585669]]}},
{"type":"Feature","properties":{"uuid":"Seine_Navaid_Name","textStyle":{"color":[245,245,245],"fontFamily":"Arial","fontSize":10,"fontWeight":400,"text":"AMB"}},"geometry":{"type":"MultiPoint","coordinates":[[1.067163,47.477789]]}},
{"type":"Feature","properties":{"uuid":"Seine_Navaid_Name","textStyle":{"color":[245,245,245],"fontFamily":"Arial","fontSize":10,"fontWeight":400,"text":"CAD"}},"geometry":{"type":"MultiPoint","coordinates":[[1.390271,48.107517]]}},
{"type":"Feature","properties":{"uuid":"Seine_Navaid_Name","textStyle":{"color":[245,245,245],"fontFamily":"Arial","fontSize":10,"fontWeight":400,"text":"CHW"}},"geometry":{"type":"MultiPoint","coordinates":[[0.985498,48.532506]]}},
{"type":"Feature","properties":{"uuid":"Seine_Navaid_Name","textStyle":{"color":[245,245,245],"fontFamily":"Arial","fontSize":10,"fontWeight":400,"text":"BCY"}},"geometry":{"type":"MultiPoint","coordinates":[[1.755987,48.036341]]}},
{"type":"Feature","properties":{"uuid":"Seine_Navaid_Name","textStyle":{"color":[245,245,245],"fontFamily":"Arial","fontSize":10,"fontWeight":400,"text":"CHX"}},"geometry":{"type":"MultiPoint","coordinates":[[1.741784,46.922937]]}},
{"type":"Feature","properties":{"uuid":"Seine_Navaid_Name","textStyle":{"color":[245,245,245],"fontFamily":"Arial","fontSize":10,"fontWeight":400,"text":"AVD"}},"geometry":{"type":"MultiPoint","coordinates":[[2.629444,47.109338]]}},
{"type":"Feature","properties":{"uuid":"Seine_Navaid_Name","textStyle":{"color":[245,245,245],"fontFamily":"Arial","fontSize":10,"fontWeight":400,"text":"LGL"}},"geometry":{"type":"MultiPoint","coordinates":[[0.531017,48.834904]]}},
{"type":"Feature","properties":{"uuid":"Seine_Navaid_Name","textStyle":{"color":[245,245,245],"fontFamily":"Arial","fontSize":10,"fontWeight":400,"text":"EVX"}},"geometry":{"type":"MultiPoint","coordinates":[[1.212739,49.079703]]}},
{"type":"Feature","properties":{"uuid":"Seine_Navaid_Name","textStyle":{"color":[245,245,245],"fontFamily":"Arial","fontSize":10,"fontWeight":400,"text":"PT"}},"geometry":{"type":"MultiPoint","coordinates":[[0.317978,46.643333]]}},
{"type":"Feature","properties":{"uuid":"Seine_Navaid_Name","textStyle":{"color":[245,245,245],"fontFamily":"Arial","fontSize":10,"fontWeight":400,"text":"POI"}},"geometry":{"type":"MultiPoint","coordinates":[[0.207909,46.577477]]}},
{"type":"Feature","properties":{"uuid":"Seine_Navaid_Name","textStyle":{"color":[245,245,245],"fontFamily":"Arial","fontSize":10,"fontWeight":400,"text":"BLB"}},"geometry":{"type":"MultiPoint","coordinates":[[1.202087,47.731551]]}},
{"type":"Feature","properties":{"uuid":"Seine_Navaid_Name","textStyle":{"color":[245,245,245],"fontFamily":"Arial","fontSize":10,"fontWeight":400,"text":"ORS"}},"geometry":{"type":"MultiPoint","coordinates":[[2.242424,47.98646]]}},
{"type":"Feature","properties":{"uuid":"Seine_Navaid_Name","textStyle":{"color":[245,245,245],"fontFamily":"Arial","fontSize":10,"fontWeight":400,"text":"CTX"}},"geometry":{"type":"MultiPoint","coordinates":[[1.798594,46.990794]]}},
{"type":"Feature","properties":{"uuid":"Seine_Navaid_Name","textStyle":{"color":[245,245,245],"fontFamily":"Arial","fontSize":10,"fontWeight":400,"text":"AVD"}},"geometry":{"type":"MultiPoint","coordinates":[[2.796324,47.179372]]}},
{"type":"Feature","properties":{"uuid":"Seine_Navaid_Name","textStyle":{"color":[245,245,245],"fontFamily":"Arial","fontSize":10,"fontWeight":400,"text":"NV"}},"geometry":{"type":"MultiPoint","coordinates":[[3.193995,47.015008]]}},
{"type":"Feature","properties":{"uuid":"Seine_Navaid_Name","textStyle":{"color":[245,245,245],"fontFamily":"Arial","fontSize":10,"fontWeight":400,"text":"AX"}},"geometry":{"type":"MultiPoint","coordinates":[[3.495799,47.976953]]}},
{"type":"Feature","properties":{"uuid":"Seine_Navaid_Name","textStyle":{"color":[245,245,245],"fontFamily":"Arial","fontSize":10,"fontWeight":400,"text":"TY"}},"geometry":{"type":"MultiPoint","coordinates":[[3.99999,48.450146]]}},
{"type":"Feature","properties":{"uuid":"Seine_Navaid_Name","textStyle":{"color":[245,245,245],"fontFamily":"Arial","fontSize":10,"fontWeight":400,"text":"TRO"}},"geometry":{"type":"MultiPoint","coordinates":[[3.960933,48.296838]]}},
{"type":"Feature","properties":{"uuid":"Seine_Navaid_Name","textStyle":{"color":[245,245,245],"fontFamily":"Arial","fontSize":10,"fontWeight":400,"text":"BRY"}},"geometry":{"type":"MultiPoint","coordinates":[[3.293413,48.452501]]}},
{"type":"Feature","properties":{"uuid":"Seine_Navaid_Name","textStyle":{"color":[245,245,245],"fontFamily":"Arial","fontSize":10,"fontWeight":400,"text":"VAT"}},"geometry":{"type":"MultiPoint","coordinates":[[4.014193,48.846589]]}},
{"type":"Feature","properties":{"uuid":"Seine_Navaid_Name","textStyle":{"color":[245,245,245],"fontFamily":"Arial","fontSize":10,"fontWeight":400,"text":"CAV"}},"geometry":{"type":"MultiPoint","coordinates":[[4.145566,48.827892]]}},
{"type":"Feature","properties":{"uuid":"Seine_Navaid_Name","textStyle":{"color":[245,245,245],"fontFamily":"Arial","fontSize":10,"fontWeight":400,"text":"CVT"}},"geometry":{"type":"MultiPoint","coordinates":[[4.323098,48.811527]]}},
{"type":"Feature","properties":{"uuid":"Seine_Navaid_Name","textStyle":{"color":[245,245,245],"fontFamily":"Arial","fontSize":10,"fontWeight":400,"text":"SDI"}},"geometry":{"type":"MultiPoint","coordinates":[[4.88765,48.68276]]}},
{"type":"Feature","properties":{"uuid":"Seine_Navaid_Name","textStyle":{"color":[245,245,245],"fontFamily":"Arial","fontSize":10,"fontWeight":400,"text":"RLP"}},"geometry":{"type":"MultiPoint","coordinates":[[5.246264,47.957934]]}},
{"type":"Feature","properties":{"uuid":"Seine_Navaid_Name","textStyle":{"color":[245,245,245],"fontFamily":"Arial","fontSize":10,"fontWeight":400,"text":"DJL"}},"geometry":{"type":"MultiPoint","coordinates":[[5.100688,47.323978]]}},
{"type":"Feature","properties":{"uuid":"Seine_Navaid_Name","textStyle":{"color":[245,245,245],"fontFamily":"Arial","fontSize":10,"fontWeight":400,"text":"CTL"}},"geometry":{"type":"MultiPoint","coordinates":[[3.577464,49.191211]]}},
{"type":"Feature","properties":{"uuid":"Seine_Navaid_Name","textStyle":{"color":[245,245,245],"fontFamily":"Arial","fontSize":10,"fontWeight":400,"text":"REM"}},"geometry":{"type":"MultiPoint","coordinates":[[4.046148,49.358003]]}},
{"type":"Feature","properties":{"uuid":"Seine_Navaid_Name","textStyle":{"color":[245,245,245],"fontFamily":"Arial","fontSize":10,"fontWeight":400,"text":"MMD"}},"geometry":{"type":"MultiPoint","coordinates":[[5.129093,49.438879]]}},
{"type":"Feature","properties":{"uuid":"Seine_Navaid_Name","textStyle":{"color":[245,245,245],"fontFamily":"Arial","fontSize":10,"fontWeight":400,"text":"NAY"}},"geometry":{"type":"MultiPoint","coordinates":[[5.952841,48.635853]]}},
{"type":"Feature","properties":{"uuid":"Seine_Navaid_Name","textStyle":{"color":[245,245,245],"fontFamily":"Arial","fontSize":10,"fontWeight":400,"text":"EPL"}},"geometry":{"type":"MultiPoint","coordinates":[[6.062911,48.367653]]}},
{"type":"Feature","properties":{"uuid":"Seine_Navaid_Name","textStyle":{"color":[245,245,245],"fontFamily":"Arial","fontSize":10,"fontWeight":400,"text":"BSN"}},"geometry":{"type":"MultiPoint","coordinates":[[3.059071,49.232962]]}},
{"type":"Feature","properties":{"uuid":"Seine_Navaid_Name","textStyle":{"color":[245,245,245],"fontFamily":"Arial","fontSize":10,"fontWeight":400,"text":"PON"}},"geometry":{"type":"MultiPoint","coordinates":[[2.036487,49.149425]]}},
{"type":"Feature","properties":{"uuid":"Seine_Navaid_Name","textStyle":{"color":[245,245,245],"fontFamily":"Arial","fontSize":10,"fontWeight":400,"text":"EPR"}},"geometry":{"type":"MultiPoint","coordinates":[[1.656569,48.678071]]}},
{"type":"Feature","properties":{"uuid":"Seine_Navaid_Name","textStyle":{"color":[245,245,245],"fontFamily":"Arial","fontSize":10,"fontWeight":400,"text":"HOL"}},"geometry":{"type":"MultiPoint","coordinates":[[1.816348,48.776442]]}},
{"type":"Feature","properties":{"uuid":"Seine_Navaid_Name","textStyle":{"color":[245,245,245],"fontFamily":"Arial","fontSize":10,"fontWeight":400,"text":"TA"}},"geometry":{"type":"MultiPoint","coordinates":[[2.032937,48.811527]]}},
{"type":"Feature","properties":{"uuid":"Seine_Navaid_Name","textStyle":{"color":[245,245,245],"fontFamily":"Arial","fontSize":10,"fontWeight":400,"text":"TSU"}},"geometry":{"type":"MultiPoint","coordinates":[[2.1075,48.70151]]}},
{"type":"Feature","properties":{"uuid":"Seine_Navaid_Name","textStyle":{"color":[245,245,245],"fontFamily":"Arial","fontSize":10,"fontWeight":400,"text":"RBT"}},"geometry":{"type":"MultiPoint","coordinates":[[1.99743,48.602993]]}},
{"type":"Feature","properties":{"uuid":"Seine_Navaid_Name","textStyle":{"color":[245,245,245],"fontFamily":"Arial","fontSize":10,"fontWeight":400,"text":"LOL"}},"geometry":{"type":"MultiPoint","coordinates":[[2.388,48.778781]]}},
{"type":"Feature","properties":{"uuid":"Seine_Navaid_Name","textStyle":{"color":[245,245,245],"fontFamily":"Arial","fontSize":10,"fontWeight":400,"text":"MLN"}},"geometry":{"type":"MultiPoint","coordinates":[[2.810526,48.504283]]}},
{"type":"Feature","properties":{"uuid":"Seine_Navaid_Name","textStyle":{"color":[245,245,245],"fontFamily":"Arial","fontSize":10,"fontWeight":400,"text":"CLM"}},"geometry":{"type":"MultiPoint","coordinates":[[3.009362,48.893299]]}}
]}