{"type":"FeatureCollection","features":[
{"type":"Feature","properties":{"uuid":"Seine_IFR_Fix_Names","textStyle":{"color":[245,245,245],"fontFamily":"Arial","fontSize":10,"fontWeight":400,"text":"ABDOS"}},"geometry":{"type":"MultiPoint","coordinates":[[2.529444,47.697335]]}},
{"type":"Feature","properties":{"uuid":"Seine_IFR_Fix_Names","textStyle":{"color":[245,245,245],"fontFamily":"Arial","fontSize":10,"fontWeight":400,"text":"ABORO"}},"geometry":{"type":"MultiPoint","coordinates":[[2.414731,48.555623]]}},
{"type":"Feature","properties":{"uuid":"Seine_IFR_Fix_Names","textStyle":{"color":[245,245,245],"fontFamily":"Arial","fontSize":10,"fontWeight":400,"text":"ABSEG"}},"geometry":{"type":"MultiPoint","coordinates":[[3.876606,48.292239]]}},
{"type":"Feature","properties":{"uuid":"Seine_IFR_Fix_Names","textStyle":{"color":[245,245,245],"fontFamily":"Arial","fontSize":10,"fontWeight":400,"text":"ADADA"}},"geometry":{"type":"MultiPoint","coordinates":[[2.003015,48.326488]]}},
{"type":"Feature","properties":{"uuid":"Seine_IFR_Fix_Names","textStyle":{"color":[245,245,245],"fontFamily":"Arial","fontSize":10,"fontWeight":400,"text":"AHVEC"}},"geometry":{"type":"MultiPoint","coordinates":[[2.745652,48.853477]]}},
{"type":"Feature","properties":{"uuid":"Seine_IFR_Fix_Names","textStyle":{"color":[245,245,245],"fontFamily":"Arial","fontSize":10,"fontWeight":400,"text":"AKONO"}},"geometry":{"type":"MultiPoint","coordinates":[[4.59044,47.747134]]}},
{"type":"Feature","properties":{"uuid":"Seine_IFR_Fix_Names","textStyle":{"color":[245,245,245],"fontFamily":"Arial","fontSize":10,"fontWeight":400,"text":"ALIMO"}},"geometry":{"type":"MultiPoint","coordinates":[[3.932784,48.74731]]}},
{"type":"Feature","properties":{"uuid":"Seine_IFR_Fix_Names","textStyle":{"color":[245,245,245],"fontFamily":"Arial","fontSize":10,"fontWeight":400,"text":"AMCAK"}},"geometry":{"type":"MultiPoint","coordinates":[[5.081254,48.774801]]}},
{"type":"Feature","properties":{"uuid":"Seine_IFR_Fix_Names","textStyle":{"color":[245,245,245],"fontFamily":"Arial","fontSize":10,"fontWeight":400,"text":"ARKIP"}},"geometry":{"type":"MultiPoint","coordinates":[[2.03582,47.664834]]}},
{"type":"Feature","properties":{"uuid":"Seine_IFR_Fix_Names","textStyle":{"color":[245,245,245],"fontFamily":"Arial","fontSize":10,"fontWeight":400,"text":"ARSIL"}},"geometry":{"type":"MultiPoint","coordinates":[[4.062305,48.591481]]}},
{"type":"Feature","properties":{"uuid":"Seine_IFR_Fix_Names","textStyle":{"color":[245,245,245],"fontFamily":"Arial","fontSize":10,"fontWeight":400,"text":"ASGUN"}},"geometry":{"type":"MultiPoint","coordinates":[[3.428038,49.216187]]}},
{"type":"Feature","properties":{"uuid":"Seine_IFR_Fix_Names","textStyle":{"color":[245,245,245],"fontFamily":"Arial","fontSize":10,"fontWeight":400,"text":"ASRUL"}},"geometry":{"type":"MultiPoint","coordinates":[[3.845537,48.749867]]}},
{"type":"Feature","properties":{"uuid":"Seine_IFR_Fix_Names","textStyle":{"color":[245,245,245],"fontFamily":"Arial","fontSize":10,"fontWeight":400,"text":"AVLON"}},"geometry":{"type":"MultiPoint","coordinates":[[3.813812,47.591503]]}},
{"type":"Feature","properties":{"uuid":"Seine_IFR_Fix_Names","textStyle":{"color":[245,245,245],"fontFamily":"Arial","fontSize":10,"fontWeight":400,"text":"BABOG"}},"geometry":{"type":"MultiPoint","coordinates":[[1.368456,47.545665]]}},
{"type":"Feature","properties":{"uuid":"Seine_IFR_Fix_Names","textStyle":{"color":[245,245,245],"fontFamily":"Arial","fontSize":10,"fontWeight":400,"text":"BALIV"}},"geometry":{"type":"MultiPoint","coordinates":[[1.510703,47.701636]]}},
{"type":"Feature","properties":{"uuid":"Seine_IFR_Fix_Names","textStyle":{"color":[245,245,245],"fontFamily":"Arial","fontSize":10,"fontWeight":400,"text":"BALMU"}},"geometry":{"type":"MultiPoint","coordinates":[[4.640666,47.878215]]}},
{"type":"Feature","properties":{"uuid":"Seine_IFR_Fix_Names","textStyle":{"color":[245,245,245],"fontFamily":"Arial","fontSize":10,"fontWeight":400,"text":"BANOX"}},"geometry":{"type":"MultiPoint","coordinates":[[1.504602,48.605672]]}},
{"type":"Feature","properties":{"uuid":"Seine_IFR_Fix_Names","textStyle":{"color":[245,245,245],"fontFamily":"Arial","fontSize":10,"fontWeight":400,"text":"BARAX"}},"geometry":{"type":"MultiPoint","coordinates":[[1.537777,47.572832]]}},
{"type":"Feature","properties":{"uuid":"Seine_IFR_Fix_Names","textStyle":{"color":[245,245,245],"fontFamily":"Arial","fontSize":10,"fontWeight":400,"text":"BAVOL"}},"geometry":{"type":"MultiPoint","coordinates":[[3.662069,49.137023]]}},
{"type":"Feature","properties":{"uuid":"Seine_IFR_Fix_Names","textStyle":{"color":[245,245,245],"fontFamily":"Arial","fontSize":10,"fontWeight":400,"text":"BAXIR"}},"geometry":{"type":"MultiPoint","coordinates":[[3.870442,48.822032]]}},
{"type":"Feature","properties":{"uuid":"Seine_IFR_Fix_Names","textStyle":{"color":[245,245,245],"fontFamily":"Arial","fontSize":10,"fontWeight":400,"text":"BEDVA"}},"geometry":{"type":"MultiPoint","coordinates":[[3.900925,48.146048]]}},
{"type":"Feature","properties":{"uuid":"Seine_IFR_Fix_Names","textStyle":{"color":[245,245,245],"fontFamily":"Arial","fontSize":10,"fontWeight":400,"text":"BEKOS"}},"geometry":{"type":"MultiPoint","coordinates":[[3.548387,48.843143]]}},
{"type":"Feature","properties":{"uuid":"Seine_IFR_Fix_Names","textStyle":{"color":[245,245,245],"fontFamily":"Arial","fontSize":10,"fontWeight":400,"text":"BENAR"}},"geometry":{"type":"MultiPoint","coordinates":[[0.743096,48.284534]]}},
{"type":"Feature","properties":{"uuid":"Seine_IFR_Fix_Names","textStyle":{"color":[245,245,245],"fontFamily":"Arial","fontSize":10,"fontWeight":400,"text":"BEVOL"}},"geometry":{"type":"MultiPoint","coordinates":[[0.929625,47.043445]]}},
{"type":"Feature","properties":{"uuid":"Seine_IFR_Fix_Names","textStyle":{"color":[245,245,245],"fontFamily":"Arial","fontSize":10,"fontWeight":400,"text":"BOBSA"}},"geometry":{"type":"MultiPoint","coordinates":[[0.646921,48.527304]]}},
{"type":"Feature","properties":{"uuid":"Seine_IFR_Fix_Names","textStyle":{"color":[245,245,245],"fontFamily":"Arial","fontSize":10,"fontWeight":400,"text":"BOKNO"}},"geometry":{"type":"MultiPoint","coordinates":[[0.690319,47.078442]]}},
{"type":"Feature","properties":{"uuid":"Seine_IFR_Fix_Names","textStyle":{"color":[245,245,245],"fontFamily":"Arial","fontSize":10,"fontWeight":400,"text":"BOLLY"}},"geometry":{"type":"MultiPoint","coordinates":[[4.151797,48.123435]]}},
{"type":"Feature","properties":{"uuid":"Seine_IFR_Fix_Names","textStyle":{"color":[245,245,245],"fontFamily":"Arial","fontSize":10,"fontWeight":400,"text":"BUBLI"}},"geometry":{"type":"MultiPoint","coordinates":[[4.150694,48.803086]]}},
{"type":"Feature","properties":{"uuid":"Seine_IFR_Fix_Names","textStyle":{"color":[245,245,245],"fontFamily":"Arial","fontSize":10,"fontWeight":400,"text":"CHABY"}},"geometry":{"type":"MultiPoint","coordinates":[[3.949173,47.828165]]}},
{"type":"Feature","properties":{"uuid":"Seine_IFR_Fix_Names","textStyle":{"color":[245,245,245],"fontFamily":"Arial","fontSize":10,"fontWeight":400,"text":"DEFAY"}},"geometry":{"type":"MultiPoint","coordinates":[[5.120076,48.449976]]}},
{"type":"Feature","properties":{"uuid":"Seine_IFR_Fix_Names","textStyle":{"color":[245,245,245],"fontFamily":"Arial","fontSize":10,"fontWeight":400,"text":"DEKOD"}},"geometry":{"type":"MultiPoint","coordinates":[[2.099462,48.314821]]}},
{"type":"Feature","properties":{"uuid":"Seine_IFR_Fix_Names","textStyle":{"color":[245,245,245],"fontFamily":"Arial","fontSize":10,"fontWeight":400,"text":"DEROL"}},"geometry":{"type":"MultiPoint","coordinates":[[2.11505,48.70909]]}},
{"type":"Feature","properties":{"uuid":"Seine_IFR_Fix_Names","textStyle":{"color":[245,245,245],"fontFamily":"Arial","fontSize":10,"fontWeight":400,"text":"DEVRO"}},"geometry":{"type":"MultiPoint","coordinates":[[0.737279,47.527048]]}},
{"type":"Feature","properties":{"uuid":"Seine_IFR_Fix_Names","textStyle":{"color":[245,245,245],"fontFamily":"Arial","fontSize":10,"fontWeight":400,"text":"DIBES"}},"geometry":{"type":"MultiPoint","coordinates":[[1.103605,47.538996]]}},
{"type":"Feature","properties":{"uuid":"Seine_IFR_Fix_Names","textStyle":{"color":[245,245,245],"fontFamily":"Arial","fontSize":10,"fontWeight":400,"text":"DIDGO"}},"geometry":{"type":"MultiPoint","coordinates":[[4.049375,48.156991]]}},
{"type":"Feature","properties":{"uuid":"Seine_IFR_Fix_Names","textStyle":{"color":[245,245,245],"fontFamily":"Arial","fontSize":10,"fontWeight":400,"text":"DIDOS"}},"geometry":{"type":"MultiPoint","coordinates":[[2.445416,48.684813]]}},
{"type":"Feature","properties":{"uuid":"Seine_IFR_Fix_Names","textStyle":{"color":[245,245,245],"fontFamily":"Arial","fontSize":10,"fontWeight":400,"text":"DIKOL"}},"geometry":{"type":"MultiPoint","coordinates":[[4.049805,49.168965]]}},
{"type":"Feature","properties":{"uuid":"Seine_IFR_Fix_Names","textStyle":{"color":[245,245,245],"fontFamily":"Arial","fontSize":10,"fontWeight":400,"text":"DIPCE"}},"geometry":{"type":"MultiPoint","coordinates":[[5.157115,49.132151]]}},
{"type":"Feature","properties":{"uuid":"Seine_IFR_Fix_Names","textStyle":{"color":[245,245,245],"fontFamily":"Arial","fontSize":10,"fontWeight":400,"text":"DIVDA"}},"geometry":{"type":"MultiPoint","coordinates":[[3.809091,47.990663]]}},
{"type":"Feature","properties":{"uuid":"Seine_IFR_Fix_Names","textStyle":{"color":[245,245,245],"fontFamily":"Arial","fontSize":10,"fontWeight":400,"text":"DOLIN"}},"geometry":{"type":"MultiPoint","coordinates":[[5.219966,48.354227]]}},
{"type":"Feature","properties":{"uuid":"Seine_IFR_Fix_Names","textStyle":{"color":[245,245,245],"fontFamily":"Arial","fontSize":10,"fontWeight":400,"text":"DOMOD"}},"geometry":{"type":"MultiPoint","coordinates":[[1.284816,47.89427]]}},
{"type":"Feature","properties":{"uuid":"Seine_IFR_Fix_Names","textStyle":{"color":[245,245,245],"fontFamily":"Arial","fontSize":10,"fontWeight":400,"text":"DOPAP"}},"geometry":{"type":"MultiPoint","coordinates":[[2.242516,48.733646]]}},
{"type":"Feature","properties":{"uuid":"Seine_IFR_Fix_Names","textStyle":{"color":[245,245,245],"fontFamily":"Arial","fontSize":10,"fontWeight":400,"text":"EBOMA"}},"geometry":{"type":"MultiPoint","coordinates":[[3.206234,48.233631]]}},
{"type":"Feature","properties":{"uuid":"Seine_IFR_Fix_Names","textStyle":{"color":[245,245,245],"fontFamily":"Arial","fontSize":10,"fontWeight":400,"text":"EDOXA"}},"geometry":{"type":"MultiPoint","coordinates":[[2.208971,48.322322]]}},
{"type":"Feature","properties":{"uuid":"Seine_IFR_Fix_Names","textStyle":{"color":[245,245,245],"fontFamily":"Arial","fontSize":10,"fontWeight":400,"text":"ELKUK"}},"geometry":{"type":"MultiPoint","coordinates":[[0.896551,47.041222]]}},
{"type":"Feature","properties":{"uuid":"Seine_IFR_Fix_Names","textStyle":{"color":[245,245,245],"fontFamily":"Arial","fontSize":10,"fontWeight":400,"text":"EPAGO"}},"geometry":{"type":"MultiPoint","coordinates":[[4.961739,48.830912]]}},
{"type":"Feature","properties":{"uuid":"Seine_IFR_Fix_Names","textStyle":{"color":[245,245,245],"fontFamily":"Arial","fontSize":10,"fontWeight":400,"text":"ERTIP"}},"geometry":{"type":"MultiPoint","coordinates":[[4.407506,48.165933]]}},
{"type":"Feature","properties":{"uuid":"Seine_IFR_Fix_Names","textStyle":{"color":[245,245,245],"fontFamily":"Arial","fontSize":10,"fontWeight":400,"text":"ERTOK"}},"geometry":{"type":"MultiPoint","coordinates":[[2.290693,47.616503]]}},
{"type":"Feature","properties":{"uuid":"Seine_IFR_Fix_Names","textStyle":{"color":[245,245,245],"fontFamily":"Arial","fontSize":10,"fontWeight":400,"text":"ETINO"}},"geometry":{"type":"MultiPoint","coordinates":[[5.057354,48.918964]]}},
{"type":"Feature","properties":{"uuid":"Seine_IFR_Fix_Names","textStyle":{"color":[245,245,245],"fontFamily":"Arial","fontSize":10,"fontWeight":400,"text":"ETPIL"}},"geometry":{"type":"MultiPoint","coordinates":[[0.275909,47.095936]]}},
{"type":"Feature","properties":{"uuid":"Seine_IFR_Fix_Names","textStyle":{"color":[245,245,245],"fontFamily":"Arial","fontSize":10,"fontWeight":400,"text":"EVLIK"}},"geometry":{"type":"MultiPoint","coordinates":[[4.113196,48.53576]]}},
{"type":"Feature","properties":{"uuid":"Seine_IFR_Fix_Names","textStyle":{"color":[245,245,245],"fontFamily":"Arial","fontSize":10,"fontWeight":400,"text":"GILUX"}},"geometry":{"type":"MultiPoint","coordinates":[[1.742312,47.755665]]}},
{"type":"Feature","properties":{"uuid":"Seine_IFR_Fix_Names","textStyle":{"color":[245,245,245],"fontFamily":"Arial","fontSize":10,"fontWeight":400,"text":"GIMER"}},"geometry":{"type":"MultiPoint","coordinates":[[3.974427,49.396957]]}},
{"type":"Feature","properties":{"uuid":"Seine_IFR_Fix_Names","textStyle":{"color":[245,245,245],"fontFamily":"Arial","fontSize":10,"fontWeight":400,"text":"GINON"}},"geometry":{"type":"MultiPoint","coordinates":[[0.178349,47.198157]]}},
{"type":"Feature","properties":{"uuid":"Seine_IFR_Fix_Names","textStyle":{"color":[245,245,245],"fontFamily":"Arial","fontSize":10,"fontWeight":400,"text":"GIPEG"}},"geometry":{"type":"MultiPoint","coordinates":[[4.899478,48.773414]]}},
{"type":"Feature","properties":{"uuid":"Seine_IFR_Fix_Names","textStyle":{"color":[245,245,245],"fontFamily":"Arial","fontSize":10,"fontWeight":400,"text":"GIPEX"}},"geometry":{"type":"MultiPoint","coordinates":[[2.62311,47.789001]]}},
{"type":"Feature","properties":{"uuid":"Seine_IFR_Fix_Names","textStyle":{"color":[245,245,245],"fontFamily":"Arial","fontSize":10,"fontWeight":400,"text":"GONEK"}},"geometry":{"type":"MultiPoint","coordinates":[[0.601905,48.151479]]}},
{"type":"Feature","properties":{"uuid":"Seine_IFR_Fix_Names","textStyle":{"color":[245,245,245],"fontFamily":"Arial","fontSize":10,"fontWeight":400,"text":"GORET"}},"geometry":{"type":"MultiPoint","coordinates":[[4.032002,47.983717]]}},
{"type":"Feature","properties":{"uuid":"Seine_IFR_Fix_Names","textStyle":{"color":[245,245,245],"fontFamily":"Arial","fontSize":10,"fontWeight":400,"text":"ICAFE"}},"geometry":{"type":"MultiPoint","coordinates":[[5.077649,49.098959]]}},
{"type":"Feature","properties":{"uuid":"Seine_IFR_Fix_Names","textStyle":{"color":[245,245,245],"fontFamily":"Arial","fontSize":10,"fontWeight":400,"text":"INPER"}},"geometry":{"type":"MultiPoint","coordinates":[[1.725626,48.425095]]}},
{"type":"Feature","properties":{"uuid":"Seine_IFR_Fix_Names","textStyle":{"color":[245,245,245],"fontFamily":"Arial","fontSize":10,"fontWeight":400,"text":"INRUN"}},"geometry":{"type":"MultiPoint","coordinates":[[3.079048,49.029304]]}},
{"type":"Feature","properties":{"uuid":"Seine_IFR_Fix_Names","textStyle":{"color":[245,245,245],"fontFamily":"Arial","fontSize":10,"fontWeight":400,"text":"INSEB"}},"geometry":{"type":"MultiPoint","coordinates":[[3.526202,48.082689]]}},
{"type":"Feature","properties":{"uuid":"Seine_IFR_Fix_Names","textStyle":{"color":[245,245,245],"fontFamily":"Arial","fontSize":10,"fontWeight":400,"text":"KELON"}},"geometry":{"type":"MultiPoint","coordinates":[[3.874138,48.847308]]}},
{"type":"Feature","properties":{"uuid":"Seine_IFR_Fix_Names","textStyle":{"color":[245,245,245],"fontFamily":"Arial","fontSize":10,"fontWeight":400,"text":"KICQA"}},"geometry":{"type":"MultiPoint","coordinates":[[5.095705,48.687109]]}},
{"type":"Feature","properties":{"uuid":"Seine_IFR_Fix_Names","textStyle":{"color":[245,245,245],"fontFamily":"Arial","fontSize":10,"fontWeight":400,"text":"KOTAP"}},"geometry":{"type":"MultiPoint","coordinates":[[2.299581,48.314822]]}},
{"type":"Feature","properties":{"uuid":"Seine_IFR_Fix_Names","textStyle":{"color":[245,245,245],"fontFamily":"Arial","fontSize":10,"fontWeight":400,"text":"KOTUN"}},"geometry":{"type":"MultiPoint","coordinates":[[3.871692,48.755894]]}},
{"type":"Feature","properties":{"uuid":"Seine_IFR_Fix_Names","textStyle":{"color":[245,245,245],"fontFamily":"Arial","fontSize":10,"fontWeight":400,"text":"KOVAK"}},"geometry":{"type":"MultiPoint","coordinates":[[0.845387,48.024541]]}},
{"type":"Feature","properties":{"uuid":"Seine_IFR_Fix_Names","textStyle":{"color":[245,245,245],"fontFamily":"Arial","fontSize":10,"fontWeight":400,"text":"KUPOL"}},"geometry":{"type":"MultiPoint","coordinates":[[4.55703,47.652053]]}},
{"type":"Feature","properties":{"uuid":"Seine_IFR_Fix_Names","textStyle":{"color":[245,245,245],"fontFamily":"Arial","fontSize":10,"fontWeight":400,"text":"KUSEK"}},"geometry":{"type":"MultiPoint","coordinates":[[2.570857,47.737612]]}},
{"type":"Feature","properties":{"uuid":"Seine_IFR_Fix_Names","textStyle":{"color":[245,245,245],"fontFamily":"Arial","fontSize":10,"fontWeight":400,"text":"KUTAN"}},"geometry":{"type":"MultiPoint","coordinates":[[4.257133,47.838996]]}},
{"type":"Feature","properties":{"uuid":"Seine_IFR_Fix_Names","textStyle":{"color":[245,245,245],"fontFamily":"Arial","fontSize":10,"fontWeight":400,"text":"KUVIV"}},"geometry":{"type":"MultiPoint","coordinates":[[2.701488,48.422877]]}},
{"type":"Feature","properties":{"uuid":"Seine_IFR_Fix_Names","textStyle":{"color":[245,245,245],"fontFamily":"Arial","fontSize":10,"fontWeight":400,"text":"LABIG"}},"geometry":{"type":"MultiPoint","coordinates":[[2.758994,48.781034]]}},
{"type":"Feature","properties":{"uuid":"Seine_IFR_Fix_Names","textStyle":{"color":[245,245,245],"fontFamily":"Arial","fontSize":10,"fontWeight":400,"text":"LALUX"}},"geometry":{"type":"MultiPoint","coordinates":[[2.408535,48.317878]]}},
{"type":"Feature","properties":{"uuid":"Seine_IFR_Fix_Names","textStyle":{"color":[245,245,245],"fontFamily":"Arial","fontSize":10,"fontWeight":400,"text":"LASIV"}},"geometry":{"type":"MultiPoint","coordinates":[[4.227686,48.932388]]}},
{"type":"Feature","properties":{"uuid":"Seine_IFR_Fix_Names","textStyle":{"color":[245,245,245],"fontFamily":"Arial","fontSize":10,"fontWeight":400,"text":"LAULY"}},"geometry":{"type":"MultiPoint","coordinates":[[3.702641,48.188714]]}},
{"type":"Feature","properties":{"uuid":"Seine_IFR_Fix_Names","textStyle":{"color":[245,245,245],"fontFamily":"Arial","fontSize":10,"fontWeight":400,"text":"LIMTA"}},"geometry":{"type":"MultiPoint","coordinates":[[1.846817,47.849636]]}},
{"type":"Feature","properties":{"uuid":"Seine_IFR_Fix_Names","textStyle":{"color":[245,245,245],"fontFamily":"Arial","fontSize":10,"fontWeight":400,"text":"LOUPY"}},"geometry":{"type":"MultiPoint","coordinates":[[5.08626,48.901353]]}},
{"type":"Feature","properties":{"uuid":"Seine_IFR_Fix_Names","textStyle":{"color":[245,245,245],"fontFamily":"Arial","fontSize":10,"fontWeight":400,"text":"LUMAN"}},"geometry":{"type":"MultiPoint","coordinates":[[0.411797,47.970925]]}},
{"type":"Feature","properties":{"uuid":"Seine_IFR_Fix_Names","textStyle":{"color":[245,245,245],"fontFamily":"Arial","fontSize":10,"fontWeight":400,"text":"LUPAM"}},"geometry":{"type":"MultiPoint","coordinates":[[3.549777,48.969528]]}},
{"type":"Feature","properties":{"uuid":"Seine_IFR_Fix_Names","textStyle":{"color":[245,245,245],"fontFamily":"Arial","fontSize":10,"fontWeight":400,"text":"LUREN"}},"geometry":{"type":"MultiPoint","coordinates":[[3.914433,48.057327]]}},
{"type":"Feature","properties":{"uuid":"Seine_IFR_Fix_Names","textStyle":{"color":[245,245,245],"fontFamily":"Arial","fontSize":10,"fontWeight":400,"text":"LUTIL"}},"geometry":{"type":"MultiPoint","coordinates":[[0.084391,47.627871]]}},
{"type":"Feature","properties":{"uuid":"Seine_IFR_Fix_Names","textStyle":{"color":[245,245,245],"fontFamily":"Arial","fontSize":10,"fontWeight":400,"text":"LUVAL"}},"geometry":{"type":"MultiPoint","coordinates":[[5.154899,48.325367]]}},
{"type":"Feature","properties":{"uuid":"Seine_IFR_Fix_Names","textStyle":{"color":[245,245,245],"fontFamily":"Arial","fontSize":10,"fontWeight":400,"text":"MANAG"}},"geometry":{"type":"MultiPoint","coordinates":[[5.167123,48.134538]]}},
{"type":"Feature","properties":{"uuid":"Seine_IFR_Fix_Names","textStyle":{"color":[245,245,245],"fontFamily":"Arial","fontSize":10,"fontWeight":400,"text":"MAVUK"}},"geometry":{"type":"MultiPoint","coordinates":[[0.117961,47.830868]]}},
{"type":"Feature","properties":{"uuid":"Seine_IFR_Fix_Names","textStyle":{"color":[245,245,245],"fontFamily":"Arial","fontSize":10,"fontWeight":400,"text":"MELKO"}},"geometry":{"type":"MultiPoint","coordinates":[[4.6745,48.309566]]}},
{"type":"Feature","properties":{"uuid":"Seine_IFR_Fix_Names","textStyle":{"color":[245,245,245],"fontFamily":"Arial","fontSize":10,"fontWeight":400,"text":"MOLBA"}},"geometry":{"type":"MultiPoint","coordinates":[[3.062982,48.326518]]}},
{"type":"Feature","properties":{"uuid":"Seine_IFR_Fix_Names","textStyle":{"color":[245,245,245],"fontFamily":"Arial","fontSize":10,"fontWeight":400,"text":"MOSUD"}},"geometry":{"type":"MultiPoint","coordinates":[[2.859248,48.969195]]}},
{"type":"Feature","properties":{"uuid":"Seine_IFR_Fix_Names","textStyle":{"color":[245,245,245],"fontFamily":"Arial","fontSize":10,"fontWeight":400,"text":"MOTAL"}},"geometry":{"type":"MultiPoint","coordinates":[[2.21954,47.60817]]}},
{"type":"Feature","properties":{"uuid":"Seine_IFR_Fix_Names","textStyle":{"color":[245,245,245],"fontFamily":"Arial","fontSize":10,"fontWeight":400,"text":"NANOP"}},"geometry":{"type":"MultiPoint","coordinates":[[4.240185,48.293431]]}},
{"type":"Feature","properties":{"uuid":"Seine_IFR_Fix_Names","textStyle":{"color":[245,245,245],"fontFamily":"Arial","fontSize":10,"fontWeight":400,"text":"NEGUR"}},"geometry":{"type":"MultiPoint","coordinates":[[2.961476,49.0235]]}},
{"type":"Feature","properties":{"uuid":"Seine_IFR_Fix_Names","textStyle":{"color":[245,245,245],"fontFamily":"Arial","fontSize":10,"fontWeight":400,"text":"NEPAR"}},"geometry":{"type":"MultiPoint","coordinates":[[3.551167,49.117579]]}},
{"type":"Feature","properties":{"uuid":"Seine_IFR_Fix_Names","textStyle":{"color":[245,245,245],"fontFamily":"Arial","fontSize":10,"fontWeight":400,"text":"NERIN"}},"geometry":{"type":"MultiPoint","coordinates":[[2.957641,48.671315]]}},
{"type":"Feature","properties":{"uuid":"Seine_IFR_Fix_Names","textStyle":{"color":[245,245,245],"fontFamily":"Arial","fontSize":10,"fontWeight":400,"text":"NERKI"}},"geometry":{"type":"MultiPoint","coordinates":[[1.326134,48.544534]]}},
{"type":"Feature","properties":{"uuid":"Seine_IFR_Fix_Names","textStyle":{"color":[245,245,245],"fontFamily":"Arial","fontSize":10,"fontWeight":400,"text":"NEXOT"}},"geometry":{"type":"MultiPoint","coordinates":[[3.988565,48.526733]]}},
{"type":"Feature","properties":{"uuid":"Seine_IFR_Fix_Names","textStyle":{"color":[245,245,245],"fontFamily":"Arial","fontSize":10,"fontWeight":400,"text":"NIMER"}},"geometry":{"type":"MultiPoint","coordinates":[[0.355388,47.503988]]}},
{"type":"Feature","properties":{"uuid":"Seine_IFR_Fix_Names","textStyle":{"color":[245,245,245],"fontFamily":"Arial","fontSize":10,"fontWeight":400,"text":"NIPOR"}},"geometry":{"type":"MultiPoint","coordinates":[[4.010057,49.147576]]}},
{"type":"Feature","properties":{"uuid":"Seine_IFR_Fix_Names","textStyle":{"color":[245,245,245],"fontFamily":"Arial","fontSize":10,"fontWeight":400,"text":"NITEP"}},"geometry":{"type":"MultiPoint","coordinates":[[4.220745,49.443122]]}},
{"type":"Feature","properties":{"uuid":"Seine_IFR_Fix_Names","textStyle":{"color":[245,245,245],"fontFamily":"Arial","fontSize":10,"fontWeight":400,"text":"NUBVO"}},"geometry":{"type":"MultiPoint","coordinates":[[3.208182,49.108413]]}},
{"type":"Feature","properties":{"uuid":"Seine_IFR_Fix_Names","textStyle":{"color":[245,245,245],"fontFamily":"Arial","fontSize":10,"fontWeight":400,"text":"OBURO"}},"geometry":{"type":"MultiPoint","coordinates":[[4.265469,47.683166]]}},
{"type":"Feature","properties":{"uuid":"Seine_IFR_Fix_Names","textStyle":{"color":[245,245,245],"fontFamily":"Arial","fontSize":10,"fontWeight":400,"text":"ODEBU"}},"geometry":{"type":"MultiPoint","coordinates":[[2.625887,48.312601]]}},
{"type":"Feature","properties":{"uuid":"Seine_IFR_Fix_Names","textStyle":{"color":[245,245,245],"fontFamily":"Arial","fontSize":10,"fontWeight":400,"text":"ODILO"}},"geometry":{"type":"MultiPoint","coordinates":[[1.570786,48.273236]]}},
{"type":"Feature","properties":{"uuid":"Seine_IFR_Fix_Names","textStyle":{"color":[245,245,245],"fontFamily":"Arial","fontSize":10,"fontWeight":400,"text":"OGMAP"}},"geometry":{"type":"MultiPoint","coordinates":[[3.839059,48.515706]]}},
{"type":"Feature","properties":{"uuid":"Seine_IFR_Fix_Names","textStyle":{"color":[245,245,245],"fontFamily":"Arial","fontSize":10,"fontWeight":400,"text":"OKEKO"}},"geometry":{"type":"MultiPoint","coordinates":[[3.120627,47.571782]]}},
{"type":"Feature","properties":{"uuid":"Seine_IFR_Fix_Names","textStyle":{"color":[245,245,245],"fontFamily":"Arial","fontSize":10,"fontWeight":400,"text":"OKRIX"}},"geometry":{"type":"MultiPoint","coordinates":[[3.567837,47.997607]]}},
{"type":"Feature","properties":{"uuid":"Seine_IFR_Fix_Names","textStyle":{"color":[245,245,245],"fontFamily":"Arial","fontSize":10,"fontWeight":400,"text":"OKVIG"}},"geometry":{"type":"MultiPoint","coordinates":[[3.903296,48.946028]]}},
{"type":"Feature","properties":{"uuid":"Seine_IFR_Fix_Names","textStyle":{"color":[245,245,245],"fontFamily":"Arial","fontSize":10,"fontWeight":400,"text":"OMARI"}},"geometry":{"type":"MultiPoint","coordinates":[[0.823449,47.198165]]}},
{"type":"Feature","properties":{"uuid":"Seine_IFR_Fix_Names","textStyle":{"color":[245,245,245],"fontFamily":"Arial","fontSize":10,"fontWeight":400,"text":"OQQAL"}},"geometry":{"type":"MultiPoint","coordinates":[[2.701375,48.892225]]}},
{"type":"Feature","properties":{"uuid":"Seine_IFR_Fix_Names","textStyle":{"color":[245,245,245],"fontFamily":"Arial","fontSize":10,"fontWeight":400,"text":"OSBIB"}},"geometry":{"type":"MultiPoint","coordinates":[[3.466664,47.665002]]}},
{"type":"Feature","properties":{"uuid":"Seine_IFR_Fix_Names","textStyle":{"color":[245,245,245],"fontFamily":"Arial","fontSize":10,"fontWeight":400,"text":"OSKIN"}},"geometry":{"type":"MultiPoint","coordinates":[[3.434979,47.75039]]}},
{"type":"Feature","properties":{"uuid":"Seine_IFR_Fix_Names","textStyle":{"color":[245,245,245],"fontFamily":"Arial","fontSize":10,"fontWeight":400,"text":"OTKIG"}},"geometry":{"type":"MultiPoint","coordinates":[[0.562258,47.562962]]}},
{"type":"Feature","properties":{"uuid":"Seine_IFR_Fix_Names","textStyle":{"color":[245,245,245],"fontFamily":"Arial","fontSize":10,"fontWeight":400,"text":"OTKUR"}},"geometry":{"type":"MultiPoint","coordinates":[[0.510954,47.434324]]}},
{"type":"Feature","properties":{"uuid":"Seine_IFR_Fix_Names","textStyle":{"color":[245,245,245],"fontFamily":"Arial","fontSize":10,"fontWeight":400,"text":"OVBEN"}},"geometry":{"type":"MultiPoint","coordinates":[[3.427198,48.088856]]}},
{"type":"Feature","properties":{"uuid":"Seine_IFR_Fix_Names","textStyle":{"color":[245,245,245],"fontFamily":"Arial","fontSize":10,"fontWeight":400,"text":"OXCEL"}},"geometry":{"type":"MultiPoint","coordinates":[[2.38941,48.761617]]}},
{"type":"Feature","properties":{"uuid":"Seine_IFR_Fix_Names","textStyle":{"color":[245,245,245],"fontFamily":"Arial","fontSize":10,"fontWeight":400,"text":"PEKIM"}},"geometry":{"type":"MultiPoint","coordinates":[[2.825452,48.307323]]}},
{"type":"Feature","properties":{"uuid":"Seine_IFR_Fix_Names","textStyle":{"color":[245,245,245],"fontFamily":"Arial","fontSize":10,"fontWeight":400,"text":"PEPAX"}},"geometry":{"type":"MultiPoint","coordinates":[[0.451011,47.112883]]}},
{"type":"Feature","properties":{"uuid":"Seine_IFR_Fix_Names","textStyle":{"color":[245,245,245],"fontFamily":"Arial","fontSize":10,"fontWeight":400,"text":"PIGOP"}},"geometry":{"type":"MultiPoint","coordinates":[[1.337888,48.717306]]}},
{"type":"Feature","properties":{"uuid":"Seine_IFR_Fix_Names","textStyle":{"color":[245,245,245],"fontFamily":"Arial","fontSize":10,"fontWeight":400,"text":"PIKAG"}},"geometry":{"type":"MultiPoint","coordinates":[[3.309355,49.158134]]}},
{"type":"Feature","properties":{"uuid":"Seine_IFR_Fix_Names","textStyle":{"color":[245,245,245],"fontFamily":"Arial","fontSize":10,"fontWeight":400,"text":"PILUL"}},"geometry":{"type":"MultiPoint","coordinates":[[3.048084,48.114828]]}},
{"type":"Feature","properties":{"uuid":"Seine_IFR_Fix_Names","textStyle":{"color":[245,245,245],"fontFamily":"Arial","fontSize":10,"fontWeight":400,"text":"PIMUP"}},"geometry":{"type":"MultiPoint","coordinates":[[3.387728,47.571782]]}},
{"type":"Feature","properties":{"uuid":"Seine_IFR_Fix_Names","textStyle":{"color":[245,245,245],"fontFamily":"Arial","fontSize":10,"fontWeight":400,"text":"PIWEB"}},"geometry":{"type":"MultiPoint","coordinates":[[3.622879,49.240908]]}},
{"type":"Feature","properties":{"uuid":"Seine_IFR_Fix_Names","textStyle":{"color":[245,245,245],"fontFamily":"Arial","fontSize":10,"fontWeight":400,"text":"PIWIZ"}},"geometry":{"type":"MultiPoint","coordinates":[[1.097837,48.2464]]}},
{"type":"Feature","properties":{"uuid":"Seine_IFR_Fix_Names","textStyle":{"color":[245,245,245],"fontFamily":"Arial","fontSize":10,"fontWeight":400,"text":"PODUK"}},"geometry":{"type":"MultiPoint","coordinates":[[3.350824,49.277519]]}},
{"type":"Feature","properties":{"uuid":"Seine_IFR_Fix_Names","textStyle":{"color":[245,245,245],"fontFamily":"Arial","fontSize":10,"fontWeight":400,"text":"POLLY"}},"geometry":{"type":"MultiPoint","coordinates":[[2.762081,47.925109]]}},
{"type":"Feature","properties":{"uuid":"Seine_IFR_Fix_Names","textStyle":{"color":[245,245,245],"fontFamily":"Arial","fontSize":10,"fontWeight":400,"text":"RANUX"}},"geometry":{"type":"MultiPoint","coordinates":[[4.362355,49.17024]]}},
{"type":"Feature","properties":{"uuid":"Seine_IFR_Fix_Names","textStyle":{"color":[245,245,245],"fontFamily":"Arial","fontSize":10,"fontWeight":400,"text":"RAVMU"}},"geometry":{"type":"MultiPoint","coordinates":[[3.593417,49.295906]]}},
{"type":"Feature","properties":{"uuid":"Seine_IFR_Fix_Names","textStyle":{"color":[245,245,245],"fontFamily":"Arial","fontSize":10,"fontWeight":400,"text":"ROMGO"}},"geometry":{"type":"MultiPoint","coordinates":[[0.84282,48.37806]]}},
{"type":"Feature","properties":{"uuid":"Seine_IFR_Fix_Names","textStyle":{"color":[245,245,245],"fontFamily":"Arial","fontSize":10,"fontWeight":400,"text":"RONAX"}},"geometry":{"type":"MultiPoint","coordinates":[[0.380376,48.423693]]}},
{"type":"Feature","properties":{"uuid":"Seine_IFR_Fix_Names","textStyle":{"color":[245,245,245],"fontFamily":"Arial","fontSize":10,"fontWeight":400,"text":"ROTSI"}},"geometry":{"type":"MultiPoint","coordinates":[[4.635144,48.308206]]}},
{"type":"Feature","properties":{"uuid":"Seine_IFR_Fix_Names","textStyle":{"color":[245,245,245],"fontFamily":"Arial","fontSize":10,"fontWeight":400,"text":"SAULX"}},"geometry":{"type":"MultiPoint","coordinates":[[5.284871,48.560249]]}},
{"type":"Feature","properties":{"uuid":"Seine_IFR_Fix_Names","textStyle":{"color":[245,245,245],"fontFamily":"Arial","fontSize":10,"fontWeight":400,"text":"SIZZA"}},"geometry":{"type":"MultiPoint","coordinates":[[4.116769,47.575945]]}},
{"type":"Feature","properties":{"uuid":"Seine_IFR_Fix_Names","textStyle":{"color":[245,245,245],"fontFamily":"Arial","fontSize":10,"fontWeight":400,"text":"SOMDA"}},"geometry":{"type":"MultiPoint","coordinates":[[4.245189,48.369263]]}},
{"type":"Feature","properties":{"uuid":"Seine_IFR_Fix_Names","textStyle":{"color":[245,245,245],"fontFamily":"Arial","fontSize":10,"fontWeight":400,"text":"SOMED"}},"geometry":{"type":"MultiPoint","coordinates":[[0.940733,47.467328]]}},
{"type":"Feature","properties":{"uuid":"Seine_IFR_Fix_Names","textStyle":{"color":[245,245,245],"fontFamily":"Arial","fontSize":10,"fontWeight":400,"text":"SOMEX"}},"geometry":{"type":"MultiPoint","coordinates":[[3.334532,48.244631]]}},
{"type":"Feature","properties":{"uuid":"Seine_IFR_Fix_Names","textStyle":{"color":[245,245,245],"fontFamily":"Arial","fontSize":10,"fontWeight":400,"text":"SONUR"}},"geometry":{"type":"MultiPoint","coordinates":[[4.358302,49.468564]]}},
{"type":"Feature","properties":{"uuid":"Seine_IFR_Fix_Names","textStyle":{"color":[245,245,245],"fontFamily":"Arial","fontSize":10,"fontWeight":400,"text":"SOPIL"}},"geometry":{"type":"MultiPoint","coordinates":[[1.053864,47.057335]]}},
{"type":"Feature","properties":{"uuid":"Seine_IFR_Fix_Names","textStyle":{"color":[245,245,245],"fontFamily":"Arial","fontSize":10,"fontWeight":400,"text":"SOSIX"}},"geometry":{"type":"MultiPoint","coordinates":[[4.843888,48.72175]]}},
{"type":"Feature","properties":{"uuid":"Seine_IFR_Fix_Names","textStyle":{"color":[245,245,245],"fontFamily":"Arial","fontSize":10,"fontWeight":400,"text":"SOTIP"}},"geometry":{"type":"MultiPoint","coordinates":[[1.458971,48.162849]]}},
{"type":"Feature","properties":{"uuid":"Seine_IFR_Fix_Names","textStyle":{"color":[245,245,245],"fontFamily":"Arial","fontSize":10,"fontWeight":400,"text":"SUBOX"}},"geometry":{"type":"MultiPoint","coordinates":[[1.634455,48.781196]]}},
{"type":"Feature","properties":{"uuid":"Seine_IFR_Fix_Names","textStyle":{"color":[245,245,245],"fontFamily":"Arial","fontSize":10,"fontWeight":400,"text":"SUIPE"}},"geometry":{"type":"MultiPoint","coordinates":[[4.26577,49.284792]]}},
{"type":"Feature","properties":{"uuid":"Seine_IFR_Fix_Names","textStyle":{"color":[245,245,245],"fontFamily":"Arial","fontSize":10,"fontWeight":400,"text":"SUKHA"}},"geometry":{"type":"MultiPoint","coordinates":[[5.109045,48.606194]]}},
{"type":"Feature","properties":{"uuid":"Seine_IFR_Fix_Names","textStyle":{"color":[245,245,245],"fontFamily":"Arial","fontSize":10,"fontWeight":400,"text":"TABOV"}},"geometry":{"type":"MultiPoint","coordinates":[[1.648076,48.675644]]}},
{"type":"Feature","properties":{"uuid":"Seine_IFR_Fix_Names","textStyle":{"color":[245,245,245],"fontFamily":"Arial","fontSize":10,"fontWeight":400,"text":"TEPRI"}},"geometry":{"type":"MultiPoint","coordinates":[[2.74985,48.583706]]}},
{"type":"Feature","properties":{"uuid":"Seine_IFR_Fix_Names","textStyle":{"color":[245,245,245],"fontFamily":"Arial","fontSize":10,"fontWeight":400,"text":"TUBDI"}},"geometry":{"type":"MultiPoint","coordinates":[[3.381197,47.761195]]}},
{"type":"Feature","properties":{"uuid":"Seine_IFR_Fix_Names","textStyle":{"color":[245,245,245],"fontFamily":"Arial","fontSize":10,"fontWeight":400,"text":"TUNAX"}},"geometry":{"type":"MultiPoint","coordinates":[[0.200006,47.943978]]}},
{"type":"Feature","properties":{"uuid":"Seine_IFR_Fix_Names","textStyle":{"color":[245,245,245],"fontFamily":"Arial","fontSize":10,"fontWeight":400,"text":"TUNOR"}},"geometry":{"type":"MultiPoint","coordinates":[[4.141788,47.914828]]}},
{"type":"Feature","properties":{"uuid":"Seine_IFR_Fix_Names","textStyle":{"color":[245,245,245],"fontFamily":"Arial","fontSize":10,"fontWeight":400,"text":"TUPID"}},"geometry":{"type":"MultiPoint","coordinates":[[2.063224,47.742917]]}},
{"type":"Feature","properties":{"uuid":"Seine_IFR_Fix_Names","textStyle":{"color":[245,245,245],"fontFamily":"Arial","fontSize":10,"fontWeight":400,"text":"UFFIX"}},"geometry":{"type":"MultiPoint","coordinates":[[2.755688,47.90261]]}},
{"type":"Feature","properties":{"uuid":"Seine_IFR_Fix_Names","textStyle":{"color":[245,245,245],"fontFamily":"Arial","fontSize":10,"fontWeight":400,"text":"UTELA"}},"geometry":{"type":"MultiPoint","coordinates":[[2.96042,48.937363]]}},
{"type":"Feature","properties":{"uuid":"Seine_IFR_Fix_Names","textStyle":{"color":[245,245,245],"fontFamily":"Arial","fontSize":10,"fontWeight":400,"text":"VADOM"}},"geometry":{"type":"MultiPoint","coordinates":[[1.269794,48.582032]]}},
{"type":"Feature","properties":{"uuid":"Seine_IFR_Fix_Names","textStyle":{"color":[245,245,245],"fontFamily":"Arial","fontSize":10,"fontWeight":400,"text":"VALNU"}},"geometry":{"type":"MultiPoint","coordinates":[[3.266826,48.113162]]}},
{"type":"Feature","properties":{"uuid":"Seine_IFR_Fix_Names","textStyle":{"color":[245,245,245],"fontFamily":"Arial","fontSize":10,"fontWeight":400,"text":"VALPO"}},"geometry":{"type":"MultiPoint","coordinates":[[3.121684,48.866226]]}},
{"type":"Feature","properties":{"uuid":"Seine_IFR_Fix_Names","textStyle":{"color":[245,245,245],"fontFamily":"Arial","fontSize":10,"fontWeight":400,"text":"VANAD"}},"geometry":{"type":"MultiPoint","coordinates":[[0.905981,47.868711]]}},
{"type":"Feature","properties":{"uuid":"Seine_IFR_Fix_Names","textStyle":{"color":[245,245,245],"fontFamily":"Arial","fontSize":10,"fontWeight":400,"text":"VASOL"}},"geometry":{"type":"MultiPoint","coordinates":[[1.881217,48.57662]]}},
{"type":"Feature","properties":{"uuid":"Seine_IFR_Fix_Names","textStyle":{"color":[245,245,245],"fontFamily":"Arial","fontSize":10,"fontWeight":400,"text":"VATRI"}},"geometry":{"type":"MultiPoint","coordinates":[[4.058972,48.824808]]}},
{"type":"Feature","properties":{"uuid":"Seine_IFR_Fix_Names","textStyle":{"color":[245,245,245],"fontFamily":"Arial","fontSize":10,"fontWeight":400,"text":"VAXED"}},"geometry":{"type":"MultiPoint","coordinates":[[4.118565,48.911861]]}},
{"type":"Feature","properties":{"uuid":"Seine_IFR_Fix_Names","textStyle":{"color":[245,245,245],"fontFamily":"Arial","fontSize":10,"fontWeight":400,"text":"VEBEK"}},"geometry":{"type":"MultiPoint","coordinates":[[3.683472,49.300073]]}},
{"type":"Feature","properties":{"uuid":"Seine_IFR_Fix_Names","textStyle":{"color":[245,245,245],"fontFamily":"Arial","fontSize":10,"fontWeight":400,"text":"VEKUH"}},"geometry":{"type":"MultiPoint","coordinates":[[2.742205,48.821033]]}},
{"type":"Feature","properties":{"uuid":"Seine_IFR_Fix_Names","textStyle":{"color":[245,245,245],"fontFamily":"Arial","fontSize":10,"fontWeight":400,"text":"VEZAQ"}},"geometry":{"type":"MultiPoint","coordinates":[[2.90258,48.715647]]}},
{"type":"Feature","properties":{"uuid":"Seine_IFR_Fix_Names","textStyle":{"color":[245,245,245],"fontFamily":"Arial","fontSize":10,"fontWeight":400,"text":"VIQAQ"}},"geometry":{"type":"MultiPoint","coordinates":[[1.596942,48.163572]]}},
{"type":"Feature","properties":{"uuid":"Seine_IFR_Fix_Names","textStyle":{"color":[245,245,245],"fontFamily":"Arial","fontSize":10,"fontWeight":400,"text":"VUCTU"}},"geometry":{"type":"MultiPoint","coordinates":[[4.823421,48.25965]]}}
]}