{"type":"FeatureCollection","features":[
{"type":"Feature","properties":{"uuid":"Seine_VFR_ARPs","textStyle":{"color":[245,245,245],"fontFamily":"Arial","fontSize":10,"fontWeight":400,"text":"LFOT"}},"geometry":{"type":"MultiPoint","coordinates":[[0.735289,47.484763]]}},
{"type":"Feature","properties":{"uuid":"Seine_VFR_ARPs","textStyle":{"color":[245,245,245],"fontFamily":"Arial","fontSize":10,"fontWeight":400,"text":"LFEN"}},"geometry":{"type":"MultiPoint","coordinates":[[0.703334,47.229803]]}},
{"type":"Feature","properties":{"uuid":"Seine_VFR_ARPs","textStyle":{"color":[245,245,245],"fontFamily":"Arial","fontSize":10,"fontWeight":400,"text":"LFJT"}},"geometry":{"type":"MultiPoint","coordinates":[[0.713985,47.106695]]}},
{"type":"Feature","properties":{"uuid":"Seine_VFR_ARPs","textStyle":{"color":[245,245,245],"fontFamily":"Arial","fontSize":10,"fontWeight":400,"text":"LFEF"}},"geometry":{"type":"MultiPoint","coordinates":[[0.941226,47.294863]]}},
{"type":"Feature","properties":{"uuid":"Seine_VFR_ARPs","textStyle":{"color":[245,245,245],"fontFamily":"Arial","fontSize":10,"fontWeight":400,"text":"LFOQ"}},"geometry":{"type":"MultiPoint","coordinates":[[1.207524,47.630927]]}},
{"type":"Feature","properties":{"uuid":"Seine_VFR_ARPs","textStyle":{"color":[245,245,245],"fontFamily":"Arial","fontSize":10,"fontWeight":400,"text":"LFOC"}},"geometry":{"type":"MultiPoint","coordinates":[[1.377955,48.014747]]}},
{"type":"Feature","properties":{"uuid":"Seine_VFR_ARPs","textStyle":{"color":[245,245,245],"fontFamily":"Arial","fontSize":10,"fontWeight":400,"text":"LFOJ"}},"geometry":{"type":"MultiPoint","coordinates":[[1.757873,47.931549]]}},
{"type":"Feature","properties":{"uuid":"Seine_VFR_ARPs","textStyle":{"color":[245,245,245],"fontFamily":"Arial","fontSize":10,"fontWeight":400,"text":"LFOR"}},"geometry":{"type":"MultiPoint","coordinates":[[1.523531,48.412231]]}},
{"type":"Feature","properties":{"uuid":"Seine_VFR_ARPs","textStyle":{"color":[245,245,245],"fontFamily":"Arial","fontSize":10,"fontWeight":400,"text":"LFOX"}},"geometry":{"type":"MultiPoint","coordinates":[[2.07388,48.336757]]}},
{"type":"Feature","properties":{"uuid":"Seine_VFR_ARPs","textStyle":{"color":[245,245,245],"fontFamily":"Arial","fontSize":10,"fontWeight":400,"text":"LFFP"}},"geometry":{"type":"MultiPoint","coordinates":[[2.1875,48.109666]]}},
{"type":"Feature","properties":{"uuid":"Seine_VFR_ARPs","textStyle":{"color":[245,245,245],"fontFamily":"Arial","fontSize":10,"fontWeight":400,"text":"LFOZ"}},"geometry":{"type":"MultiPoint","coordinates":[[2.162646,47.845834]]}},
{"type":"Feature","properties":{"uuid":"Seine_VFR_ARPs","textStyle":{"color":[245,245,245],"fontFamily":"Arial","fontSize":10,"fontWeight":400,"text":"LFPU"}},"geometry":{"type":"MultiPoint","coordinates":[[2.801761,48.291892]]}},
{"type":"Feature","properties":{"uuid":"Seine_VFR_ARPs","textStyle":{"color":[245,245,245],"fontFamily":"Arial","fontSize":10,"fontWeight":400,"text":"LFGO"}},"geometry":{"type":"MultiPoint","coordinates":[[3.249141,48.242258]]}},
{"type":"Feature","properties":{"uuid":"Seine_VFR_ARPs","textStyle":{"color":[245,245,245],"fontFamily":"Arial","fontSize":10,"fontWeight":400,"text":"LFGK"}},"geometry":{"type":"MultiPoint","coordinates":[[3.391167,47.945821]]}},
{"type":"Feature","properties":{"uuid":"Seine_VFR_ARPs","textStyle":{"color":[245,245,245],"fontFamily":"Arial","fontSize":10,"fontWeight":400,"text":"LFLA"}},"geometry":{"type":"MultiPoint","coordinates":[[3.497686,47.793383]]}},
{"type":"Feature","properties":{"uuid":"Seine_VFR_ARPs","textStyle":{"color":[245,245,245],"fontFamily":"Arial","fontSize":10,"fontWeight":400,"text":"LFGP"}},"geometry":{"type":"MultiPoint","coordinates":[[3.778186,47.92917]]}},
{"type":"Feature","properties":{"uuid":"Seine_VFR_ARPs","textStyle":{"color":[245,245,245],"fontFamily":"Arial","fontSize":10,"fontWeight":400,"text":"LFQB"}},"geometry":{"type":"MultiPoint","coordinates":[[4.01963,48.270626]]}},
{"type":"Feature","properties":{"uuid":"Seine_VFR_ARPs","textStyle":{"color":[245,245,245],"fontFamily":"Arial","fontSize":10,"fontWeight":400,"text":"LFFN"}},"geometry":{"type":"MultiPoint","coordinates":[[4.484763,48.386299]]}},
{"type":"Feature","properties":{"uuid":"Seine_VFR_ARPs","textStyle":{"color":[245,245,245],"fontFamily":"Arial","fontSize":10,"fontWeight":400,"text":"LFSK"}},"geometry":{"type":"MultiPoint","coordinates":[[4.680048,48.652056]]}},
{"type":"Feature","properties":{"uuid":"Seine_VFR_ARPs","textStyle":{"color":[245,245,245],"fontFamily":"Arial","fontSize":10,"fontWeight":400,"text":"LFSI"}},"geometry":{"type":"MultiPoint","coordinates":[[4.91084,48.576939]]}},
{"type":"Feature","properties":{"uuid":"Seine_VFR_ARPs","textStyle":{"color":[245,245,245],"fontFamily":"Arial","fontSize":10,"fontWeight":400,"text":"LFJA"}},"geometry":{"type":"MultiPoint","coordinates":[[5.049315,48.138107]]}},
{"type":"Feature","properties":{"uuid":"Seine_VFR_ARPs","textStyle":{"color":[245,245,245],"fontFamily":"Arial","fontSize":10,"fontWeight":400,"text":"LFSQ"}},"geometry":{"type":"MultiPoint","coordinates":[[4.335636,47.532731]]}},
{"type":"Feature","properties":{"uuid":"Seine_VFR_ARPs","textStyle":{"color":[245,245,245],"fontFamily":"Arial","fontSize":10,"fontWeight":400,"text":"LFSK"}},"geometry":{"type":"MultiPoint","coordinates":[[4.687149,48.745795]]}},
{"type":"Feature","properties":{"uuid":"Seine_VFR_ARPs","textStyle":{"color":[245,245,245],"fontFamily":"Arial","fontSize":10,"fontWeight":400,"text":"LFQK"}},"geometry":{"type":"MultiPoint","coordinates":[[4.353389,48.949075]]}},
{"type":"Feature","properties":{"uuid":"Seine_VFR_ARPs","textStyle":{"color":[245,245,245],"fontFamily":"Arial","fontSize":10,"fontWeight":400,"text":"LFOK"}},"geometry":{"type":"MultiPoint","coordinates":[[4.207813,48.82066]]}},
{"type":"Feature","properties":{"uuid":"Seine_VFR_ARPs","textStyle":{"color":[245,245,245],"fontFamily":"Arial","fontSize":10,"fontWeight":400,"text":"LFFZ"}},"geometry":{"type":"MultiPoint","coordinates":[[3.763984,48.755159]]}},
{"type":"Feature","properties":{"uuid":"Seine_VFR_ARPs","textStyle":{"color":[245,245,245],"fontFamily":"Arial","fontSize":10,"fontWeight":400,"text":"LFQA"}},"geometry":{"type":"MultiPoint","coordinates":[[4.154554,49.170105]]}},
{"type":"Feature","properties":{"uuid":"Seine_VFR_ARPs","textStyle":{"color":[245,245,245],"fontFamily":"Arial","fontSize":10,"fontWeight":400,"text":"LFAT"}},"geometry":{"type":"MultiPoint","coordinates":[[3.007698,48.553442]]}},
{"type":"Feature","properties":{"uuid":"Seine_VFR_ARPs","textStyle":{"color":[245,245,245],"fontFamily":"Arial","fontSize":10,"fontWeight":400,"text":"LFQP"}},"geometry":{"type":"MultiPoint","coordinates":[[2.901179,48.750477]]}},
{"type":"Feature","properties":{"uuid":"Seine_VFR_ARPs","textStyle":{"color":[245,245,245],"fontFamily":"Arial","fontSize":10,"fontWeight":400,"text":"LFPK"}},"geometry":{"type":"MultiPoint","coordinates":[[3.011248,48.895414]]}},
{"type":"Feature","properties":{"uuid":"Seine_VFR_ARPs","textStyle":{"color":[245,245,245],"fontFamily":"Arial","fontSize":10,"fontWeight":400,"text":"LFPM"}},"geometry":{"type":"MultiPoint","coordinates":[[2.673938,48.656747]]}},
{"type":"Feature","properties":{"uuid":"Seine_VFR_ARPs","textStyle":{"color":[245,245,245],"fontFamily":"Arial","fontSize":10,"fontWeight":400,"text":"LFPO"}},"geometry":{"type":"MultiPoint","coordinates":[[2.382785,48.675507]]}},
{"type":"Feature","properties":{"uuid":"Seine_VFR_ARPs","textStyle":{"color":[245,245,245],"fontFamily":"Arial","fontSize":10,"fontWeight":400,"text":"LFPV"}},"geometry":{"type":"MultiPoint","coordinates":[[2.194602,48.729403]]}},
{"type":"Feature","properties":{"uuid":"Seine_VFR_ARPs","textStyle":{"color":[245,245,245],"fontFamily":"Arial","fontSize":10,"fontWeight":400,"text":"LFPN"}},"geometry":{"type":"MultiPoint","coordinates":[[2.031272,48.715349]]}},
{"type":"Feature","properties":{"uuid":"Seine_VFR_ARPs","textStyle":{"color":[245,245,245],"fontFamily":"Arial","fontSize":10,"fontWeight":400,"text":"LFPZ"}},"geometry":{"type":"MultiPoint","coordinates":[[2.070329,48.872066]]}},
{"type":"Feature","properties":{"uuid":"Seine_VFR_ARPs","textStyle":{"color":[245,245,245],"fontFamily":"Arial","fontSize":10,"fontWeight":400,"text":"LFPL"}},"geometry":{"type":"MultiPoint","coordinates":[[2.620678,48.872066]]}},
{"type":"Feature","properties":{"uuid":"Seine_VFR_ARPs","textStyle":{"color":[245,245,245],"fontFamily":"Arial","fontSize":10,"fontWeight":400,"text":"LFPB"}},"geometry":{"type":"MultiPoint","coordinates":[[2.40764,49.016651]]}},
{"type":"Feature","properties":{"uuid":"Seine_VFR_ARPs","textStyle":{"color":[245,245,245],"fontFamily":"Arial","fontSize":10,"fontWeight":400,"text":"LFPG"}},"geometry":{"type":"MultiPoint","coordinates":[[2.539013,49.074833]]}},
{"type":"Feature","properties":{"uuid":"Seine_VFR_ARPs","textStyle":{"color":[245,245,245],"fontFamily":"Arial","fontSize":10,"fontWeight":400,"text":"LFPP"}},"geometry":{"type":"MultiPoint","coordinates":[[2.734299,49.165462]]}}
]}