{"type":"FeatureCollection","features":[
{"type":"Feature","properties":{"name":"LFOB_RADAR_BASE_MAP","fillStyle":{"color":[27,27,27],"opacity":1.0},"lineStyle":{"color":[27,27,27],"width":1}},"geometry":{"type":"MultiPolygon","coordinates":[[[[-8.890033,55.420902],[13.277252,55.462037],[13.293454,42.733328],[-8.955027,42.711555],[-8.890033,55.420902]]]]}},
{"type":"Feature","properties":{"name":"LFOB_RADAR_AIRSPACE","lineStyle":{"color":[108,151,164],"width":1,"dashArray":[2.0,2.0]}},"geometry":{"type":"MultiLineString","coordinates":[[[1.899167,49.389444],[1.742222,49.021111],[1.756667,48.953056],[1.998333,48.890833],[2.000556,48.990278],[2.197222,49.121111],[2.314444,49.141111],[2.271111,49.2075],[2.465,49.203333],[2.494444,49.234167],[2.490076,49.23626],[2.487656,49.237609],[2.483755,49.240589],[2.480617,49.243931],[2.478318,49.247552],[2.476916,49.251363],[2.476445,49.255271],[2.476777,49.258023],[2.476916,49.25918],[2.477778,49.261667]],[[1.458333,49.383333],[1.552778,49.3375],[1.627778,49.216667],[1.116667,48.766667],[0.803889,48.819722],[0.850833,49.190556]],[[0.850833,49.190556],[0.770833,49.308333],[0.755556,49.4],[0.774167,49.4525],[1.058056,49.6475],[1.349167,49.711667],[1.527222,49.679167]],[[1.647146,49.732048],[0.773426,50.398587]],[[2.238889,49.941944],[2.065,49.716667]],[[2.782778,49.674167],[2.894444,49.783333],[3.413611,49.783333],[3.437222,49.818889],[3.558333,50.0],[3.043611,50.119444]],[[3.043611,50.119444],[2.359722,50.097222]],[[3.779444,50.0],[4.154833,49.999867]],[[3.437222,49.818889],[1.579722,49.841111],[1.255556,49.834444],[1.218333,49.769722]],[[2.488056,50.0],[2.361667,50.046389],[2.344722,50.077778]],[[3.043611,50.119444],[3.092222,50.0675],[3.116667,50.0]],[[2.136423,49.571342],[2.136423,49.571342],[2.1525,49.565278],[2.1525,49.565278],[2.266111,49.515833],[2.271609,49.513419],[2.271609,49.513419],[2.291164,49.502538],[2.291164,49.502538],[2.307866,49.489801],[2.307866,49.489801],[2.321303,49.475523],[2.321303,49.475523],[2.331144,49.460057],[2.331144,49.460057],[2.333338,49.454111],[2.337148,49.443784],[2.337148,49.443784],[2.339166,49.427106],[2.337148,49.410434],[2.337148,49.410434],[2.331144,49.394178],[2.331144,49.394178],[2.326133,49.386316],[2.321303,49.378737],[2.321303,49.378737],[2.307866,49.364492],[2.307866,49.364492],[2.307142,49.363941],[2.243723,49.340861],[2.19025,49.321392],[2.175278,49.320627],[2.14964,49.321937],[2.14964,49.321937],[2.142222,49.322778],[2.142222,49.322778],[2.081255,49.349572],[1.925278,49.418056],[1.925278,49.418056],[1.91642,49.427233],[1.915773,49.427904],[1.915773,49.427904],[1.905921,49.443344],[1.905921,49.443344],[1.899912,49.459601],[1.899912,49.459601],[1.897892,49.476273],[1.899912,49.492951],[1.899912,49.492951],[1.905211,49.507301],[1.905921,49.509224],[1.905921,49.509224],[1.915773,49.52469],[1.915773,49.52469],[1.929223,49.538968],[1.929223,49.538968],[1.945942,49.551705],[1.945942,49.551705],[1.965517,49.562586],[1.965517,49.562586],[1.987466,49.571342],[1.987466,49.571342],[2.011249,49.577756],[2.011249,49.577756],[2.036281,49.581669],[2.036281,49.581669],[2.061944,49.582984],[2.087608,49.581669],[2.087608,49.581669],[2.11264,49.577756],[2.11264,49.577756],[2.136423,49.571342]],[[1.382738,49.351572],[1.219167,49.282778],[1.382778,49.351667],[1.375278,49.393333],[1.368889,49.428333],[1.368388,49.4322],[1.36276,49.447456],[1.353536,49.461954],[1.340941,49.475339],[1.325287,49.487279],[1.306958,49.497479],[1.286405,49.505686],[1.264136,49.511699],[1.240697,49.515367],[1.216667,49.516599],[1.192636,49.515367],[1.169198,49.511699],[1.146928,49.505686],[1.126376,49.497479],[1.114167,49.490833],[1.007222,49.42],[0.993947,49.409784],[0.981369,49.396399],[0.972157,49.3819],[0.966537,49.366645],[0.964649,49.35101],[0.966537,49.335379],[0.972157,49.320139],[0.981369,49.305662],[0.993947,49.292306],[1.00958,49.280397],[1.027885,49.270229],[1.04841,49.26205],[1.07065,49.25606],[1.094057,49.252406],[1.096389,49.252222]],[[1.2475,49.172778],[1.266667,49.16],[1.266667,49.16],[1.299444,49.144722],[1.299444,49.144722],[1.325278,49.125278],[1.325278,49.125278],[1.343333,49.106389],[1.343333,49.106389],[1.386667,49.08],[1.386667,49.08],[1.416667,49.066667],[1.233333,48.916667],[1.141667,48.933333],[1.141667,48.933333],[1.016667,49.0],[1.2475,49.172778]],[[2.000556,48.990278],[1.984742,48.993138],[1.984742,48.993138],[1.960772,48.999626],[1.960772,48.999626],[1.938651,49.008486],[1.938651,49.008486],[1.918923,49.019501],[1.918923,49.019501],[1.902074,49.0324],[1.902074,49.0324],[1.888518,49.046868],[1.888518,49.046868],[1.87859,49.06255],[1.87859,49.06255],[1.872533,49.079061],[1.872533,49.079061],[1.870498,49.095993],[1.872533,49.112932],[1.872533,49.112932],[1.87859,49.129459],[1.87859,49.129459],[1.888518,49.145167],[1.888518,49.145167],[1.902074,49.159668],[1.902074,49.159668],[1.918923,49.172604],[1.918923,49.172604],[1.938651,49.183655],[1.938651,49.183655],[1.960772,49.192548],[1.960772,49.192548],[1.984742,49.199062],[1.984742,49.199062],[2.009969,49.203036],[2.009969,49.203036],[2.018056,49.203611],[2.018056,49.203611],[2.183333,49.204444],[2.197222,49.121111]],[[2.668611,49.716667],[2.832222,49.849167],[3.078333,49.849167],[3.160556,49.877222],[3.116667,50.0]],[[2.512012,49.998061],[3.116667,50.0]],[[2.359722,50.097222],[2.344722,50.077778]],[[2.525,50.305556],[2.359722,50.097222],[2.344722,50.077778],[2.238889,49.941944]],[[1.590833,49.738611],[1.536111,49.751667],[1.4,49.75],[1.218333,49.769722],[0.616667,49.833333],[0.666389,49.278056],[0.609444,49.185556],[0.591667,49.144722],[1.096389,49.252222],[1.219167,49.282778]],[[1.382778,49.351667],[1.641389,49.502778]],[[2.782778,49.674167],[2.976389,49.6025],[3.105831,49.611942],[3.236389,49.666667],[3.351617,49.689042],[3.484722,49.714722],[3.660278,49.748333]],[[2.708889,49.510556],[3.157778,49.4375],[3.314719,49.468611],[3.461667,49.445],[3.621428,49.202631],[3.662219,49.140556],[3.661667,49.105831],[3.656389,48.700556]],[[3.157778,49.4375],[3.196944,49.1525]],[[3.164719,49.383331],[3.374167,49.315589],[3.425381,49.183544]],[[3.425381,49.183544],[3.483331,49.033331],[3.620244,48.75385],[3.656942,48.736667]],[[2.54595,50.026072],[2.532756,50.016122],[2.522142,50.004972],[2.517706,49.998079],[2.514367,49.992889],[2.509625,49.980178],[2.508031,49.96715],[2.509625,49.954122],[2.514367,49.941422],[2.522142,49.929356],[2.532756,49.918225],[2.54595,49.9083],[2.5614,49.899822],[2.578722,49.893006],[2.597492,49.888014],[2.617244,49.884967],[2.6375,49.883944],[2.647778,49.884167],[2.739722,49.888889],[2.749975,49.889689],[2.769733,49.892736],[2.788506,49.897728],[2.805828,49.904544],[2.821278,49.913022],[2.834472,49.922947],[2.845089,49.934078],[2.852864,49.946144],[2.857608,49.958844],[2.859203,49.971872],[2.857608,49.9849],[2.852864,49.997611],[2.851873,49.999151],[2.845089,50.009694],[2.834472,50.020844],[2.821278,50.030794],[2.805828,50.039292],[2.788506,50.046128],[2.769733,50.051139],[2.749975,50.054194],[2.729722,50.055219],[2.719167,50.055],[2.626667,50.05],[2.617244,50.049472],[2.597492,50.046417],[2.578722,50.041406],[2.574167,50.039722],[2.566111,50.03],[2.547222,50.026944],[2.54595,50.026072]],[[3.558333,50.0],[4.150278,49.980278]],[[1.328889,49.978056],[1.388056,49.9975],[2.283889,50.0]]]}},
{"type":"Feature","properties":{"name":"LFOB_RADAR_SECTORS","lineStyle":{"color":[108,151,164],"width":1}},"geometry":{"type":"MultiLineString","coordinates":[[[1.590833,49.738611],[1.778611,49.716667],[2.501944,49.716667],[2.668611,49.716667],[2.782778,49.674167],[2.743889,49.635278],[2.708889,49.510556],[2.602778,49.471389],[2.524444,49.279444],[2.52071,49.279953],[2.514722,49.280261],[2.508734,49.279953],[2.502894,49.279038],[2.497345,49.277537],[2.492223,49.275487],[2.487656,49.27294],[2.483755,49.269958],[2.480617,49.266615],[2.478318,49.262992],[2.477778,49.261667],[2.1725,49.268333],[2.055833,49.32],[1.8525,49.41],[1.723056,49.375278],[1.613056,49.380278],[1.641389,49.502778],[1.550833,49.560556],[1.519167,49.595556],[1.527222,49.679167],[1.576841,49.725542],[1.590833,49.738611]],[[1.576841,49.725542],[1.723486,49.630856]],[[1.778611,49.716667],[1.723486,49.630856],[1.663499,49.537305],[1.641389,49.502778]],[[1.778611,49.716667],[2.016667,49.666667],[2.602778,49.471389]],[[2.602778,49.471389],[2.501944,49.716667]],[[2.602778,49.471389],[2.498623,49.433561],[2.243723,49.340861],[2.165833,49.3125],[2.055833,49.32]],[[2.243723,49.340861],[1.941111,49.433889],[1.8525,49.41]],[[1.663499,49.537305],[2.498623,49.433561]],[[2.782778,49.674167],[2.894444,49.783333],[3.631111,49.783333],[3.660278,49.748333],[3.765556,49.556111],[3.8825,49.256667],[3.860833,49.241944],[3.196944,49.1525],[2.885278,49.27],[2.529722,49.260556],[2.516944,49.260833],[2.524444,49.279444]],[[2.516944,49.260833],[2.477778,49.261667]],[[1.641389,49.502778],[1.766667,49.4875],[1.753056,49.453889],[1.8525,49.41]],[[2.086947,49.460667],[2.124481,49.439893],[2.165058,49.42505],[2.134879,49.404096],[2.068687,49.410861],[2.050174,49.450776]],[[2.050174,49.450776],[2.086947,49.460667]],[[2.448401,49.491928],[2.445736,49.485764],[2.441156,49.480094],[2.434861,49.475166],[2.427127,49.471195],[2.418292,49.468356],[2.408741,49.466773],[2.398892,49.466515],[2.389177,49.467593],[2.380018,49.46996],[2.371817,49.473513],[2.364932,49.478096],[2.359663,49.483508],[2.356242,49.489513],[2.354818,49.495848],[2.355452,49.502237],[2.358117,49.508399],[2.362698,49.514066],[2.368992,49.51899],[2.376726,49.522956],[2.385562,49.525792],[2.395113,49.527373],[2.404961,49.527631],[2.414677,49.526554],[2.423835,49.52419],[2.432037,49.520641],[2.438922,49.516062],[2.44419,49.510653],[2.447611,49.504651],[2.449036,49.498317],[2.448401,49.491928]]]}},
{"type":"Feature","properties":{"name":"LFOB_RWY","lineStyle":{"color":[108,151,164],"width":2}},"geometry":{"type":"MultiLineString","coordinates":[[[2.104358,49.458094],[2.131733,49.446206]],[[2.123283,49.462139],[2.116814,49.457369]],[[2.026403,49.101656],[2.04345,49.095675]],[[2.027397,49.087767],[2.042,49.097481]],[[2.313078,49.166753],[2.323464,49.1656]],[[2.311467,49.168439],[2.322694,49.167186]],[[2.313833,49.161147],[2.323144,49.166083]],[[1.936247,48.998722],[1.949022,48.997292]],[[3.288611,49.346461],[3.278586,49.344025]],[[2.378594,49.875753],[2.394806,49.870628]],[[2.678697,49.969325],[2.709256,49.970956]],[[3.020142,49.869058],[3.038986,49.868842]],[[3.203389,49.814353],[3.20835,49.818147]],[[3.203703,49.817561],[3.209311,49.8136]],[[1.183936,49.390953],[1.16845,49.379469]],[[0.723722,49.637778],[0.733219,49.638772]],[[1.233019,49.039025],[1.206711,49.018314]],[[2.358592,48.719408],[2.412343,48.729326]],[[2.386975,48.738025],[2.371787,48.707744]],[[2.332253,48.7254],[2.404306,48.750886]],[[2.428383,48.950878],[2.440606,48.968264]],[[2.420403,48.963681],[2.45075,48.965337]],[[2.446881,48.970969],[2.424064,48.96485]],[[2.558245,48.992549],[2.609983,48.995352]],[[2.539163,48.994916],[2.602011,48.998319],[2.621281,48.999214]],[[2.502044,49.020012],[2.577421,49.024059]],[[2.513246,49.023934],[2.560523,49.026362]]]}},
{"type":"Feature","properties":{"name":"LFOB_VOR","pointStyle":{"type":"square","color":[127,178,194]}},"geometry":{"type":"MultiPoint","coordinates":[[1.280639,49.465639],[1.854694,50.135139],[3.1515,50.228139],[3.056528,49.188306],[3.577694,49.13775],[4.045361,49.311639],[3.013861,48.844639],[2.035889,49.096083],[1.214056,49.028528],[1.656556,48.625694],[1.994222,48.653944],[2.102361,48.753722],[2.386361,48.729944],[2.455167,48.974667],[2.500111,49.019917],[2.623806,48.999472],[3.013861,48.844639],[2.153194,49.436361]]}},
{"type":"Feature","properties":{"name":"LFOB_FIX_SIGNIFICANT","pointStyle":{"type":"triangle_hollow","color":[127,178,194]}},"geometry":{"type":"MultiPoint","coordinates":[[2.414194,49.322889],[2.489472,49.552639],[1.922639,49.636556],[1.766528,49.605222],[1.851944,49.567111],[1.588333,49.6175],[1.501111,49.710278],[1.606444,49.455444],[1.213611,49.5875],[0.613333,49.202778],[1.885083,49.89975],[2.368611,49.785278],[2.755278,49.826111],[3.451389,49.419417],[3.632222,49.450167],[3.033278,49.514806],[3.080556,49.355556],[3.683056,49.268611],[3.661667,49.105556],[2.386194,49.224861],[1.76,49.221389],[3.549444,48.938056]]}},
{"type":"Feature","properties":{"name":"LFOB_ARP","pointStyle":{"type":"diamond_cross","color":[127,178,194]}},"geometry":{"type":"MultiPoint","coordinates":[[1.183889,49.390833],[1.085278,49.8825],[0.733219,49.638772],[0.655556,49.835278],[2.386944,49.873056],[2.6925,49.97],[3.029722,49.868889],[3.209311,49.8136],[3.278586,49.344025],[2.736944,49.109167],[2.547778,49.009722],[2.441389,48.969444],[2.311667,49.165],[2.040833,49.096667],[1.941667,48.998611],[2.112778,49.454444],[2.073333,48.810278],[2.622778,48.821944],[3.014444,48.8375],[1.250833,48.8975],[1.22,49.028611]]}},
{"type":"Feature","properties":{"name":"LFBO_VFR_VRP","pointStyle":{"type":"diamond_cross","color":[127,178,194]}},"geometry":{"type":"MultiPoint","coordinates":[[1.9375,49.419444],[2.039722,49.427778],[2.128889,49.397778],[2.08,49.323889],[2.2,49.329167],[2.1875,49.523611]]}},
{"type":"Feature","properties":{"name":"LFOB_ECL_DASHED","lineStyle":{"color":[119,255,82],"width":1,"dashArray":[2.0,2.0]}},"geometry":{"type":"MultiLineString","coordinates":[[[2.353789,49.349336],[2.428433,49.358922]],[[2.353789,49.349336],[2.358797,49.302884]],[[2.287862,49.378116],[2.370423,49.38696]],[[2.287862,49.378116],[2.28786,49.329901]],[[1.963921,49.519139],[1.963904,49.572562]],[[1.963921,49.519139],[1.8823,49.510145]],[[1.896165,49.548564],[1.886004,49.589562]],[[1.896165,49.548564],[1.821302,49.54193]]]}},
{"type":"Feature","properties":{"name":"LFOB_ECL","lineStyle":{"color":[119,255,82],"width":1}},"geometry":{"type":"MultiLineString","coordinates":[[[2.131733,49.446206],[2.449648,49.30746]],[[2.252441,49.401671],[2.241164,49.390478]],[[2.104358,49.458094],[1.816693,49.583054]],[[2.013619,49.505385],[2.002442,49.494778]]]}}
]}