{"type":"FeatureCollection","features":[
{"type":"Feature","properties":{"name":"LFOB_AMSR","lineStyle":{"color":[201,117,12],"width":2}},"geometry":{"type":"MultiLineString","coordinates":[[[1.590833,49.738611],[1.576942,49.725556],[1.527222,49.679167],[1.519167,49.595556],[1.550833,49.560556],[1.641389,49.502778],[1.663333,49.536944],[1.723486,49.630856],[1.807149,49.672112],[1.778611,49.716667],[1.590833,49.738611]],[[1.807149,49.672112],[1.925012,49.627162],[1.986366,49.626639],[2.016667,49.666667],[2.37154,49.548525]],[[2.467735,49.516451],[2.602778,49.471389],[2.708889,49.510556],[2.743889,49.635278],[2.782778,49.674167],[2.668611,49.716667],[2.501944,49.716667],[2.065,49.716667],[1.778611,49.716667]],[[2.37154,49.548525],[2.370233,49.548283],[2.368932,49.548027],[2.367638,49.547756],[2.366352,49.54747],[2.365074,49.54717],[2.363803,49.546855],[2.362542,49.546526],[2.361289,49.546183],[2.360046,49.545826],[2.358813,49.545455],[2.35759,49.54507],[2.356377,49.544672],[2.355175,49.544259],[2.353984,49.543833],[2.352805,49.543394],[2.351638,49.542942],[2.350484,49.542476],[2.349341,49.541998],[2.348212,49.541507],[2.347096,49.541003],[2.345994,49.540486],[2.344906,49.539957],[2.343832,49.539416],[2.342773,49.538863],[2.341729,49.538298],[2.3407,49.537721],[2.339687,49.537133],[2.33869,49.536534],[2.337709,49.535923],[2.336744,49.535301],[2.335796,49.534669],[2.334866,49.534025],[2.333952,49.533372],[2.333057,49.532708],[2.332179,49.532034],[2.331319,49.531351],[2.330478,49.530657],[2.329656,49.529955],[2.328852,49.529243],[2.328068,49.528522],[2.327303,49.527793],[2.326558,49.527055],[2.325833,49.526308],[2.325128,49.525554],[2.324443,49.524792],[2.323778,49.524022],[2.323135,49.523244],[2.322512,49.52246],[2.32191,49.521668],[2.32133,49.52087],[2.320771,49.520066],[2.320234,49.519255],[2.319719,49.518438],[2.319225,49.517616],[2.318754,49.516788],[2.318305,49.515955],[2.317878,49.515117],[2.317474,49.514274],[2.317092,49.513427],[2.316733,49.512576],[2.316397,49.51172],[2.316084,49.510861],[2.315795,49.509999],[2.315528,49.509133],[2.315284,49.508265],[2.315064,49.507394],[2.314867,49.50652],[2.314693,49.505645],[2.314543,49.504767],[2.314417,49.503888],[2.314314,49.503008],[2.314234,49.502126],[2.314179,49.501244],[2.314147,49.500362],[2.314138,49.499479],[2.314153,49.498596],[2.314192,49.497713],[2.314254,49.496831],[2.31434,49.49595],[2.31445,49.49507],[2.314583,49.494191],[2.31474,49.493314],[2.31492,49.492439],[2.315124,49.491565],[2.31535,49.490695],[2.315601,49.489827],[2.315874,49.488962],[2.31617,49.4881],[2.31649,49.487241],[2.316832,49.486387],[2.317197,49.485536],[2.317585,49.48469],[2.317996,49.483848],[2.318429,49.48301],[2.318884,49.482178],[2.319362,49.481351],[2.319862,49.48053],[2.320383,49.479714],[2.320926,49.478904],[2.321491,49.478101],[2.322078,49.477304],[2.322685,49.476514],[2.323314,49.47573],[2.323963,49.474954],[2.324633,49.474186],[2.325324,49.473425],[2.326035,49.472672],[2.326766,49.471927],[2.327517,49.47119],[2.328287,49.470463],[2.329077,49.469743],[2.329886,49.469033],[2.330713,49.468332],[2.33156,49.467641],[2.332424,49.466959],[2.333307,49.466287],[2.334208,49.465626],[2.335126,49.464974],[2.336062,49.464333],[2.337014,49.463702],[2.337983,49.463083],[2.338969,49.462474],[2.339971,49.461877],[2.340989,49.461291],[2.342022,49.460717],[2.34307,49.460154],[2.344133,49.459604],[2.345211,49.459065],[2.346303,49.458539],[2.347409,49.458025],[2.348529,49.457524],[2.349662,49.457035],[2.350808,49.456559],[2.351966,49.456097],[2.353136,49.455647],[2.354319,49.455211],[2.355513,49.454788],[2.356718,49.454379],[2.357933,49.453984],[2.359159,49.453602],[2.360396,49.453234],[2.361641,49.45288],[2.362896,49.45254],[2.36416,49.452215],[2.365433,49.451904],[2.366713,49.451607],[2.368002,49.451325],[2.369298,49.451058],[2.3706,49.450805],[2.371909,49.450567],[2.373225,49.450343],[2.374546,49.450135],[2.375873,49.449942],[2.377204,49.449763],[2.37854,49.4496],[2.37988,49.449452],[2.381225,49.449319],[2.382572,49.449201],[2.383922,49.449099],[2.385275,49.449011],[2.38663,49.448939],[2.387987,49.448883],[2.389345,49.448842],[2.390704,49.448816],[2.392063,49.448805],[2.393423,49.44881],[2.394782,49.44883],[2.39614,49.448866],[2.397497,49.448917],[2.398853,49.448983],[2.400207,49.449065],[2.401558,49.449162],[2.402907,49.449274],[2.404252,49.449401],[2.405594,49.449544],[2.406931,49.449701],[2.408265,49.449874],[2.409593,49.450062],[2.410916,49.450265],[2.412234,49.450483],[2.413545,49.450715],[2.41485,49.450963],[2.416149,49.451225],[2.41744,49.451501],[2.418723,49.451793],[2.419999,49.452099],[2.421266,49.452419],[2.422525,49.452753],[2.423774,49.453102],[2.425014,49.453464],[2.426243,49.453841],[2.427463,49.454231],[2.428672,49.454636],[2.42987,49.455053],[2.431057,49.455485],[2.432232,49.455929],[2.433394,49.456387],[2.434545,49.456858],[2.435682,49.457342],[2.436807,49.457838],[2.437918,49.458348],[2.439015,49.458869],[2.440098,49.459403],[2.441167,49.45995],[2.442221,49.460508],[2.44326,49.461078],[2.444283,49.461659],[2.445291,49.462253],[2.446283,49.462857],[2.447258,49.463472],[2.448217,49.464099],[2.449159,49.464736],[2.450083,49.465384],[2.450991,49.466042],[2.45188,49.46671],[2.452751,49.467388],[2.453605,49.468076],[2.454439,49.468774],[2.455255,49.46948],[2.456052,49.470196],[2.456829,49.470921],[2.457587,49.471654],[2.458326,49.472396],[2.459044,49.473146],[2.459742,49.473904],[2.46042,49.47467],[2.461077,49.475443],[2.461713,49.476224],[2.462329,49.477011],[2.462923,49.477806],[2.463496,49.478607],[2.464047,49.479414],[2.464576,49.480228],[2.465084,49.481047]],[[2.465084,49.481047],[2.465691,49.483384],[2.466236,49.485728],[2.46672,49.488077],[2.467143,49.490431],[2.467505,49.492789],[2.467806,49.49515],[2.468044,49.497515],[2.468222,49.499881],[2.468337,49.502249],[2.468391,49.504618],[2.468383,49.506987],[2.468314,49.509356],[2.468182,49.511723],[2.46799,49.514088],[2.467735,49.516451]],[[1.641389,49.502778],[1.766667,49.4875],[1.753056,49.453889],[1.8525,49.41],[1.723056,49.375278],[1.613056,49.380278],[1.641389,49.502778]],[[1.8525,49.41],[2.055833,49.32],[2.1725,49.268333],[2.477778,49.261667],[2.516944,49.260833],[2.529722,49.260556],[2.530175,49.260568],[2.757236,49.266599],[2.885278,49.27],[2.885278,49.27],[2.962429,49.24094],[3.095138,49.190912],[3.196942,49.152501],[3.196944,49.1525],[3.196944,49.1525],[3.299722,49.166667],[3.425361,49.183542],[3.425381,49.183544],[3.425381,49.183544],[3.425423,49.183435],[3.425472,49.183307],[3.425453,49.183305],[3.374167,49.315589],[3.189216,49.783333],[2.894444,49.783333],[2.782778,49.674167]],[[2.477778,49.261667],[2.478318,49.262992],[2.480617,49.266615],[2.483755,49.269958],[2.487656,49.27294],[2.492223,49.275487],[2.497345,49.277537],[2.502894,49.279038],[2.508734,49.279953],[2.514722,49.280261],[2.52071,49.279953],[2.524444,49.279444],[2.524444,49.279444],[2.526074,49.283445],[2.602778,49.471389]]]}},
{"type":"Feature","properties":{"uuid":"LFOB_AMSR_ALTITUDES","textStyle":{"color":[201,117,12],"fontFamily":"Arial","fontSize":12,"fontWeight":400,"text":"3500"}},"geometry":{"type":"MultiPoint","coordinates":[[1.691506,49.431589]]}},
{"type":"Feature","properties":{"uuid":"LFOB_AMSR_ALTITUDES","textStyle":{"color":[201,117,12],"fontFamily":"Arial","fontSize":12,"fontWeight":400,"text":"2600"}},"geometry":{"type":"MultiPoint","coordinates":[[1.614007,49.651602]]}},
{"type":"Feature","properties":{"uuid":"LFOB_AMSR_ALTITUDES","textStyle":{"color":[201,117,12],"fontFamily":"Arial","fontSize":12,"fontWeight":400,"text":"2000"}},"geometry":{"type":"MultiPoint","coordinates":[[1.875566,49.52705]]}},
{"type":"Feature","properties":{"uuid":"LFOB_AMSR_ALTITUDES","textStyle":{"color":[201,117,12],"fontFamily":"Arial","fontSize":12,"fontWeight":400,"text":"2500"}},"geometry":{"type":"MultiPoint","coordinates":[[2.38254,49.625462]]}},
{"type":"Feature","properties":{"uuid":"LFOB_AMSR_ALTITUDES","textStyle":{"color":[201,117,12],"fontFamily":"Arial","fontSize":12,"fontWeight":400,"text":"3500"}},"geometry":{"type":"MultiPoint","coordinates":[[3.002532,49.576281]]}}
]}