{"type":"FeatureCollection","features":[
{"type":"Feature","properties":{"uuid":"LFOB_FIX_SIGNIFICANT_NAMES","textStyle":{"color":[132,239,184],"fontFamily":"Arial","fontSize":10,"fontWeight":400,"text":"MATID"}},"geometry":{"type":"MultiPoint","coordinates":[[1.76517,49.623501]]}},
{"type":"Feature","properties":{"uuid":"LFOB_FIX_SIGNIFICANT_NAMES","textStyle":{"color":[132,239,184],"fontFamily":"Arial","fontSize":10,"fontWeight":400,"text":"DIVON"}},"geometry":{"type":"MultiPoint","coordinates":[[1.850742,49.58688]]}},
{"type":"Feature","properties":{"uuid":"LFOB_FIX_SIGNIFICANT_NAMES","textStyle":{"color":[132,239,184],"fontFamily":"Arial","fontSize":10,"fontWeight":400,"text":"GONOX"}},"geometry":{"type":"MultiPoint","coordinates":[[1.923398,49.655914]]}},
{"type":"Feature","properties":{"uuid":"LFOB_FIX_SIGNIFICANT_NAMES","textStyle":{"color":[132,239,184],"fontFamily":"Arial","fontSize":10,"fontWeight":400,"text":"NEMED"}},"geometry":{"type":"MultiPoint","coordinates":[[1.587568,49.638142]]}},
{"type":"Feature","properties":{"uuid":"LFOB_FIX_SIGNIFICANT_NAMES","textStyle":{"color":[132,239,184],"fontFamily":"Arial","fontSize":10,"fontWeight":400,"text":"VEPET"}},"geometry":{"type":"MultiPoint","coordinates":[[1.529444,49.722763]]}},
{"type":"Feature","properties":{"uuid":"LFOB_FIX_SIGNIFICANT_NAMES","textStyle":{"color":[132,239,184],"fontFamily":"Arial","fontSize":10,"fontWeight":400,"text":"OPALE"}},"geometry":{"type":"MultiPoint","coordinates":[[1.881419,49.919639]]}},
{"type":"Feature","properties":{"uuid":"LFOB_FIX_SIGNIFICANT_NAMES","textStyle":{"color":[132,239,184],"fontFamily":"Arial","fontSize":10,"fontWeight":400,"text":"ATREX"}},"geometry":{"type":"MultiPoint","coordinates":[[2.369018,49.805153]]}},
{"type":"Feature","properties":{"uuid":"LFOB_FIX_SIGNIFICANT_NAMES","textStyle":{"color":[132,239,184],"fontFamily":"Arial","fontSize":10,"fontWeight":400,"text":"NURMO"}},"geometry":{"type":"MultiPoint","coordinates":[[2.754899,49.844733]]}},
{"type":"Feature","properties":{"uuid":"LFOB_FIX_SIGNIFICANT_NAMES","textStyle":{"color":[132,239,184],"fontFamily":"Arial","fontSize":10,"fontWeight":400,"text":"EGOZE"}},"geometry":{"type":"MultiPoint","coordinates":[[2.49011,49.57013]]}},
{"type":"Feature","properties":{"uuid":"LFOB_FIX_SIGNIFICANT_NAMES","textStyle":{"color":[132,239,184],"fontFamily":"Arial","fontSize":10,"fontWeight":400,"text":"INMOC"}},"geometry":{"type":"MultiPoint","coordinates":[[2.446517,49.335022]]}},
{"type":"Feature","properties":{"uuid":"LFOB_FIX_SIGNIFICANT_NAMES","textStyle":{"color":[132,239,184],"fontFamily":"Arial","fontSize":10,"fontWeight":400,"text":"INKUD"}},"geometry":{"type":"MultiPoint","coordinates":[[3.032604,49.535564]]}},
{"type":"Feature","properties":{"uuid":"LFOB_FIX_SIGNIFICANT_NAMES","textStyle":{"color":[132,239,184],"fontFamily":"Arial","fontSize":10,"fontWeight":400,"text":"OBOBI"}},"geometry":{"type":"MultiPoint","coordinates":[[3.079426,49.374985]]}},
{"type":"Feature","properties":{"uuid":"LFOB_FIX_SIGNIFICANT_NAMES","textStyle":{"color":[132,239,184],"fontFamily":"Arial","fontSize":10,"fontWeight":400,"text":"LORNI"}},"geometry":{"type":"MultiPoint","coordinates":[[3.461667,49.445]]}},
{"type":"Feature","properties":{"uuid":"LFOB_FIX_SIGNIFICANT_NAMES","textStyle":{"color":[132,239,184],"fontFamily":"Arial","fontSize":10,"fontWeight":400,"text":"DEVIM"}},"geometry":{"type":"MultiPoint","coordinates":[[3.631607,49.471606]]}},
{"type":"Feature","properties":{"uuid":"LFOB_FIX_SIGNIFICANT_NAMES","textStyle":{"color":[132,239,184],"fontFamily":"Arial","fontSize":10,"fontWeight":400,"text":"BAVOL"}},"geometry":{"type":"MultiPoint","coordinates":[[3.699419,49.119924]]}},
{"type":"Feature","properties":{"uuid":"LFOB_FIX_SIGNIFICANT_NAMES","textStyle":{"color":[132,239,184],"fontFamily":"Arial","fontSize":10,"fontWeight":400,"text":"LUPAM"}},"geometry":{"type":"MultiPoint","coordinates":[[3.56541,48.957986]]}},
{"type":"Feature","properties":{"uuid":"LFOB_FIX_SIGNIFICANT_NAMES","textStyle":{"color":[132,239,184],"fontFamily":"Arial","fontSize":10,"fontWeight":400,"text":"VEMIL"}},"geometry":{"type":"MultiPoint","coordinates":[[2.388392,49.241295]]}},
{"type":"Feature","properties":{"uuid":"LFOB_FIX_SIGNIFICANT_NAMES","textStyle":{"color":[132,239,184],"fontFamily":"Arial","fontSize":10,"fontWeight":400,"text":"GILTO"}},"geometry":{"type":"MultiPoint","coordinates":[[1.760327,49.239187]]}},
{"type":"Feature","properties":{"uuid":"LFOB_FIX_SIGNIFICANT_NAMES","textStyle":{"color":[132,239,184],"fontFamily":"Arial","fontSize":10,"fontWeight":400,"text":"MOBRO"}},"geometry":{"type":"MultiPoint","coordinates":[[1.59887,49.476851]]}},
{"type":"Feature","properties":{"uuid":"LFOB_FIX_SIGNIFICANT_NAMES","textStyle":{"color":[132,239,184],"fontFamily":"Arial","fontSize":10,"fontWeight":400,"text":"GOTRO"}},"geometry":{"type":"MultiPoint","coordinates":[[1.188771,49.606763]]}}
]}