{"type":"FeatureCollection","features":[
{"type":"Feature","properties":{"uuid":"LFOB_VFR_VRP","textStyle":{"color":[132,239,184],"fontFamily":"Arial","fontSize":12,"fontWeight":400,"text":"N"}},"geometry":{"type":"MultiPoint","coordinates":[[2.177085,49.532034]]}},
{"type":"Feature","properties":{"uuid":"LFOB_VFR_VRP","textStyle":{"color":[132,239,184],"fontFamily":"Arial","fontSize":12,"fontWeight":400,"text":"WB"}},"geometry":{"type":"MultiPoint","coordinates":[[2.040381,49.397777]]}},
{"type":"Feature","properties":{"uuid":"LFOB_VFR_VRP","textStyle":{"color":[132,239,184],"fontFamily":"Arial","fontSize":12,"fontWeight":400,"text":"W"}},"geometry":{"type":"MultiPoint","coordinates":[[1.915827,49.394811]]}},
{"type":"Feature","properties":{"uuid":"LFOB_VFR_VRP","textStyle":{"color":[132,239,184],"fontFamily":"Arial","fontSize":12,"fontWeight":400,"text":"SW"}},"geometry":{"type":"MultiPoint","coordinates":[[2.060127,49.331501]]}},
{"type":"Feature","properties":{"uuid":"LFOB_VFR_VRP","textStyle":{"color":[132,239,184],"fontFamily":"Arial","fontSize":12,"fontWeight":400,"text":"SE"}},"geometry":{"type":"MultiPoint","coordinates":[[2.225691,49.306748]]}},
{"type":"Feature","properties":{"uuid":"LFOB_VFR_VRP","textStyle":{"color":[132,239,184],"fontFamily":"Arial","fontSize":12,"fontWeight":400,"text":"S"}},"geometry":{"type":"MultiPoint","coordinates":[[2.108733,49.381958]]}}
]}