{"type":"FeatureCollection","features":[
{"type":"Feature","properties":{"name":"Paris-ORY AMG","lineStyle":{"color":[160,160,160],"width":2}},"geometry":{"type":"MultiLineString","coordinates":[[[1.468056,49.2525],[1.570556,49.299972],[1.613056,49.380278],[1.606389,49.455556],[1.663333,49.536944],[1.975547,49.499041],[2.5,49.433333],[2.602778,49.471389],[2.645345,49.48712],[2.708889,49.510556],[2.743889,49.635278],[2.782778,49.674167],[2.976389,49.6025],[3.105833,49.611944],[3.236389,49.666667],[3.351619,49.689043],[3.484722,49.714722],[3.632222,49.45],[3.683056,49.268611],[3.719724,49.223298],[3.739444,49.198889],[3.738889,49.158333],[3.661667,49.105833],[3.660338,49.002752],[3.656944,48.736667],[3.656389,48.700556],[3.73,48.683889],[3.781667,48.672222],[3.853056,48.639444],[3.81,48.600278],[3.637778,48.456944],[3.522481,48.388742],[3.424411,48.330494],[3.088275,48.131434],[3.048611,48.107778],[2.906667,48.273611],[1.897222,48.297222],[1.780982,48.131275],[1.752778,48.090833],[1.726944,48.06],[1.709167,48.049444],[1.619167,48.023056],[1.459722,48.131389],[1.393138,48.323946],[1.380513,48.360284],[1.327222,48.513056],[1.286111,48.657222],[1.374164,48.688009],[1.425278,48.705833],[1.419167,48.917222],[1.495278,49.101111],[1.488611,49.138611],[1.468056,49.2525]],[[1.613056,49.380278],[1.742195,49.375886],[1.865709,49.408398],[1.95562,49.433211],[2.248966,49.339211],[2.5,49.433333]],[[2.248966,49.339211],[2.179035,49.310206],[2.067328,49.318495],[1.912027,49.388302],[1.865709,49.408398]],[[1.912027,49.388302],[1.74946,49.028151],[1.763083,48.964989],[1.777614,48.894583],[1.678621,48.54647],[1.57872,48.610761],[1.425278,48.705833],[1.622313,49.075173],[1.742195,49.375886]],[[1.678621,48.54647],[1.872066,48.378447],[1.754001,48.377844],[1.551474,48.500756],[1.57872,48.610761]],[[1.678621,48.54647],[1.884781,48.428491],[2.400634,48.40438],[2.494178,48.504968],[2.690348,48.481495],[2.854731,48.521212],[2.982786,48.777416],[3.093585,48.84739],[3.243437,48.849781],[3.1617,49.383277],[3.154888,49.436754],[2.708889,49.510556]],[[3.154888,49.436754],[3.307465,49.46834],[3.4555,49.444136],[3.654394,49.152156],[3.661667,49.105833]],[[3.1617,49.383277],[3.369222,49.318199],[3.482746,49.042739],[3.504542,48.813612],[3.218462,48.793274],[3.08859,48.700452],[3.127642,48.628472],[2.813278,48.455778],[2.754375,48.377543],[1.872066,48.378447]],[[2.754375,48.377543],[2.896053,48.375431],[3.165786,48.610761],[3.657014,48.742144]],[[1.763083,48.964989],[2.007841,48.900553],[2.0033,48.798359],[1.992402,48.798359],[1.994222,48.653944],[2.026913,48.526024],[2.171316,48.489922],[2.372934,48.479689],[2.49554,48.55669],[2.492816,48.618567],[2.622687,48.697754],[2.726221,48.679169],[2.856093,48.727717],[2.857909,48.813911],[3.067702,48.909507],[2.867899,49.234358],[2.320259,49.141166],[2.281207,49.205885],[2.469203,49.202324],[2.499173,49.232579]],[[2.488275,49.266963],[2.181306,49.268148],[2.067328,49.318495]],[[2.499173,49.232579],[2.498562,49.23302],[2.497963,49.233468],[2.497375,49.233923],[2.4968,49.234385],[2.496238,49.234853],[2.495688,49.235327],[2.49515,49.235808],[2.494626,49.236294],[2.494115,49.236787],[2.493616,49.237285],[2.493132,49.237789],[2.49266,49.238298],[2.492203,49.238812],[2.491759,49.239332],[2.491329,49.239856],[2.490913,49.240386],[2.490511,49.24092],[2.490124,49.241458],[2.489751,49.242001],[2.489393,49.242548],[2.489049,49.243099],[2.48872,49.243653],[2.488406,49.244212],[2.488106,49.244774],[2.487822,49.245339],[2.487553,49.245907],[2.487299,49.246479],[2.48706,49.247053],[2.486837,49.247629],[2.486629,49.248208],[2.486437,49.24879],[2.48626,49.249373],[2.486099,49.249959],[2.485953,49.250546],[2.485823,49.251135],[2.485709,49.251725],[2.485611,49.252316],[2.485528,49.252908],[2.485461,49.253501],[2.48541,49.254095],[2.485375,49.25469],[2.485356,49.255284],[2.485352,49.255879],[2.485365,49.256474],[2.485393,49.257068],[2.485437,49.257662],[2.485497,49.258255],[2.485573,49.258848],[2.485665,49.25944],[2.485772,49.26003],[2.485895,49.260619],[2.486034,49.261207],[2.486189,49.261793],[2.486359,49.262377],[2.486545,49.26296],[2.486746,49.26354],[2.486962,49.264117],[2.487194,49.264692],[2.487442,49.265264],[2.487704,49.265834],[2.487982,49.2664],[2.488275,49.266963]]]}},
{"type":"Feature","properties":{"name":"Paris-CDG AMG","lineStyle":{"color":[160,160,160],"width":2}},"geometry":{"type":"MultiLineString","coordinates":[[[2.344779,48.918468],[2.240564,48.913992],[2.240564,48.942633],[2.25623,48.961419],[2.445588,49.036495],[2.587266,49.040067],[2.6547,49.031136]],[[2.719408,48.998078],[2.719408,48.946659],[2.647207,48.936369],[2.626091,48.916677]],[[2.544354,48.901008],[2.545716,48.88623],[2.469428,48.88623],[2.344779,48.918468]],[[2.6547,49.031136],[2.656562,49.030754],[2.658413,49.030352],[2.660255,49.029928],[2.662084,49.029485],[2.663902,49.02902],[2.665708,49.028536],[2.667501,49.028031],[2.66928,49.027506],[2.671046,49.026961],[2.672796,49.026397],[2.674533,49.025813],[2.676253,49.02521],[2.677958,49.024588],[2.679646,49.023946],[2.681317,49.023286],[2.682971,49.022607],[2.684607,49.02191],[2.686224,49.021194],[2.687823,49.020461],[2.689402,49.01971],[2.690961,49.018941],[2.6925,49.018154],[2.694019,49.017351],[2.695516,49.016531],[2.696992,49.015694],[2.698446,49.01484],[2.699877,49.013971],[2.701286,49.013085],[2.702671,49.012184],[2.704032,49.011267],[2.70537,49.010336],[2.706683,49.009389],[2.707971,49.008428],[2.709234,49.007452],[2.710472,49.006463],[2.711683,49.00546],[2.712868,49.004443],[2.714027,49.003413],[2.715158,49.002371],[2.716263,49.001315],[2.717339,49.000248],[2.718388,48.999169],[2.719408,48.998078]],[[2.626091,48.916677],[2.625514,48.917073],[2.624927,48.917461],[2.624329,48.917843],[2.623721,48.918217],[2.623103,48.918585],[2.622476,48.918946],[2.621839,48.919299],[2.621193,48.919645],[2.620538,48.919984],[2.619874,48.920314],[2.619201,48.920638],[2.61852,48.920953],[2.61783,48.921261],[2.617133,48.921561],[2.616427,48.921853],[2.615714,48.922136],[2.614994,48.922411],[2.614266,48.922679],[2.613531,48.922937],[2.61279,48.923187],[2.612042,48.923429],[2.611288,48.923662],[2.610528,48.923887],[2.609762,48.924102],[2.60899,48.924309],[2.608213,48.924507],[2.607431,48.924696],[2.606644,48.924877],[2.605852,48.925048],[2.605056,48.92521],[2.604255,48.925362],[2.603451,48.925506],[2.602643,48.92564],[2.601831,48.925765],[2.601017,48.925881],[2.600199,48.925988],[2.599379,48.926085],[2.598556,48.926172],[2.597731,48.926251],[2.596904,48.926319],[2.596076,48.926379],[2.595246,48.926428],[2.594415,48.926469],[2.593582,48.926499],[2.59275,48.926521],[2.591916,48.926532],[2.591083,48.926534],[2.590249,48.926527],[2.589416,48.92651],[2.588584,48.926483],[2.587752,48.926447],[2.586922,48.926402],[2.586092,48.926347],[2.585265,48.926282],[2.584439,48.926208],[2.583615,48.926125],[2.582794,48.926032],[2.581975,48.925929],[2.581159,48.925818],[2.580346,48.925697],[2.579537,48.925567],[2.578731,48.925427],[2.577929,48.925278],[2.57713,48.92512],[2.576337,48.924953],[2.575547,48.924777],[2.574763,48.924592],[2.573984,48.924398],[2.57321,48.924195],[2.572441,48.923983],[2.571678,48.923763],[2.570921,48.923533],[2.57017,48.923295],[2.569426,48.923049],[2.568689,48.922794],[2.567958,48.922531],[2.567234,48.922259],[2.566518,48.921979],[2.565809,48.921691],[2.565108,48.921395],[2.564415,48.92109],[2.56373,48.920778],[2.563053,48.920458],[2.562385,48.920131],[2.561726,48.919796],[2.561076,48.919453],[2.560435,48.919103],[2.559804,48.918746],[2.559182,48.918381],[2.558569,48.918009],[2.557967,48.917631],[2.557375,48.917245],[2.556793,48.916853],[2.556222,48.916454],[2.555661,48.916049],[2.555111,48.915637],[2.554572,48.91522],[2.554045,48.914796],[2.553528,48.914366],[2.553024,48.91393],[2.55253,48.913488],[2.552049,48.913041],[2.551579,48.912588],[2.551122,48.912131],[2.550677,48.911667],[2.550244,48.911199],[2.549823,48.910726],[2.549416,48.910249],[2.549021,48.909766],[2.548638,48.909279],[2.548269,48.908788],[2.547913,48.908293],[2.54757,48.907794],[2.547241,48.907291],[2.546924,48.906784],[2.546622,48.906273],[2.546332,48.905759],[2.546057,48.905242],[2.545795,48.904722],[2.545547,48.904199],[2.545313,48.903673],[2.545093,48.903145],[2.544887,48.902614],[2.544695,48.902081],[2.544518,48.901546],[2.544354,48.901008]]]}},
{"type":"Feature","properties":{"uuid":"Paris-ORY_AMG-Text","textStyle":{"color":[232,232,232],"fontFamily":"Arial","fontSize":10,"fontWeight":600,"text":"5000"}},"geometry":{"type":"MultiPoint","coordinates":[[1.575087,49.205588]]}},
{"type":"Feature","properties":{"uuid":"Paris-ORY_AMG-Text","textStyle":{"color":[232,232,232],"fontFamily":"Arial","fontSize":10,"fontWeight":600,"text":"7000"}},"geometry":{"type":"MultiPoint","coordinates":[[1.734929,49.442365]]}},
{"type":"Feature","properties":{"uuid":"Paris-ORY_AMG-Text","textStyle":{"color":[232,232,232],"fontFamily":"Arial","fontSize":10,"fontWeight":600,"text":"5000"}},"geometry":{"type":"MultiPoint","coordinates":[[2.141799,49.34069]]}},
{"type":"Feature","properties":{"uuid":"Paris-ORY_AMG-Text","textStyle":{"color":[232,232,232],"fontFamily":"Arial","fontSize":10,"fontWeight":600,"text":"3000"}},"geometry":{"type":"MultiPoint","coordinates":[[2.679449,49.367903]]}},
{"type":"Feature","properties":{"uuid":"Paris-ORY_AMG-Text","textStyle":{"color":[232,232,232],"fontFamily":"Arial","fontSize":10,"fontWeight":600,"text":"2000"}},"geometry":{"type":"MultiPoint","coordinates":[[2.078226,49.204401]]}},
{"type":"Feature","properties":{"uuid":"Paris-ORY_AMG-Text","textStyle":{"color":[232,232,232],"fontFamily":"Arial","fontSize":10,"fontWeight":600,"text":"4000"}},"geometry":{"type":"MultiPoint","coordinates":[[1.656824,48.863823]]}},
{"type":"Feature","properties":{"uuid":"Paris-ORY_AMG-Text","textStyle":{"color":[232,232,232],"fontFamily":"Arial","fontSize":10,"fontWeight":600,"text":"5000"}},"geometry":{"type":"MultiPoint","coordinates":[[1.620497,48.517302]]}},
{"type":"Feature","properties":{"uuid":"Paris-ORY_AMG-Text","textStyle":{"color":[232,232,232],"fontFamily":"Arial","fontSize":10,"fontWeight":600,"text":"2000"}},"geometry":{"type":"MultiPoint","coordinates":[[2.650387,48.757363]]}},
{"type":"Feature","properties":{"uuid":"Paris-ORY_AMG-Text","textStyle":{"color":[232,232,232],"fontFamily":"Arial","fontSize":10,"fontWeight":600,"text":"1500"}},"geometry":{"type":"MultiPoint","coordinates":[[2.488729,48.93666]]}},
{"type":"Feature","properties":{"uuid":"Paris-ORY_AMG-Text","textStyle":{"color":[232,232,232],"fontFamily":"Arial","fontSize":10,"fontWeight":600,"text":"7000"}},"geometry":{"type":"MultiPoint","coordinates":[[3.224365,48.417341]]}},
{"type":"Feature","properties":{"uuid":"Paris-ORY_AMG-Text","textStyle":{"color":[232,232,232],"fontFamily":"Arial","fontSize":10,"fontWeight":600,"text":"5000"}},"geometry":{"type":"MultiPoint","coordinates":[[3.309735,48.708244]]}},
{"type":"Feature","properties":{"uuid":"Paris-ORY_AMG-Text","textStyle":{"color":[232,232,232],"fontFamily":"Arial","fontSize":10,"fontWeight":600,"text":"4000"}},"geometry":{"type":"MultiPoint","coordinates":[[3.320633,49.10937]]}},
{"type":"Feature","properties":{"uuid":"Paris-ORY_AMG-Text","textStyle":{"color":[232,232,232],"fontFamily":"Arial","fontSize":10,"fontWeight":600,"text":"7000"}},"geometry":{"type":"MultiPoint","coordinates":[[3.289755,49.55797]]}},
{"type":"Feature","properties":{"uuid":"Paris-ORY_AMG-Text","textStyle":{"color":[232,232,232],"fontFamily":"Arial","fontSize":10,"fontWeight":600,"text":"2500"}},"geometry":{"type":"MultiPoint","coordinates":[[2.339785,48.84231]]}}
]}