{"type":"FeatureCollection","features":[
{"type":"Feature","properties":{"name":"Paris-ORY AMG","lineStyle":{"color":[160,160,160],"width":2}},"geometry":{"type":"MultiLineString","coordinates":[[[2.685957,48.563433],[2.689289,48.557763],[2.691707,48.551892],[2.693185,48.545886],[2.693706,48.53981],[2.693265,48.53373],[2.691867,48.527713],[2.689526,48.521825],[2.68627,48.516131],[2.682132,48.510693],[2.677159,48.505571],[2.671406,48.500821],[2.664934,48.496495],[2.657816,48.49264],[2.650128,48.4893],[2.641956,48.48651],[2.633389,48.484302],[2.62452,48.482699],[2.615447,48.48172],[2.60627,48.481374],[2.597088,48.481666],[2.588002,48.482593],[2.579113,48.484145],[2.570517,48.486303],[2.562308,48.489045],[2.554577,48.492341],[2.547408,48.496154],[2.54088,48.500443],[2.535063,48.505159],[2.530023,48.510253],[2.525814,48.515667],[2.522483,48.521342],[2.520065,48.527216],[2.518587,48.533224],[2.518066,48.539301],[2.518507,48.54538],[2.519905,48.551395],[2.522245,48.557279],[2.525502,48.562969],[2.529639,48.568401],[2.534612,48.573517],[2.540366,48.57826],[2.546837,48.582579],[2.553956,48.586427],[2.561643,48.589761],[2.569815,48.592545],[2.578383,48.594749],[2.587251,48.596348],[2.596324,48.597325],[2.605502,48.59767],[2.614684,48.597378],[2.623769,48.596454],[2.632658,48.594906],[2.641255,48.592752],[2.649463,48.590015],[2.657194,48.586726],[2.664363,48.582919],[2.670892,48.578638],[2.676708,48.573928],[2.681748,48.568841],[2.685957,48.563433]],[[3.120275,48.858676],[3.139551,48.808297],[3.150722,48.756815],[3.153665,48.704793],[3.148347,48.652798],[3.134828,48.601403],[3.113254,48.551173],[3.083863,48.502663],[3.046976,48.45641],[3.002998,48.412928],[2.952411,48.372701],[2.895768,48.336178],[2.83369,48.303768],[2.766858,48.275833],[2.696003,48.252688],[2.621902,48.234594],[2.545368,48.221752],[2.467237,48.214309],[2.388367,48.212348],[2.309621,48.215891],[2.231862,48.224899],[2.155943,48.23927],[2.082694,48.258841],[2.012919,48.283393],[1.947382,48.31265],[1.886801,48.346283],[1.831839,48.383915],[1.7831,48.425126],[1.741116,48.469457],[1.706348,48.516413],[1.679177,48.565474],[1.659901,48.616097],[1.64873,48.667723],[1.645787,48.719784],[1.651105,48.771709],[1.664624,48.82293],[1.686198,48.87289],[1.715589,48.921044],[1.752476,48.966872],[1.796454,49.009879],[1.847041,49.0496],[1.903684,49.085609],[1.965762,49.117519],[2.032594,49.144991],[2.103449,49.167729],[2.17755,49.185491],[2.254084,49.198089],[2.332215,49.205388],[2.411085,49.207311],[2.489831,49.203836],[2.56759,49.195002],[2.643509,49.180902],[2.716758,49.161686],[2.786533,49.137559],[2.85207,49.108779],[2.912651,49.075652],[2.967613,49.038533],[3.016352,48.997821],[3.058336,48.953954],[3.093104,48.907405],[3.120275,48.858676]],[[3.597176,48.959499],[3.629875,48.875894],[3.649096,48.790357],[3.654628,48.703817],[3.646412,48.617221],[3.624537,48.531521],[3.589242,48.447663],[3.540915,48.366578],[3.480084,48.28917],[3.407417,48.216306],[3.32371,48.148807],[3.229879,48.087434],[3.126953,48.032884],[3.016059,47.985777],[2.898413,47.946651],[2.775303,47.915951],[2.648078,47.894032],[2.518132,47.881142],[2.386888,47.877432],[2.255786,47.882942],[2.12626,47.897611],[1.99973,47.921269],[1.877583,47.953645],[1.761157,47.994369],[1.651727,48.042975],[1.550492,48.098909],[1.458562,48.161536],[1.376943,48.230145],[1.30653,48.303962],[1.248094,48.382158],[1.202276,48.463857],[1.169577,48.548149],[1.150356,48.634099],[1.144824,48.720759],[1.15304,48.807177],[1.174915,48.892409],[1.21021,48.97553],[1.258537,49.055641],[1.319368,49.131879],[1.392035,49.20343],[1.475742,49.26953],[1.569573,49.329478],[1.672499,49.382641],[1.783393,49.428459],[1.901039,49.466451],[2.024149,49.496219],[2.151374,49.517452],[2.28132,49.529929],[2.412564,49.533519],[2.543666,49.528187],[2.673192,49.513986],[2.799722,49.491065],[2.921869,49.459663],[3.038295,49.420109],[3.147725,49.372815],[3.24896,49.31828],[3.34089,49.257078],[3.422509,49.189856],[3.492922,49.117328],[3.551358,49.040267],[3.597176,48.959499]]]}},
{"type":"Feature","properties":{"uuid":"Paris-ORY_AMG_Altitudes","textStyle":{"color":[232,232,232],"fontFamily":"Arial","fontSize":10,"fontWeight":600,"text":"2100"}},"geometry":{"type":"MultiPoint","coordinates":[[2.605432,48.534895]]}},
{"type":"Feature","properties":{"uuid":"Paris-ORY_AMG_Altitudes","textStyle":{"color":[232,232,232],"fontFamily":"Arial","fontSize":10,"fontWeight":600,"text":"3000"}},"geometry":{"type":"MultiPoint","coordinates":[[2.651749,49.402341]]}},
{"type":"Feature","properties":{"uuid":"Paris-ORY_AMG_Altitudes","textStyle":{"color":[232,232,232],"fontFamily":"Arial","fontSize":10,"fontWeight":600,"text":"2000"}},"geometry":{"type":"MultiPoint","coordinates":[[2.384741,49.13567]]}}
]}