{"type":"FeatureCollection","features":[
{"type":"Feature","properties":{"uuid":"Paris_CDG_Trackmiles","textStyle":{"color":[172,229,173],"fontFamily":"Arial","fontSize":10,"fontWeight":400,"text":"9"}},"geometry":{"type":"MultiPoint","coordinates":[[3.682141,48.558779]]}},
{"type":"Feature","properties":{"uuid":"Paris_CDG_Trackmiles","textStyle":{"color":[172,229,173],"fontFamily":"Arial","fontSize":10,"fontWeight":400,"text":"10"}},"geometry":{"type":"MultiPoint","coordinates":[[3.885576,48.454082]]}},
{"type":"Feature","properties":{"uuid":"Paris_CDG_Trackmiles","textStyle":{"color":[172,229,173],"fontFamily":"Arial","fontSize":10,"fontWeight":400,"text":"10"}},"geometry":{"type":"MultiPoint","coordinates":[[3.840167,48.399843]]}},
{"type":"Feature","properties":{"uuid":"Paris_CDG_Trackmiles","textStyle":{"color":[172,229,173],"fontFamily":"Arial","fontSize":10,"fontWeight":400,"text":"11"}},"geometry":{"type":"MultiPoint","coordinates":[[4.083611,48.3475]]}},
{"type":"Feature","properties":{"uuid":"Paris_CDG_Trackmiles","textStyle":{"color":[172,229,173],"fontFamily":"Arial","fontSize":10,"fontWeight":400,"text":"11"}},"geometry":{"type":"MultiPoint","coordinates":[[3.958232,48.256132]]}},
{"type":"Feature","properties":{"uuid":"Paris_CDG_Trackmiles","textStyle":{"color":[172,229,173],"fontFamily":"Arial","fontSize":10,"fontWeight":400,"text":"12"}},"geometry":{"type":"MultiPoint","coordinates":[[3.925537,48.080476]]}},
{"type":"Feature","properties":{"uuid":"Paris_CDG_Trackmiles","textStyle":{"color":[172,229,173],"fontFamily":"Arial","fontSize":10,"fontWeight":400,"text":"12"}},"geometry":{"type":"MultiPoint","coordinates":[[4.11989,48.116868]]}},
{"type":"Feature","properties":{"uuid":"Paris_CDG_Trackmiles","textStyle":{"color":[172,229,173],"fontFamily":"Arial","fontSize":10,"fontWeight":400,"text":"12"}},"geometry":{"type":"MultiPoint","coordinates":[[4.268834,48.240408]]}},
{"type":"Feature","properties":{"uuid":"Paris_CDG_Trackmiles","textStyle":{"color":[172,229,173],"fontFamily":"Arial","fontSize":10,"fontWeight":400,"text":"13"}},"geometry":{"type":"MultiPoint","coordinates":[[3.891026,47.910913]]}},
{"type":"Feature","properties":{"uuid":"Paris_CDG_Trackmiles","textStyle":{"color":[172,229,173],"fontFamily":"Arial","fontSize":10,"fontWeight":400,"text":"13"}},"geometry":{"type":"MultiPoint","coordinates":[[4.279732,47.980264]]}},
{"type":"Feature","properties":{"uuid":"Paris_CDG_Trackmiles","textStyle":{"color":[172,229,173],"fontFamily":"Arial","fontSize":10,"fontWeight":400,"text":"13"}},"geometry":{"type":"MultiPoint","coordinates":[[4.419594,48.122324]]}},
{"type":"Feature","properties":{"uuid":"Paris_CDG_Trackmiles","textStyle":{"color":[172,229,173],"fontFamily":"Arial","fontSize":10,"fontWeight":400,"text":"13"}},"geometry":{"type":"MultiPoint","coordinates":[[4.519495,48.268829]]}},
{"type":"Feature","properties":{"uuid":"Paris_CDG_Trackmiles","textStyle":{"color":[172,229,173],"fontFamily":"Arial","fontSize":10,"fontWeight":400,"text":"14"}},"geometry":{"type":"MultiPoint","coordinates":[[4.762891,48.277292]]}},
{"type":"Feature","properties":{"uuid":"Paris_CDG_Trackmiles","textStyle":{"color":[172,229,173],"fontFamily":"Arial","fontSize":10,"fontWeight":400,"text":"14"}},"geometry":{"type":"MultiPoint","coordinates":[[4.673888,48.061663]]}},
{"type":"Feature","properties":{"uuid":"Paris_CDG_Trackmiles","textStyle":{"color":[172,229,173],"fontFamily":"Arial","fontSize":10,"fontWeight":400,"text":"14"}},"geometry":{"type":"MultiPoint","coordinates":[[4.597599,47.982696]]}},
{"type":"Feature","properties":{"uuid":"Paris_CDG_Trackmiles","textStyle":{"color":[172,229,173],"fontFamily":"Arial","fontSize":10,"fontWeight":400,"text":"14"}},"geometry":{"type":"MultiPoint","coordinates":[[4.426859,47.851222]]}},
{"type":"Feature","properties":{"uuid":"Paris_CDG_Trackmiles","textStyle":{"color":[172,229,173],"fontFamily":"Arial","fontSize":10,"fontWeight":400,"text":"14"}},"geometry":{"type":"MultiPoint","coordinates":[[3.856514,47.74629]]}},
{"type":"Feature","properties":{"uuid":"Paris_CDG_Trackmiles","textStyle":{"color":[172,229,173],"fontFamily":"Arial","fontSize":10,"fontWeight":400,"text":"15"}},"geometry":{"type":"MultiPoint","coordinates":[[5.017184,48.284544]]}},
{"type":"Feature","properties":{"uuid":"Paris_CDG_Trackmiles","textStyle":{"color":[172,229,173],"fontFamily":"Arial","fontSize":10,"fontWeight":400,"text":"15"}},"geometry":{"type":"MultiPoint","coordinates":[[4.913651,47.997284]]}},
{"type":"Feature","properties":{"uuid":"Paris_CDG_Trackmiles","textStyle":{"color":[172,229,173],"fontFamily":"Arial","fontSize":10,"fontWeight":400,"text":"15"}},"geometry":{"type":"MultiPoint","coordinates":[[4.753809,47.863409]]}},
{"type":"Feature","properties":{"uuid":"Paris_CDG_Trackmiles","textStyle":{"color":[172,229,173],"fontFamily":"Arial","fontSize":10,"fontWeight":400,"text":"15"}},"geometry":{"type":"MultiPoint","coordinates":[[4.5895,47.715639]]}},
{"type":"Feature","properties":{"uuid":"Paris_CDG_Trackmiles","textStyle":{"color":[172,229,173],"fontFamily":"Arial","fontSize":10,"fontWeight":400,"text":"15"}},"geometry":{"type":"MultiPoint","coordinates":[[3.81837,47.581145]]}},
{"type":"Feature","properties":{"uuid":"Paris_CDG_Trackmiles","textStyle":{"color":[172,229,173],"fontFamily":"Arial","fontSize":10,"fontWeight":400,"text":"16"}},"geometry":{"type":"MultiPoint","coordinates":[[3.782042,47.400726]]}},
{"type":"Feature","properties":{"uuid":"Paris_CDG_Trackmiles","textStyle":{"color":[172,229,173],"fontFamily":"Arial","fontSize":10,"fontWeight":400,"text":"16"}},"geometry":{"type":"MultiPoint","coordinates":[[3.894658,47.420393]]}},
{"type":"Feature","properties":{"uuid":"Paris_CDG_Trackmiles","textStyle":{"color":[172,229,173],"fontFamily":"Arial","fontSize":10,"fontWeight":400,"text":"17"}},"geometry":{"type":"MultiPoint","coordinates":[[3.742082,47.227088]]}},
{"type":"Feature","properties":{"uuid":"Paris_CDG_Trackmiles","textStyle":{"color":[172,229,173],"fontFamily":"Arial","fontSize":10,"fontWeight":400,"text":"17"}},"geometry":{"type":"MultiPoint","coordinates":[[3.987294,47.262847]]}},
{"type":"Feature","properties":{"uuid":"Paris_CDG_Trackmiles","textStyle":{"color":[172,229,173],"fontFamily":"Arial","fontSize":10,"fontWeight":400,"text":"18"}},"geometry":{"type":"MultiPoint","coordinates":[[3.703938,47.054117]]}},
{"type":"Feature","properties":{"uuid":"Paris_CDG_Trackmiles","textStyle":{"color":[172,229,173],"fontFamily":"Arial","fontSize":10,"fontWeight":400,"text":"18"}},"geometry":{"type":"MultiPoint","coordinates":[[4.085379,47.101122]]}},
{"type":"Feature","properties":{"uuid":"Paris_CDG_Trackmiles","textStyle":{"color":[172,229,173],"fontFamily":"Arial","fontSize":10,"fontWeight":400,"text":"19"}},"geometry":{"type":"MultiPoint","coordinates":[[3.66761,46.888032]]}},
{"type":"Feature","properties":{"uuid":"Paris_CDG_Trackmiles","textStyle":{"color":[172,229,173],"fontFamily":"Arial","fontSize":10,"fontWeight":400,"text":"19"}},"geometry":{"type":"MultiPoint","coordinates":[[4.176198,46.945104]]}},
{"type":"Feature","properties":{"uuid":"Paris_CDG_Trackmiles","textStyle":{"color":[172,229,173],"fontFamily":"Arial","fontSize":10,"fontWeight":400,"text":"20"}},"geometry":{"type":"MultiPoint","coordinates":[[3.633099,46.706486]]}},
{"type":"Feature","properties":{"uuid":"Paris_CDG_Trackmiles","textStyle":{"color":[172,229,173],"fontFamily":"Arial","fontSize":10,"fontWeight":400,"text":"20"}},"geometry":{"type":"MultiPoint","coordinates":[[4.259139,46.805944]]}},
{"type":"Feature","properties":{"uuid":"Paris_CDG_Trackmiles","textStyle":{"color":[172,229,173],"fontFamily":"Arial","fontSize":10,"fontWeight":400,"text":"21"}},"geometry":{"type":"MultiPoint","coordinates":[[4.354204,46.615484]]}},
{"type":"Feature","properties":{"uuid":"Paris_CDG_Trackmiles","textStyle":{"color":[172,229,173],"fontFamily":"Arial","fontSize":10,"fontWeight":400,"text":"16"}},"geometry":{"type":"MultiPoint","coordinates":[[4.730196,47.589721]]}},
{"type":"Feature","properties":{"uuid":"Paris_CDG_Trackmiles","textStyle":{"color":[172,229,173],"fontFamily":"Arial","fontSize":10,"fontWeight":400,"text":"16"}},"geometry":{"type":"MultiPoint","coordinates":[[4.912778,47.736944]]}},
{"type":"Feature","properties":{"uuid":"Paris_CDG_Trackmiles","textStyle":{"color":[172,229,173],"fontFamily":"Arial","fontSize":10,"fontWeight":400,"text":"17"}},"geometry":{"type":"MultiPoint","coordinates":[[5.077125,47.604419]]}},
{"type":"Feature","properties":{"uuid":"Paris_CDG_Trackmiles","textStyle":{"color":[172,229,173],"fontFamily":"Arial","fontSize":10,"fontWeight":400,"text":"17"}},"geometry":{"type":"MultiPoint","coordinates":[[4.879139,47.458478]]}},
{"type":"Feature","properties":{"uuid":"Paris_CDG_Trackmiles","textStyle":{"color":[172,229,173],"fontFamily":"Arial","fontSize":10,"fontWeight":400,"text":"18"}},"geometry":{"type":"MultiPoint","coordinates":[[5.207905,47.448653]]}},
{"type":"Feature","properties":{"uuid":"Paris_CDG_Trackmiles","textStyle":{"color":[172,229,173],"fontFamily":"Arial","fontSize":10,"fontWeight":400,"text":"18"}},"geometry":{"type":"MultiPoint","coordinates":[[5.035348,47.315825]]}},
{"type":"Feature","properties":{"uuid":"Paris_CDG_Trackmiles","textStyle":{"color":[172,229,173],"fontFamily":"Arial","fontSize":10,"fontWeight":400,"text":"19"}},"geometry":{"type":"MultiPoint","coordinates":[[5.171577,47.164142]]}},
{"type":"Feature","properties":{"uuid":"Paris_CDG_Trackmiles","textStyle":{"color":[172,229,173],"fontFamily":"Arial","fontSize":10,"fontWeight":400,"text":"19"}},"geometry":{"type":"MultiPoint","coordinates":[[5.342222,47.291944]]}},
{"type":"Feature","properties":{"uuid":"Paris_CDG_Trackmiles","textStyle":{"color":[172,229,173],"fontFamily":"Arial","fontSize":10,"fontWeight":400,"text":"20"}},"geometry":{"type":"MultiPoint","coordinates":[[5.126168,47.002116]]}},
{"type":"Feature","properties":{"uuid":"Paris_CDG_Trackmiles","textStyle":{"color":[172,229,173],"fontFamily":"Arial","fontSize":10,"fontWeight":400,"text":"20"}},"geometry":{"type":"MultiPoint","coordinates":[[5.449484,47.136966]]}},
{"type":"Feature","properties":{"uuid":"Paris_CDG_Trackmiles","textStyle":{"color":[172,229,173],"fontFamily":"Arial","fontSize":10,"fontWeight":400,"text":"21"}},"geometry":{"type":"MultiPoint","coordinates":[[5.113453,46.829656]]}},
{"type":"Feature","properties":{"uuid":"Paris_CDG_Trackmiles","textStyle":{"color":[172,229,173],"fontFamily":"Arial","fontSize":10,"fontWeight":400,"text":"21"}},"geometry":{"type":"MultiPoint","coordinates":[[5.5621,46.9984]]}},
{"type":"Feature","properties":{"uuid":"Paris_CDG_Trackmiles","textStyle":{"color":[172,229,173],"fontFamily":"Arial","fontSize":10,"fontWeight":400,"text":"16"}},"geometry":{"type":"MultiPoint","coordinates":[[5.1298,47.938908]]}},
{"type":"Feature","properties":{"uuid":"Paris_CDG_Trackmiles","textStyle":{"color":[172,229,173],"fontFamily":"Arial","fontSize":10,"fontWeight":400,"text":"17"}},"geometry":{"type":"MultiPoint","coordinates":[[5.353216,47.874376]]}},
{"type":"Feature","properties":{"uuid":"Paris_CDG_Trackmiles","textStyle":{"color":[172,229,173],"fontFamily":"Arial","fontSize":10,"fontWeight":400,"text":"18"}},"geometry":{"type":"MultiPoint","coordinates":[[5.608,47.832806]]}},
{"type":"Feature","properties":{"uuid":"Paris_CDG_Trackmiles","textStyle":{"color":[172,229,173],"fontFamily":"Arial","fontSize":10,"fontWeight":400,"text":"19"}},"geometry":{"type":"MultiPoint","coordinates":[[5.836374,47.773154]]}},
{"type":"Feature","properties":{"uuid":"Paris_CDG_Trackmiles","textStyle":{"color":[172,229,173],"fontFamily":"Arial","fontSize":10,"fontWeight":400,"text":"20"}},"geometry":{"type":"MultiPoint","coordinates":[[6.076137,47.719413]]}},
{"type":"Feature","properties":{"uuid":"Paris_CDG_Trackmiles","textStyle":{"color":[172,229,173],"fontFamily":"Arial","fontSize":10,"fontWeight":400,"text":"21"}},"geometry":{"type":"MultiPoint","coordinates":[[6.298028,47.667639]]}},
{"type":"Feature","properties":{"uuid":"Paris_CDG_Trackmiles","textStyle":{"color":[172,229,173],"fontFamily":"Arial","fontSize":10,"fontWeight":400,"text":"16"}},"geometry":{"type":"MultiPoint","coordinates":[[5.259672,48.293004]]}},
{"type":"Feature","properties":{"uuid":"Paris_CDG_Trackmiles","textStyle":{"color":[172,229,173],"fontFamily":"Arial","fontSize":10,"fontWeight":400,"text":"17"}},"geometry":{"type":"MultiPoint","coordinates":[[5.515782,48.302671]]}},
{"type":"Feature","properties":{"uuid":"Paris_CDG_Trackmiles","textStyle":{"color":[172,229,173],"fontFamily":"Arial","fontSize":10,"fontWeight":400,"text":"19"}},"geometry":{"type":"MultiPoint","coordinates":[[5.759178,48.306296]]}},
{"type":"Feature","properties":{"uuid":"Paris_CDG_Trackmiles","textStyle":{"color":[172,229,173],"fontFamily":"Arial","fontSize":10,"fontWeight":400,"text":"20"}},"geometry":{"type":"MultiPoint","coordinates":[[6.033452,48.317168]]}},
{"type":"Feature","properties":{"uuid":"Paris_CDG_Trackmiles","textStyle":{"color":[172,229,173],"fontFamily":"Arial","fontSize":10,"fontWeight":400,"text":"21"}},"geometry":{"type":"MultiPoint","coordinates":[[6.267766,48.322]]}},
{"type":"Feature","properties":{"uuid":"Paris_CDG_Trackmiles","textStyle":{"color":[172,229,173],"fontFamily":"Arial","fontSize":10,"fontWeight":400,"text":"10"}},"geometry":{"type":"MultiPoint","coordinates":[[3.811105,49.488389]]}},
{"type":"Feature","properties":{"uuid":"Paris_CDG_Trackmiles","textStyle":{"color":[172,229,173],"fontFamily":"Arial","fontSize":10,"fontWeight":400,"text":"11"}},"geometry":{"type":"MultiPoint","coordinates":[[4.053592,49.591524]]}},
{"type":"Feature","properties":{"uuid":"Paris_CDG_Trackmiles","textStyle":{"color":[172,229,173],"fontFamily":"Arial","fontSize":10,"fontWeight":400,"text":"12"}},"geometry":{"type":"MultiPoint","coordinates":[[3.974579,49.73496]]}},
{"type":"Feature","properties":{"uuid":"Paris_CDG_Trackmiles","textStyle":{"color":[172,229,173],"fontFamily":"Arial","fontSize":10,"fontWeight":400,"text":"12"}},"geometry":{"type":"MultiPoint","coordinates":[[4.074481,49.717347]]}},
{"type":"Feature","properties":{"uuid":"Paris_CDG_Trackmiles","textStyle":{"color":[172,229,173],"fontFamily":"Arial","fontSize":10,"fontWeight":400,"text":"12"}},"geometry":{"type":"MultiPoint","coordinates":[[4.288814,49.638011]]}},
{"type":"Feature","properties":{"uuid":"Paris_CDG_Trackmiles","textStyle":{"color":[172,229,173],"fontFamily":"Arial","fontSize":10,"fontWeight":400,"text":"12"}},"geometry":{"type":"MultiPoint","coordinates":[[4.303345,49.595056]]}},
{"type":"Feature","properties":{"uuid":"Paris_CDG_Trackmiles","textStyle":{"color":[172,229,173],"fontFamily":"Arial","fontSize":10,"fontWeight":400,"text":"13"}},"geometry":{"type":"MultiPoint","coordinates":[[3.947334,49.890847]]}},
{"type":"Feature","properties":{"uuid":"Paris_CDG_Trackmiles","textStyle":{"color":[172,229,173],"fontFamily":"Arial","fontSize":10,"fontWeight":400,"text":"13"}},"geometry":{"type":"MultiPoint","coordinates":[[4.084471,49.869779]]}},
{"type":"Feature","properties":{"uuid":"Paris_CDG_Trackmiles","textStyle":{"color":[172,229,173],"fontFamily":"Arial","fontSize":10,"fontWeight":400,"text":"13"}},"geometry":{"type":"MultiPoint","coordinates":[[4.538567,49.684453]]}},
{"type":"Feature","properties":{"uuid":"Paris_CDG_Trackmiles","textStyle":{"color":[172,229,173],"fontFamily":"Arial","fontSize":10,"fontWeight":400,"text":"13"}},"geometry":{"type":"MultiPoint","coordinates":[[4.551282,49.596233]]}},
{"type":"Feature","properties":{"uuid":"Paris_CDG_Trackmiles","textStyle":{"color":[172,229,173],"fontFamily":"Arial","fontSize":10,"fontWeight":400,"text":"14"}},"geometry":{"type":"MultiPoint","coordinates":[[3.918271,50.055564]]}},
{"type":"Feature","properties":{"uuid":"Paris_CDG_Trackmiles","textStyle":{"color":[172,229,173],"fontFamily":"Arial","fontSize":10,"fontWeight":400,"text":"14"}},"geometry":{"type":"MultiPoint","coordinates":[[4.101726,50.032234]]}},
{"type":"Feature","properties":{"uuid":"Paris_CDG_Trackmiles","textStyle":{"color":[172,229,173],"fontFamily":"Arial","fontSize":10,"fontWeight":400,"text":"14"}},"geometry":{"type":"MultiPoint","coordinates":[[4.782871,49.727916]]}},
{"type":"Feature","properties":{"uuid":"Paris_CDG_Trackmiles","textStyle":{"color":[172,229,173],"fontFamily":"Arial","fontSize":10,"fontWeight":400,"text":"14"}},"geometry":{"type":"MultiPoint","coordinates":[[4.811933,49.593879]]}},
{"type":"Feature","properties":{"uuid":"Paris_CDG_Trackmiles","textStyle":{"color":[172,229,173],"fontFamily":"Arial","fontSize":10,"fontWeight":400,"text":"15"}},"geometry":{"type":"MultiPoint","coordinates":[[3.909189,50.217392]]}},
{"type":"Feature","properties":{"uuid":"Paris_CDG_Trackmiles","textStyle":{"color":[172,229,173],"fontFamily":"Arial","fontSize":10,"fontWeight":400,"text":"15"}},"geometry":{"type":"MultiPoint","coordinates":[[4.132605,50.192978]]}},
{"type":"Feature","properties":{"uuid":"Paris_CDG_Trackmiles","textStyle":{"color":[172,229,173],"fontFamily":"Arial","fontSize":10,"fontWeight":400,"text":"15"}},"geometry":{"type":"MultiPoint","coordinates":[[5.037165,49.744351]]}},
{"type":"Feature","properties":{"uuid":"Paris_CDG_Trackmiles","textStyle":{"color":[172,229,173],"fontFamily":"Arial","fontSize":10,"fontWeight":400,"text":"15"}},"geometry":{"type":"MultiPoint","coordinates":[[5.06986,49.580926]]}},
{"type":"Feature","properties":{"uuid":"Paris_CDG_Trackmiles","textStyle":{"color":[172,229,173],"fontFamily":"Arial","fontSize":10,"fontWeight":400,"text":"16"}},"geometry":{"type":"MultiPoint","coordinates":[[3.887393,50.375198]]}},
{"type":"Feature","properties":{"uuid":"Paris_CDG_Trackmiles","textStyle":{"color":[172,229,173],"fontFamily":"Arial","fontSize":10,"fontWeight":400,"text":"16"}},"geometry":{"type":"MultiPoint","coordinates":[[4.128972,50.356659]]}},
{"type":"Feature","properties":{"uuid":"Paris_CDG_Trackmiles","textStyle":{"color":[172,229,173],"fontFamily":"Arial","fontSize":10,"fontWeight":400,"text":"16"}},"geometry":{"type":"MultiPoint","coordinates":[[5.28056,49.822928]]}},
{"type":"Feature","properties":{"uuid":"Paris_CDG_Trackmiles","textStyle":{"color":[172,229,173],"fontFamily":"Arial","fontSize":10,"fontWeight":400,"text":"16"}},"geometry":{"type":"MultiPoint","coordinates":[[5.329603,49.591524]]}},
{"type":"Feature","properties":{"uuid":"Paris_CDG_Trackmiles","textStyle":{"color":[172,229,173],"fontFamily":"Arial","fontSize":10,"fontWeight":400,"text":"17"}},"geometry":{"type":"MultiPoint","coordinates":[[5.527589,49.858071]]}},
{"type":"Feature","properties":{"uuid":"Paris_CDG_Trackmiles","textStyle":{"color":[172,229,173],"fontFamily":"Arial","fontSize":10,"fontWeight":400,"text":"17"}},"geometry":{"type":"MultiPoint","coordinates":[[5.584167,49.608333]]}},
{"type":"Feature","properties":{"uuid":"Paris_CDG_Trackmiles","textStyle":{"color":[172,229,173],"fontFamily":"Arial","fontSize":10,"fontWeight":400,"text":"17"}},"geometry":{"type":"MultiPoint","coordinates":[[-0.851556,47.500831]]}},
{"type":"Feature","properties":{"uuid":"Paris_CDG_Trackmiles","textStyle":{"color":[172,229,173],"fontFamily":"Arial","fontSize":10,"fontWeight":400,"text":"17"}},"geometry":{"type":"MultiPoint","coordinates":[[0.494385,46.944484]]}},
{"type":"Feature","properties":{"uuid":"Paris_CDG_Trackmiles","textStyle":{"color":[172,229,173],"fontFamily":"Arial","fontSize":10,"fontWeight":400,"text":"16"}},"geometry":{"type":"MultiPoint","coordinates":[[-0.611793,47.560925]]}},
{"type":"Feature","properties":{"uuid":"Paris_CDG_Trackmiles","textStyle":{"color":[172,229,173],"fontFamily":"Arial","fontSize":10,"fontWeight":400,"text":"16"}},"geometry":{"type":"MultiPoint","coordinates":[[0.468956,47.116575]]}},
{"type":"Feature","properties":{"uuid":"Paris_CDG_Trackmiles","textStyle":{"color":[172,229,173],"fontFamily":"Arial","fontSize":10,"fontWeight":400,"text":"15"}},"geometry":{"type":"MultiPoint","coordinates":[[-0.37748,47.613604]]}},
{"type":"Feature","properties":{"uuid":"Paris_CDG_Trackmiles","textStyle":{"color":[172,229,173],"fontFamily":"Arial","fontSize":10,"fontWeight":400,"text":"15"}},"geometry":{"type":"MultiPoint","coordinates":[[0.423546,47.285647]]}},
{"type":"Feature","properties":{"uuid":"Paris_CDG_Trackmiles","textStyle":{"color":[172,229,173],"fontFamily":"Arial","fontSize":10,"fontWeight":400,"text":"14"}},"geometry":{"type":"MultiPoint","coordinates":[[-0.139533,47.674792]]}},
{"type":"Feature","properties":{"uuid":"Paris_CDG_Trackmiles","textStyle":{"color":[172,229,173],"fontFamily":"Arial","fontSize":10,"fontWeight":400,"text":"14"}},"geometry":{"type":"MultiPoint","coordinates":[[0.387218,47.455408]]}},
{"type":"Feature","properties":{"uuid":"Paris_CDG_Trackmiles","textStyle":{"color":[172,229,173],"fontFamily":"Arial","fontSize":10,"fontWeight":400,"text":"13"}},"geometry":{"type":"MultiPoint","coordinates":[[0.092964,47.729799]]}},
{"type":"Feature","properties":{"uuid":"Paris_CDG_Trackmiles","textStyle":{"color":[172,229,173],"fontFamily":"Arial","fontSize":10,"fontWeight":400,"text":"13"}},"geometry":{"type":"MultiPoint","coordinates":[[0.343625,47.629519]]}},
{"type":"Feature","properties":{"uuid":"Paris_CDG_Trackmiles","textStyle":{"color":[172,229,173],"fontFamily":"Arial","fontSize":10,"fontWeight":400,"text":"12"}},"geometry":{"type":"MultiPoint","coordinates":[[0.312747,47.784749]]}},
{"type":"Feature","properties":{"uuid":"Paris_CDG_Trackmiles","textStyle":{"color":[172,229,173],"fontFamily":"Arial","fontSize":10,"fontWeight":400,"text":"12"}},"geometry":{"type":"MultiPoint","coordinates":[[0.227377,47.890821]]}},
{"type":"Feature","properties":{"uuid":"Paris_CDG_Trackmiles","textStyle":{"color":[172,229,173],"fontFamily":"Arial","fontSize":10,"fontWeight":400,"text":"12"}},"geometry":{"type":"MultiPoint","coordinates":[[0.972095,47.715136]]}},
{"type":"Feature","properties":{"uuid":"Paris_CDG_Trackmiles","textStyle":{"color":[172,229,173],"fontFamily":"Arial","fontSize":10,"fontWeight":400,"text":"13"}},"geometry":{"type":"MultiPoint","coordinates":[[-0.019652,47.861581]]}},
{"type":"Feature","properties":{"uuid":"Paris_CDG_Trackmiles","textStyle":{"color":[172,229,173],"fontFamily":"Arial","fontSize":10,"fontWeight":400,"text":"14"}},"geometry":{"type":"MultiPoint","coordinates":[[-0.263047,47.827448]]}},
{"type":"Feature","properties":{"uuid":"Paris_CDG_Trackmiles","textStyle":{"color":[172,229,173],"fontFamily":"Arial","fontSize":10,"fontWeight":400,"text":"11"}},"geometry":{"type":"MultiPoint","coordinates":[[0.458057,47.9383]]}},
{"type":"Feature","properties":{"uuid":"Paris_CDG_Trackmiles","textStyle":{"color":[172,229,173],"fontFamily":"Arial","fontSize":10,"fontWeight":400,"text":"11"}},"geometry":{"type":"MultiPoint","coordinates":[[0.903056,47.886167]]}},
{"type":"Feature","properties":{"uuid":"Paris_CDG_Trackmiles","textStyle":{"color":[172,229,173],"fontFamily":"Arial","fontSize":10,"fontWeight":400,"text":"10"}},"geometry":{"type":"MultiPoint","coordinates":[[0.581572,48.093822]]}},
{"type":"Feature","properties":{"uuid":"Paris_CDG_Trackmiles","textStyle":{"color":[172,229,173],"fontFamily":"Arial","fontSize":10,"fontWeight":400,"text":"10"}},"geometry":{"type":"MultiPoint","coordinates":[[0.823151,48.048915]]}},
{"type":"Feature","properties":{"uuid":"Paris_CDG_Trackmiles","textStyle":{"color":[172,229,173],"fontFamily":"Arial","fontSize":10,"fontWeight":400,"text":"9"}},"geometry":{"type":"MultiPoint","coordinates":[[0.744444,48.253056]]}},
{"type":"Feature","properties":{"uuid":"Paris_CDG_Trackmiles","textStyle":{"color":[172,229,173],"fontFamily":"Arial","fontSize":10,"fontWeight":400,"text":"8"}},"geometry":{"type":"MultiPoint","coordinates":[[0.888541,48.358824]]}},
{"type":"Feature","properties":{"uuid":"Paris_CDG_Trackmiles","textStyle":{"color":[172,229,173],"fontFamily":"Arial","fontSize":10,"fontWeight":400,"text":"7"}},"geometry":{"type":"MultiPoint","coordinates":[[1.119222,48.438419]]}},
{"type":"Feature","properties":{"uuid":"Paris_CDG_Trackmiles","textStyle":{"color":[172,229,173],"fontFamily":"Arial","fontSize":10,"fontWeight":400,"text":"6"}},"geometry":{"type":"MultiPoint","coordinates":[[1.327222,48.513056]]}},
{"type":"Feature","properties":{"uuid":"Paris_CDG_Trackmiles","textStyle":{"color":[172,229,173],"fontFamily":"Arial","fontSize":10,"fontWeight":400,"text":"18"}},"geometry":{"type":"MultiPoint","coordinates":[[-1.701625,49.475998]]}},
{"type":"Feature","properties":{"uuid":"Paris_CDG_Trackmiles","textStyle":{"color":[172,229,173],"fontFamily":"Arial","fontSize":10,"fontWeight":400,"text":"17"}},"geometry":{"type":"MultiPoint","coordinates":[[-1.441881,49.453569]]}},
{"type":"Feature","properties":{"uuid":"Paris_CDG_Trackmiles","textStyle":{"color":[172,229,173],"fontFamily":"Arial","fontSize":10,"fontWeight":400,"text":"16"}},"geometry":{"type":"MultiPoint","coordinates":[[-1.187588,49.435854]]}},
{"type":"Feature","properties":{"uuid":"Paris_CDG_Trackmiles","textStyle":{"color":[172,229,173],"fontFamily":"Arial","fontSize":10,"fontWeight":400,"text":"15"}},"geometry":{"type":"MultiPoint","coordinates":[[-0.933294,49.411043]]}},
{"type":"Feature","properties":{"uuid":"Paris_CDG_Trackmiles","textStyle":{"color":[172,229,173],"fontFamily":"Arial","fontSize":10,"fontWeight":400,"text":"14"}},"geometry":{"type":"MultiPoint","coordinates":[[-0.673551,49.386219]]}},
{"type":"Feature","properties":{"uuid":"Paris_CDG_Trackmiles","textStyle":{"color":[172,229,173],"fontFamily":"Arial","fontSize":10,"fontWeight":400,"text":"13"}},"geometry":{"type":"MultiPoint","coordinates":[[-0.424706,49.367297]]}},
{"type":"Feature","properties":{"uuid":"Paris_CDG_Trackmiles","textStyle":{"color":[172,229,173],"fontFamily":"Arial","fontSize":10,"fontWeight":400,"text":"12"}},"geometry":{"type":"MultiPoint","coordinates":[[-0.174045,49.346001]]}},
{"type":"Feature","properties":{"uuid":"Paris_CDG_Trackmiles","textStyle":{"color":[172,229,173],"fontFamily":"Arial","fontSize":10,"fontWeight":400,"text":"11"}},"geometry":{"type":"MultiPoint","coordinates":[[0.076617,49.329431]]}},
{"type":"Feature","properties":{"uuid":"Paris_CDG_Trackmiles","textStyle":{"color":[172,229,173],"fontFamily":"Arial","fontSize":10,"fontWeight":400,"text":"10"}},"geometry":{"type":"MultiPoint","coordinates":[[0.332727,49.316408]]}},
{"type":"Feature","properties":{"uuid":"Paris_CDG_Trackmiles","textStyle":{"color":[172,229,173],"fontFamily":"Arial","fontSize":10,"fontWeight":400,"text":"9"}},"geometry":{"type":"MultiPoint","coordinates":[[0.574306,49.310488]]}},
{"type":"Feature","properties":{"uuid":"Paris_CDG_Trackmiles","textStyle":{"color":[172,229,173],"fontFamily":"Arial","fontSize":10,"fontWeight":400,"text":"8"}},"geometry":{"type":"MultiPoint","coordinates":[[0.8286,49.306935]]}},
{"type":"Feature","properties":{"uuid":"Paris_CDG_Trackmiles","textStyle":{"color":[172,229,173],"fontFamily":"Arial","fontSize":10,"fontWeight":400,"text":"7"}},"geometry":{"type":"MultiPoint","coordinates":[[1.085921,49.30654]]}},
{"type":"Feature","properties":{"uuid":"Paris_CDG_Trackmiles","textStyle":{"color":[172,229,173],"fontFamily":"Arial","fontSize":10,"fontWeight":400,"text":"6"}},"geometry":{"type":"MultiPoint","coordinates":[[1.339913,49.302987]]}},
{"type":"Feature","properties":{"uuid":"Paris_CDG_Trackmiles","textStyle":{"color":[172,229,173],"fontFamily":"Arial","fontSize":10,"fontWeight":400,"text":"5"}},"geometry":{"type":"MultiPoint","coordinates":[[1.596326,49.298249]]}},
{"type":"Feature","properties":{"uuid":"Paris_CDG_Trackmiles","textStyle":{"color":[172,229,173],"fontFamily":"Arial","fontSize":10,"fontWeight":400,"text":"6"}},"geometry":{"type":"MultiPoint","coordinates":[[1.47039,49.438216]]}},
{"type":"Feature","properties":{"uuid":"Paris_CDG_Trackmiles","textStyle":{"color":[172,229,173],"fontFamily":"Arial","fontSize":10,"fontWeight":400,"text":"7"}},"geometry":{"type":"MultiPoint","coordinates":[[1.362617,49.586814]]}},
{"type":"Feature","properties":{"uuid":"Paris_CDG_Trackmiles","textStyle":{"color":[172,229,173],"fontFamily":"Arial","fontSize":10,"fontWeight":400,"text":"8"}},"geometry":{"type":"MultiPoint","coordinates":[[1.254845,49.73496]]}},
{"type":"Feature","properties":{"uuid":"Paris_CDG_Trackmiles","textStyle":{"color":[172,229,173],"fontFamily":"Arial","fontSize":10,"fontWeight":400,"text":"9"}},"geometry":{"type":"MultiPoint","coordinates":[[1.137386,49.884216]]}},
{"type":"Feature","properties":{"uuid":"Paris_CDG_Trackmiles","textStyle":{"color":[172,229,173],"fontFamily":"Arial","fontSize":10,"fontWeight":400,"text":"10"}},"geometry":{"type":"MultiPoint","coordinates":[[1.029613,50.03379]]}},
{"type":"Feature","properties":{"uuid":"Paris_CDG_Trackmiles","textStyle":{"color":[172,229,173],"fontFamily":"Arial","fontSize":10,"fontWeight":400,"text":"11"}},"geometry":{"type":"MultiPoint","coordinates":[[0.889146,50.16351]]}},
{"type":"Feature","properties":{"uuid":"Paris_CDG_Trackmiles","textStyle":{"color":[172,229,173],"fontFamily":"Arial","fontSize":10,"fontWeight":400,"text":"12"}},"geometry":{"type":"MultiPoint","coordinates":[[0.729304,50.289011]]}},
{"type":"Feature","properties":{"uuid":"Paris_CDG_Trackmiles","textStyle":{"color":[172,229,173],"fontFamily":"Arial","fontSize":10,"fontWeight":400,"text":"13"}},"geometry":{"type":"MultiPoint","coordinates":[[0.562197,50.415725]]}},
{"type":"Feature","properties":{"uuid":"Paris_CDG_Trackmiles","textStyle":{"color":[172,229,173],"fontFamily":"Arial","fontSize":10,"fontWeight":400,"text":"14"}},"geometry":{"type":"MultiPoint","coordinates":[[0.397511,50.54364]]}},
{"type":"Feature","properties":{"uuid":"Paris_CDG_Trackmiles","textStyle":{"color":[172,229,173],"fontFamily":"Arial","fontSize":10,"fontWeight":400,"text":"15"}},"geometry":{"type":"MultiPoint","coordinates":[[0.244935,50.669674]]}},
{"type":"Feature","properties":{"uuid":"Paris_CDG_Trackmiles","textStyle":{"color":[172,229,173],"fontFamily":"Arial","fontSize":10,"fontWeight":400,"text":"16"}},"geometry":{"type":"MultiPoint","coordinates":[[0.060875,50.789247]]}},
{"type":"Feature","properties":{"uuid":"Paris_CDG_Trackmiles","textStyle":{"color":[172,229,173],"fontFamily":"Arial","fontSize":10,"fontWeight":400,"text":"17"}},"geometry":{"type":"MultiPoint","coordinates":[[-0.159514,50.937521]]}},
{"type":"Feature","properties":{"uuid":"Paris_CDG_Trackmiles","textStyle":{"color":[172,229,173],"fontFamily":"Arial","fontSize":10,"fontWeight":400,"text":"18"}},"geometry":{"type":"MultiPoint","coordinates":[[-0.299981,51.030524]]}},
{"type":"Feature","properties":{"uuid":"Paris_CDG_Trackmiles","textStyle":{"color":[172,229,173],"fontFamily":"Arial","fontSize":10,"fontWeight":400,"text":"19"}},"geometry":{"type":"MultiPoint","coordinates":[[-0.474354,51.155251]]}},
{"type":"Feature","properties":{"uuid":"Paris_CDG_Trackmiles","textStyle":{"color":[172,229,173],"fontFamily":"Arial","fontSize":10,"fontWeight":400,"text":"20"}},"geometry":{"type":"MultiPoint","coordinates":[[-0.668101,51.269037]]}},
{"type":"Feature","properties":{"uuid":"Paris_CDG_Trackmiles","textStyle":{"color":[172,229,173],"fontFamily":"Arial","fontSize":10,"fontWeight":400,"text":"21"}},"geometry":{"type":"MultiPoint","coordinates":[[-0.835209,51.391609]]}},
{"type":"Feature","properties":{"uuid":"Paris_CDG_Trackmiles","textStyle":{"color":[172,229,173],"fontFamily":"Arial","fontSize":10,"fontWeight":400,"text":"4"},"activation":{"activeRunways":{"LFPG":{"arr":["08R","09L"]}}}},"geometry":{"type":"MultiPoint","coordinates":[[1.813081,49.238593]]}},
{"type":"Feature","properties":{"uuid":"Paris_CDG_Trackmiles","textStyle":{"color":[172,229,173],"fontFamily":"Arial","fontSize":10,"fontWeight":400,"text":"3"},"activation":{"activeRunways":{"LFPG":{"arr":["08R","09L"]}}}},"geometry":{"type":"MultiPoint","coordinates":[[1.907533,49.083388]]}},
{"type":"Feature","properties":{"uuid":"Paris_CDG_Trackmiles","textStyle":{"color":[172,229,173],"fontFamily":"Arial","fontSize":10,"fontWeight":400,"text":"3"},"activation":{"activeRunways":{"LFPG":{"arr":["08R","09L"]}}}},"geometry":{"type":"MultiPoint","coordinates":[[2.132765,49.143627]]}},
{"type":"Feature","properties":{"uuid":"Paris_CDG_Trackmiles","textStyle":{"color":[172,229,173],"fontFamily":"Arial","fontSize":10,"fontWeight":400,"text":"4"},"activation":{"activeRunways":{"LFPG":{"arr":["08R","09L"]}}}},"geometry":{"type":"MultiPoint","coordinates":[[2.387059,49.158676]]}},
{"type":"Feature","properties":{"uuid":"Paris_CDG_Trackmiles","textStyle":{"color":[172,229,173],"fontFamily":"Arial","fontSize":10,"fontWeight":400,"text":"5"},"activation":{"activeRunways":{"LFPG":{"arr":["08R","09L"]}}}},"geometry":{"type":"MultiPoint","coordinates":[[2.619556,49.176094]]}},
{"type":"Feature","properties":{"uuid":"Paris_CDG_Trackmiles","textStyle":{"color":[172,229,173],"fontFamily":"Arial","fontSize":10,"fontWeight":400,"text":"6"},"activation":{"activeRunways":{"LFPG":{"arr":["08R","09L"]}}}},"geometry":{"type":"MultiPoint","coordinates":[[2.885959,49.252822]]}},
{"type":"Feature","properties":{"uuid":"Paris_CDG_Trackmiles","textStyle":{"color":[172,229,173],"fontFamily":"Arial","fontSize":10,"fontWeight":400,"text":"7"},"activation":{"activeRunways":{"LFPG":{"arr":["08R","09L"]}}}},"geometry":{"type":"MultiPoint","coordinates":[[3.132987,49.315224]]}},
{"type":"Feature","properties":{"uuid":"Paris_CDG_Trackmiles","textStyle":{"color":[172,229,173],"fontFamily":"Arial","fontSize":10,"fontWeight":400,"text":"8"},"activation":{"activeRunways":{"LFPG":{"arr":["08R","09L"]}}}},"geometry":{"type":"MultiPoint","coordinates":[[3.354586,49.369663]]}},
{"type":"Feature","properties":{"uuid":"Paris_CDG_Trackmiles","textStyle":{"color":[172,229,173],"fontFamily":"Arial","fontSize":10,"fontWeight":400,"text":"9"},"activation":{"activeRunways":{"LFPG":{"arr":["08R","09L"]}}}},"geometry":{"type":"MultiPoint","coordinates":[[3.588295,49.42089]]}},
{"type":"Feature","properties":{"uuid":"Paris_CDG_Trackmiles","textStyle":{"color":[172,229,173],"fontFamily":"Arial","fontSize":10,"fontWeight":400,"text":"8"},"activation":{"activeRunways":{"LFPG":{"arr":["08R","09L"]}}}},"geometry":{"type":"MultiPoint","coordinates":[[3.478706,48.642862]]}},
{"type":"Feature","properties":{"uuid":"Paris_CDG_Trackmiles","textStyle":{"color":[172,229,173],"fontFamily":"Arial","fontSize":10,"fontWeight":400,"text":"7"},"activation":{"activeRunways":{"LFPG":{"arr":["08R","09L"]}}}},"geometry":{"type":"MultiPoint","coordinates":[[3.269822,48.733993]]}},
{"type":"Feature","properties":{"uuid":"Paris_CDG_Trackmiles","textStyle":{"color":[172,229,173],"fontFamily":"Arial","fontSize":10,"fontWeight":400,"text":"6"},"activation":{"activeRunways":{"LFPG":{"arr":["08R","09L"]}}}},"geometry":{"type":"MultiPoint","coordinates":[[3.037325,48.833329]]}},
{"type":"Feature","properties":{"uuid":"Paris_CDG_Trackmiles","textStyle":{"color":[172,229,173],"fontFamily":"Arial","fontSize":10,"fontWeight":400,"text":"5"},"activation":{"activeRunways":{"LFPG":{"arr":["08R","09L"]}}}},"geometry":{"type":"MultiPoint","coordinates":[[2.902912,48.927695]]}},
{"type":"Feature","properties":{"uuid":"Paris_CDG_Trackmiles","textStyle":{"color":[172,229,173],"fontFamily":"Arial","fontSize":10,"fontWeight":400,"text":"4"},"activation":{"activeRunways":{"LFPG":{"arr":["08R","09L"]}}}},"geometry":{"type":"MultiPoint","coordinates":[[2.61774,48.905613]]}},
{"type":"Feature","properties":{"uuid":"Paris_CDG_Trackmiles","textStyle":{"color":[172,229,173],"fontFamily":"Arial","fontSize":10,"fontWeight":400,"text":"3"},"activation":{"activeRunways":{"LFPG":{"arr":["08R","09L"]}}}},"geometry":{"type":"MultiPoint","coordinates":[[2.362537,48.893075]]}},
{"type":"Feature","properties":{"uuid":"Paris_CDG_Trackmiles","textStyle":{"color":[172,229,173],"fontFamily":"Arial","fontSize":10,"fontWeight":400,"text":"3"},"activation":{"activeRunways":{"LFPG":{"arr":["08R","09L"]}}}},"geometry":{"type":"MultiPoint","coordinates":[[1.860761,48.860224]]}}
]}