{"type":"FeatureCollection","features":[
{"type":"Feature","properties":{"name":"Paris-CDG Night Procedures","lineStyle":{"color":[83,147,199],"width":1,"dashArray":[3.0,3.0]},"activation":{"activeRunways":{"LFPG":{"arr":["27R"]}}}},"geometry":{"type":"MultiLineString","coordinates":[[[1.606444,49.455444],[2.153194,49.436361],[2.533611,49.358611],[2.967889,49.201389],[2.984222,49.048583],[3.144806,49.114917],[3.325972,49.2745],[3.451389,49.419417],[3.632222,49.45]],[[2.984222,49.048583],[3.267111,48.950556],[3.5635,48.611306]],[[1.570556,49.299972],[1.757278,49.291722],[2.514778,49.255278],[2.967889,49.201389]],[[1.5055,48.574194],[1.963861,48.888083],[2.459417,48.916222],[2.729778,48.870972],[3.006389,48.885],[2.984222,49.048583]]]}},
{"type":"Feature","properties":{"name":"Paris-CDG Night Procedures","lineStyle":{"color":[83,147,199],"width":1,"dashArray":[3.0,3.0]},"activation":{"activeRunways":{"LFPG":{"arr":["26L"]}}}},"geometry":{"type":"MultiLineString","coordinates":[[[2.956444,49.013194],[2.967889,49.201389],[2.514778,49.255278],[1.757278,49.291722],[1.570556,49.299972]],[[1.606444,49.455444],[2.153194,49.436361],[2.533611,49.358611],[2.967889,49.201389],[2.956444,49.013194]],[[2.956444,49.013194],[3.144806,49.114917],[3.325972,49.2745],[3.451389,49.419417],[3.632222,49.45]],[[2.956444,49.013194],[3.006389,48.885],[2.729778,48.870972],[2.459611,48.916333],[1.963861,48.888083],[1.5055,48.574194]],[[2.956444,49.013194],[3.267111,48.950556],[3.5635,48.611306]]]}},
{"type":"Feature","properties":{"name":"Paris-CDG Night Procedures","lineStyle":{"color":[83,147,199],"width":1,"dashArray":[3.0,3.0]},"activation":{"activeRunways":{"LFPG":{"arr":["09L"]}}}},"geometry":{"type":"MultiLineString","coordinates":[[[3.451389,49.419417],[2.573528,49.181056],[2.370389,49.176639],[2.114222,49.159944],[2.175333,49.005361],[1.995806,48.878],[1.635278,48.749722],[1.5055,48.574194]],[[1.757278,49.291722],[2.114222,49.159944]],[[2.370389,49.176639],[2.589611,49.108278],[2.859333,48.937722],[3.013861,48.844639],[3.5635,48.611306]]]}},
{"type":"Feature","properties":{"name":"Paris-CDG Night Procedures","lineStyle":{"color":[83,147,199],"width":1,"dashArray":[3.0,3.0]},"activation":{"activeRunways":{"LFPG":{"arr":["08R"]}}}},"geometry":{"type":"MultiLineString","coordinates":[[[3.451389,49.419417],[2.573528,49.181056],[2.370389,49.176639],[2.114222,49.159944],[2.139722,48.969333],[1.995806,48.878],[1.635278,48.749722],[1.5055,48.574194]],[[1.757278,49.291722],[1.954028,48.999111],[2.139722,48.969333]],[[2.139722,48.969333],[2.114222,49.159944],[2.370389,49.176639],[2.589611,49.108278],[2.859333,48.937722],[3.013861,48.844639],[3.5635,48.611306]]]}}
]}