{"type":"FeatureCollection","features":[
{"type":"Feature","properties":{"uuid":"EGA_Paris_Point_IFR_Names","textStyle":{"color":[41,36,35],"fontFamily":"Arial","fontSize":10,"fontWeight":400,"text":"BIBAX"}},"geometry":{"type":"MultiPoint","coordinates":[[1.00618,50.083672]]}},
{"type":"Feature","properties":{"uuid":"EGA_Paris_Point_IFR_Names","textStyle":{"color":[41,36,35],"fontFamily":"Arial","fontSize":10,"fontWeight":400,"text":"LUKIP"}},"geometry":{"type":"MultiPoint","coordinates":[[0.495776,49.341397]]}},
{"type":"Feature","properties":{"uuid":"EGA_Paris_Point_IFR_Names","textStyle":{"color":[41,36,35],"fontFamily":"Arial","fontSize":10,"fontWeight":400,"text":"PEXIR"}},"geometry":{"type":"MultiPoint","coordinates":[[0.613841,49.230025]]}},
{"type":"Feature","properties":{"uuid":"EGA_Paris_Point_IFR_Names","textStyle":{"color":[41,36,35],"fontFamily":"Arial","fontSize":10,"fontWeight":400,"text":"PITAV"}},"geometry":{"type":"MultiPoint","coordinates":[[0.933525,49.219349]]}},
{"type":"Feature","properties":{"uuid":"EGA_Paris_Point_IFR_Names","textStyle":{"color":[41,36,35],"fontFamily":"Arial","fontSize":10,"fontWeight":400,"text":"VELOL"}},"geometry":{"type":"MultiPoint","coordinates":[[1.284087,49.96581]]}},
{"type":"Feature","properties":{"uuid":"EGA_Paris_Point_IFR_Names","textStyle":{"color":[41,36,35],"fontFamily":"Arial","fontSize":10,"fontWeight":400,"text":"VEPET"}},"geometry":{"type":"MultiPoint","coordinates":[[1.502053,49.736262]]}},
{"type":"Feature","properties":{"uuid":"EGA_Paris_Point_IFR_Names","textStyle":{"color":[41,36,35],"fontFamily":"Arial","fontSize":10,"fontWeight":400,"text":"OPALE"}},"geometry":{"type":"MultiPoint","coordinates":[[1.883494,49.927238]]}},
{"type":"Feature","properties":{"uuid":"EGA_Paris_Point_IFR_Names","textStyle":{"color":[41,36,35],"fontFamily":"Arial","fontSize":10,"fontWeight":400,"text":"EGOZE"}},"geometry":{"type":"MultiPoint","coordinates":[[2.490167,49.579877]]}},
{"type":"Feature","properties":{"uuid":"EGA_Paris_Point_IFR_Names","textStyle":{"color":[41,36,35],"fontFamily":"Arial","fontSize":10,"fontWeight":400,"text":"ATREX"}},"geometry":{"type":"MultiPoint","coordinates":[[2.368469,49.812509]]}},
{"type":"Feature","properties":{"uuid":"EGA_Paris_Point_IFR_Names","textStyle":{"color":[41,36,35],"fontFamily":"Arial","fontSize":10,"fontWeight":400,"text":"NURMO"}},"geometry":{"type":"MultiPoint","coordinates":[[2.755359,49.854686]]}},
{"type":"Feature","properties":{"uuid":"EGA_Paris_Point_IFR_Names","textStyle":{"color":[41,36,35],"fontFamily":"Arial","fontSize":10,"fontWeight":400,"text":"IPNOB"}},"geometry":{"type":"MultiPoint","coordinates":[[3.552752,49.626963]]}},
{"type":"Feature","properties":{"uuid":"EGA_Paris_Point_IFR_Names","textStyle":{"color":[41,36,35],"fontFamily":"Arial","fontSize":10,"fontWeight":400,"text":"DEVIM"}},"geometry":{"type":"MultiPoint","coordinates":[[3.632673,49.477307]]}},
{"type":"Feature","properties":{"uuid":"EGA_Paris_Point_IFR_Names","textStyle":{"color":[41,36,35],"fontFamily":"Arial","fontSize":10,"fontWeight":400,"text":"ENORI"}},"geometry":{"type":"MultiPoint","coordinates":[[3.7798,49.500906]]}},
{"type":"Feature","properties":{"uuid":"EGA_Paris_Point_IFR_Names","textStyle":{"color":[41,36,35],"fontFamily":"Arial","fontSize":10,"fontWeight":400,"text":"XERAM"}},"geometry":{"type":"MultiPoint","coordinates":[[4.064973,49.62461]]}},
{"type":"Feature","properties":{"uuid":"EGA_Paris_Point_IFR_Names","textStyle":{"color":[41,36,35],"fontFamily":"Arial","fontSize":10,"fontWeight":400,"text":"VEBEK"}},"geometry":{"type":"MultiPoint","coordinates":[[3.683532,49.301143]]}},
{"type":"Feature","properties":{"uuid":"EGA_Paris_Point_IFR_Names","textStyle":{"color":[41,36,35],"fontFamily":"Arial","fontSize":10,"fontWeight":400,"text":"GITAN"}},"geometry":{"type":"MultiPoint","coordinates":[[3.974154,49.388713]]}},
{"type":"Feature","properties":{"uuid":"EGA_Paris_Point_IFR_Names","textStyle":{"color":[41,36,35],"fontFamily":"Arial","fontSize":10,"fontWeight":400,"text":"SUIPE"}},"geometry":{"type":"MultiPoint","coordinates":[[4.264775,49.281003]]}},
{"type":"Feature","properties":{"uuid":"EGA_Paris_Point_IFR_Names","textStyle":{"color":[41,36,35],"fontFamily":"Arial","fontSize":10,"fontWeight":400,"text":"BAVOL"}},"geometry":{"type":"MultiPoint","coordinates":[[3.661735,49.132666]]}},
{"type":"Feature","properties":{"uuid":"EGA_Paris_Point_IFR_Names","textStyle":{"color":[41,36,35],"fontFamily":"Arial","fontSize":10,"fontWeight":400,"text":"NIPOR"}},"geometry":{"type":"MultiPoint","coordinates":[[4.008665,49.138608]]}},
{"type":"Feature","properties":{"uuid":"EGA_Paris_Point_IFR_Names","textStyle":{"color":[41,36,35],"fontFamily":"Arial","fontSize":10,"fontWeight":400,"text":"DIKOL"}},"geometry":{"type":"MultiPoint","coordinates":[[4.050442,49.16712]]}},
{"type":"Feature","properties":{"uuid":"EGA_Paris_Point_IFR_Names","textStyle":{"color":[41,36,35],"fontFamily":"Arial","fontSize":10,"fontWeight":400,"text":"RANUX"}},"geometry":{"type":"MultiPoint","coordinates":[[4.361044,49.165932]]}},
{"type":"Feature","properties":{"uuid":"EGA_Paris_Point_IFR_Names","textStyle":{"color":[41,36,35],"fontFamily":"Arial","fontSize":10,"fontWeight":400,"text":"NEPAR"}},"geometry":{"type":"MultiPoint","coordinates":[[3.552752,49.113647]]}},
{"type":"Feature","properties":{"uuid":"EGA_Paris_Point_IFR_Names","textStyle":{"color":[41,36,35],"fontFamily":"Arial","fontSize":10,"fontWeight":400,"text":"LUPAM"}},"geometry":{"type":"MultiPoint","coordinates":[[3.550936,48.966]]}},
{"type":"Feature","properties":{"uuid":"EGA_Paris_Point_IFR_Names","textStyle":{"color":[41,36,35],"fontFamily":"Arial","fontSize":10,"fontWeight":400,"text":"BEKOS"}},"geometry":{"type":"MultiPoint","coordinates":[[3.547303,48.839438]]}},
{"type":"Feature","properties":{"uuid":"EGA_Paris_Point_IFR_Names","textStyle":{"color":[41,36,35],"fontFamily":"Arial","fontSize":10,"fontWeight":400,"text":"OKIPA"}},"geometry":{"type":"MultiPoint","coordinates":[[3.563651,48.642993]]}},
{"type":"Feature","properties":{"uuid":"EGA_Paris_Point_IFR_Names","textStyle":{"color":[41,36,35],"fontFamily":"Arial","fontSize":10,"fontWeight":400,"text":"OKABO"}},"geometry":{"type":"MultiPoint","coordinates":[[3.490995,48.580545]]}},
{"type":"Feature","properties":{"uuid":"EGA_Paris_Point_IFR_Names","textStyle":{"color":[41,36,35],"fontFamily":"Arial","fontSize":10,"fontWeight":400,"text":"EPURI"}},"geometry":{"type":"MultiPoint","coordinates":[[3.638122,48.484321]]}},
{"type":"Feature","properties":{"uuid":"EGA_Paris_Point_IFR_Names","textStyle":{"color":[41,36,35],"fontFamily":"Arial","fontSize":10,"fontWeight":400,"text":"URELO"}},"geometry":{"type":"MultiPoint","coordinates":[[3.732574,48.566123]]}},
{"type":"Feature","properties":{"uuid":"EGA_Paris_Point_IFR_Names","textStyle":{"color":[41,36,35],"fontFamily":"Arial","fontSize":10,"fontWeight":400,"text":"BUBLI"}},"geometry":{"type":"MultiPoint","coordinates":[[4.150343,48.743707]]}},
{"type":"Feature","properties":{"uuid":"EGA_Paris_Point_IFR_Names","textStyle":{"color":[41,36,35],"fontFamily":"Arial","fontSize":10,"fontWeight":400,"text":"LASIV"}},"geometry":{"type":"MultiPoint","coordinates":[[4.226631,48.926633]]}},
{"type":"Feature","properties":{"uuid":"EGA_Paris_Point_IFR_Names","textStyle":{"color":[41,36,35],"fontFamily":"Arial","fontSize":10,"fontWeight":400,"text":"BAXIR"}},"geometry":{"type":"MultiPoint","coordinates":[[3.87062,48.817914]]}},
{"type":"Feature","properties":{"uuid":"EGA_Paris_Point_IFR_Names","textStyle":{"color":[41,36,35],"fontFamily":"Arial","fontSize":10,"fontWeight":400,"text":"ALIMO"}},"geometry":{"type":"MultiPoint","coordinates":[[3.934193,48.740113]]}},
{"type":"Feature","properties":{"uuid":"EGA_Paris_Point_IFR_Names","textStyle":{"color":[41,36,35],"fontFamily":"Arial","fontSize":10,"fontWeight":400,"text":"NANOP"}},"geometry":{"type":"MultiPoint","coordinates":[[4.239346,48.290115]]}},
{"type":"Feature","properties":{"uuid":"EGA_Paris_Point_IFR_Names","textStyle":{"color":[41,36,35],"fontFamily":"Arial","fontSize":10,"fontWeight":400,"text":"MOLBA"}},"geometry":{"type":"MultiPoint","coordinates":[[3.062328,48.32032]]}},
{"type":"Feature","properties":{"uuid":"EGA_Paris_Point_IFR_Names","textStyle":{"color":[41,36,35],"fontFamily":"Arial","fontSize":10,"fontWeight":400,"text":"EBOMA"}},"geometry":{"type":"MultiPoint","coordinates":[[3.205823,48.228442]]}},
{"type":"Feature","properties":{"uuid":"EGA_Paris_Point_IFR_Names","textStyle":{"color":[41,36,35],"fontFamily":"Arial","fontSize":10,"fontWeight":400,"text":"PILUL"}},"geometry":{"type":"MultiPoint","coordinates":[[3.049614,48.109724]]}},
{"type":"Feature","properties":{"uuid":"EGA_Paris_Point_IFR_Names","textStyle":{"color":[41,36,35],"fontFamily":"Arial","fontSize":10,"fontWeight":400,"text":"PEKIM"}},"geometry":{"type":"MultiPoint","coordinates":[[2.828015,48.303408]]}},
{"type":"Feature","properties":{"uuid":"EGA_Paris_Point_IFR_Names","textStyle":{"color":[41,36,35],"fontFamily":"Arial","fontSize":10,"fontWeight":400,"text":"ODEBU"}},"geometry":{"type":"MultiPoint","coordinates":[[2.628212,48.30824]]}},
{"type":"Feature","properties":{"uuid":"EGA_Paris_Point_IFR_Names","textStyle":{"color":[41,36,35],"fontFamily":"Arial","fontSize":10,"fontWeight":400,"text":"LALUX"}},"geometry":{"type":"MultiPoint","coordinates":[[2.40843,48.313073]]}},
{"type":"Feature","properties":{"uuid":"EGA_Paris_Point_IFR_Names","textStyle":{"color":[41,36,35],"fontFamily":"Arial","fontSize":10,"fontWeight":400,"text":"EDOXA"}},"geometry":{"type":"MultiPoint","coordinates":[[2.208627,48.317904]]}},
{"type":"Feature","properties":{"uuid":"EGA_Paris_Point_IFR_Names","textStyle":{"color":[41,36,35],"fontFamily":"Arial","fontSize":10,"fontWeight":400,"text":"ADADA"}},"geometry":{"type":"MultiPoint","coordinates":[[2.003376,48.321528]]}},
{"type":"Feature","properties":{"uuid":"EGA_Paris_Point_IFR_Names","textStyle":{"color":[41,36,35],"fontFamily":"Arial","fontSize":10,"fontWeight":400,"text":"AGOPA"}},"geometry":{"type":"MultiPoint","coordinates":[[2.008825,48.055119]]}},
{"type":"Feature","properties":{"uuid":"EGA_Paris_Point_IFR_Names","textStyle":{"color":[41,36,35],"fontFamily":"Arial","fontSize":10,"fontWeight":400,"text":"ERIXU"}},"geometry":{"type":"MultiPoint","coordinates":[[2.259486,48.053904]]}},
{"type":"Feature","properties":{"uuid":"EGA_Paris_Point_IFR_Names","textStyle":{"color":[41,36,35],"fontFamily":"Arial","fontSize":10,"fontWeight":400,"text":"LATRA"}},"geometry":{"type":"MultiPoint","coordinates":[[2.517413,48.055119]]}},
{"type":"Feature","properties":{"uuid":"EGA_Paris_Point_IFR_Names","textStyle":{"color":[41,36,35],"fontFamily":"Arial","fontSize":10,"fontWeight":400,"text":"OKASI"}},"geometry":{"type":"MultiPoint","coordinates":[[2.778972,48.051476]]}},
{"type":"Feature","properties":{"uuid":"EGA_Paris_Point_IFR_Names","textStyle":{"color":[41,36,35],"fontFamily":"Arial","fontSize":10,"fontWeight":400,"text":"ODILO"}},"geometry":{"type":"MultiPoint","coordinates":[[1.571076,48.267148]]}},
{"type":"Feature","properties":{"uuid":"EGA_Paris_Point_IFR_Names","textStyle":{"color":[41,36,35],"fontFamily":"Arial","fontSize":10,"fontWeight":400,"text":"SOTIP"}},"geometry":{"type":"MultiPoint","coordinates":[[1.460276,48.158214]]}},
{"type":"Feature","properties":{"uuid":"EGA_Paris_Point_IFR_Names","textStyle":{"color":[41,36,35],"fontFamily":"Arial","fontSize":10,"fontWeight":400,"text":"NERKI"}},"geometry":{"type":"MultiPoint","coordinates":[[1.325864,48.540875]]}},
{"type":"Feature","properties":{"uuid":"EGA_Paris_Point_IFR_Names","textStyle":{"color":[41,36,35],"fontFamily":"Arial","fontSize":10,"fontWeight":400,"text":"BANOX"}},"geometry":{"type":"MultiPoint","coordinates":[[1.505686,48.604573]]}},
{"type":"Feature","properties":{"uuid":"EGA_Paris_Point_IFR_Names","textStyle":{"color":[41,36,35],"fontFamily":"Arial","fontSize":10,"fontWeight":400,"text":"ELCOB"}},"geometry":{"type":"MultiPoint","coordinates":[[1.22233,49.060116]]}},
{"type":"Feature","properties":{"uuid":"EGA_Paris_Point_IFR_Names","textStyle":{"color":[41,36,35],"fontFamily":"Arial","fontSize":10,"fontWeight":400,"text":"MOPAR"}},"geometry":{"type":"MultiPoint","coordinates":[[1.75998,49.321274]]}},
{"type":"Feature","properties":{"uuid":"EGA_Paris_Point_IFR_Names","textStyle":{"color":[41,36,35],"fontFamily":"Arial","fontSize":10,"fontWeight":400,"text":"GILTO"}},"geometry":{"type":"MultiPoint","coordinates":[[1.75998,49.192054]]}},
{"type":"Feature","properties":{"uuid":"EGA_Paris_Point_IFR_Names","textStyle":{"color":[41,36,35],"fontFamily":"Arial","fontSize":10,"fontWeight":400,"text":"CREIL"}},"geometry":{"type":"MultiPoint","coordinates":[[2.517413,49.281003]]}},
{"type":"Feature","properties":{"uuid":"EGA_Paris_Point_IFR_Names","textStyle":{"color":[41,36,35],"fontFamily":"Arial","fontSize":10,"fontWeight":400,"text":"OBOBI"}},"geometry":{"type":"MultiPoint","coordinates":[[3.080492,49.381618]]}},
{"type":"Feature","properties":{"uuid":"EGA_Paris_Point_IFR_Names","textStyle":{"color":[41,36,35],"fontFamily":"Arial","fontSize":10,"fontWeight":400,"text":"INKUD"}},"geometry":{"type":"MultiPoint","coordinates":[[3.035082,49.543354]]}},
{"type":"Feature","properties":{"uuid":"EGA_Paris_Point_IFR_Names","textStyle":{"color":[41,36,35],"fontFamily":"Arial","fontSize":10,"fontWeight":400,"text":"LORNI"}},"geometry":{"type":"MultiPoint","coordinates":[[3.451035,49.448975]]}},
{"type":"Feature","properties":{"uuid":"EGA_Paris_Point_IFR_Names","textStyle":{"color":[41,36,35],"fontFamily":"Arial","fontSize":10,"fontWeight":400,"text":"ABOBO"},"activation":{"activeRunways":{"LFPG":{"arr":["08R","09L"],"dep":["08L","09R"]}}}},"geometry":{"type":"MultiPoint","coordinates":[[2.193188,48.536064]]}},
{"type":"Feature","properties":{"uuid":"EGA_Paris_Point_IFR_Names","textStyle":{"color":[41,36,35],"fontFamily":"Arial","fontSize":10,"fontWeight":400,"text":"LAPAX"},"activation":{"activeRunways":{"LFPG":{"arr":["08R","09L"],"dep":["08L","09R"]}}}},"geometry":{"type":"MultiPoint","coordinates":[[2.394807,48.524036]]}},
{"type":"Feature","properties":{"uuid":"EGA_Paris_Point_IFR_Names","textStyle":{"color":[41,36,35],"fontFamily":"Arial","fontSize":10,"fontWeight":400,"text":"OSTIP"},"activation":{"activeRunways":{"LFPG":{"arr":["08R","09L"],"dep":["08L","09R"]}}}},"geometry":{"type":"MultiPoint","coordinates":[[2.612773,48.515614]]}},
{"type":"Feature","properties":{"uuid":"EGA_Paris_Point_IFR_Names","textStyle":{"color":[41,36,35],"fontFamily":"Arial","fontSize":10,"fontWeight":400,"text":"KELUD"},"activation":{"activeRunways":{"LFPG":{"arr":["08R","09L"],"dep":["08L","09R"]}}}},"geometry":{"type":"MultiPoint","coordinates":[[2.41842,48.820306]]}},
{"type":"Feature","properties":{"uuid":"EGA_Paris_Point_IFR_Names","textStyle":{"color":[41,36,35],"fontFamily":"Arial","fontSize":10,"fontWeight":400,"text":"OXCEL"}},"geometry":{"type":"MultiPoint","coordinates":[[2.411154,48.7473]]}},
{"type":"Feature","properties":{"uuid":"EGA_Paris_Point_IFR_Names","textStyle":{"color":[41,36,35],"fontFamily":"Arial","fontSize":10,"fontWeight":400,"text":"KOLIV"},"activation":{"activeRunways":{"LFPG":{"arr":["08R","09L"],"dep":["08L","09R"]}}}},"geometry":{"type":"MultiPoint","coordinates":[[1.571984,49.333112]]}},
{"type":"Feature","properties":{"uuid":"EGA_Paris_Point_IFR_Names","textStyle":{"color":[41,36,35],"fontFamily":"Arial","fontSize":10,"fontWeight":400,"text":"DEROL"},"activation":{"activeRunways":{"LFPG":{"arr":["26L","27R"],"dep":["26R","27L"]}}}},"geometry":{"type":"MultiPoint","coordinates":[[2.115083,48.702966]]}},
{"type":"Feature","properties":{"uuid":"EGA_Paris_Point_IFR_Names","textStyle":{"color":[41,36,35],"fontFamily":"Arial","fontSize":10,"fontWeight":400,"text":"DOPAP"},"activation":{"activeRunways":{"LFPG":{"arr":["26L","27R"],"dep":["26R","27L"]}}}},"geometry":{"type":"MultiPoint","coordinates":[[2.24223,48.725737]]}},
{"type":"Feature","properties":{"uuid":"EGA_Paris_Point_IFR_Names","textStyle":{"color":[41,36,35],"fontFamily":"Arial","fontSize":10,"fontWeight":400,"text":"VEMIL"},"activation":{"activeRunways":{"LFPG":{"arr":["26L","27R"],"dep":["26R","27L"]}}}},"geometry":{"type":"MultiPoint","coordinates":[[2.383908,49.252557]]}},
{"type":"Feature","properties":{"uuid":"EGA_Paris_Point_IFR_Names","textStyle":{"color":[41,36,35],"fontFamily":"Arial","fontSize":10,"fontWeight":400,"text":"PIVER"},"activation":{"activeRunways":{"LFPG":{"arr":["26L","27R"],"dep":["26R","27L"]}}}},"geometry":{"type":"MultiPoint","coordinates":[[2.269476,48.821502]]}},
{"type":"Feature","properties":{"uuid":"EGA_Paris_Point_IFR_Names","textStyle":{"color":[41,36,35],"fontFamily":"Arial","fontSize":10,"fontWeight":400,"text":"IG27R"},"activation":{"activeRunways":{"LFPG":{"arr":["27R"]}}}},"geometry":{"type":"MultiPoint","coordinates":[[2.985662,49.060364]]}},
{"type":"Feature","properties":{"uuid":"EGA_Paris_Point_IFR_Names","textStyle":{"color":[41,36,35],"fontFamily":"Arial","fontSize":10,"fontWeight":400,"text":"IG27L"},"activation":{"activeRunways":{"LFPG":{"arr":["27L"]}}}},"geometry":{"type":"MultiPoint","coordinates":[[2.987478,49.036554]]}},
{"type":"Feature","properties":{"uuid":"EGA_Paris_Point_IFR_Names","textStyle":{"color":[41,36,35],"fontFamily":"Arial","fontSize":10,"fontWeight":400,"text":"IG26R"},"activation":{"activeRunways":{"LFPG":{"arr":["27L"]}}}},"geometry":{"type":"MultiPoint","coordinates":[[2.956599,49.025439]]}},
{"type":"Feature","properties":{"uuid":"EGA_Paris_Point_IFR_Names","textStyle":{"color":[41,36,35],"fontFamily":"Arial","fontSize":10,"fontWeight":400,"text":"IG26L"},"activation":{"activeRunways":{"LFPG":{"arr":["26L"]}}}},"geometry":{"type":"MultiPoint","coordinates":[[2.959021,49.003201]]}},
{"type":"Feature","properties":{"uuid":"EGA_Paris_Point_IFR_Names","textStyle":{"color":[41,36,35],"fontFamily":"Arial","fontSize":10,"fontWeight":400,"text":"IG08L"},"activation":{"activeRunways":{"LFPG":{"arr":["08L"]}}}},"geometry":{"type":"MultiPoint","coordinates":[[2.111678,48.976383]]}},
{"type":"Feature","properties":{"uuid":"EGA_Paris_Point_IFR_Names","textStyle":{"color":[41,36,35],"fontFamily":"Arial","fontSize":10,"fontWeight":400,"text":"IG08R"},"activation":{"activeRunways":{"LFPG":{"arr":["08R"]}}}},"geometry":{"type":"MultiPoint","coordinates":[[2.14074,48.963863]]}},
{"type":"Feature","properties":{"uuid":"EGA_Paris_Point_IFR_Names","textStyle":{"color":[41,36,35],"fontFamily":"Arial","fontSize":10,"fontWeight":400,"text":"IG09L"},"activation":{"activeRunways":{"LFPG":{"arr":["09L"]}}}},"geometry":{"type":"MultiPoint","coordinates":[[2.174948,49.010151]]}},
{"type":"Feature","properties":{"uuid":"EGA_Paris_Point_IFR_Names","textStyle":{"color":[41,36,35],"fontFamily":"Arial","fontSize":10,"fontWeight":400,"text":"IG09R"},"activation":{"activeRunways":{"LFPG":{"arr":["09R"]}}}},"geometry":{"type":"MultiPoint","coordinates":[[2.163142,48.996448]]}}
]}