{"type":"FeatureCollection","features":[
{"type":"Feature","properties":{"uuid":"EGA_Paris_NavAids_Names","textStyle":{"color":[41,36,35],"fontFamily":"Arial","fontSize":10,"fontWeight":400,"text":"HOL"}},"geometry":{"type":"MultiPoint","coordinates":[[1.820829,48.756881]]}},
{"type":"Feature","properties":{"uuid":"EGA_Paris_NavAids_Names","textStyle":{"color":[41,36,35],"fontFamily":"Arial","fontSize":10,"fontWeight":400,"text":"TSU"}},"geometry":{"type":"MultiPoint","coordinates":[[2.102369,48.777233]]}},
{"type":"Feature","properties":{"uuid":"EGA_Paris_NavAids_Names","textStyle":{"color":[41,36,35],"fontFamily":"Arial","fontSize":10,"fontWeight":400,"text":"RBT"}},"geometry":{"type":"MultiPoint","coordinates":[[1.993385,48.676587]]}},
{"type":"Feature","properties":{"uuid":"EGA_Paris_NavAids_Names","textStyle":{"color":[41,36,35],"fontFamily":"Arial","fontSize":10,"fontWeight":400,"text":"EPR"}},"geometry":{"type":"MultiPoint","coordinates":[[1.657354,48.650193]]}},
{"type":"Feature","properties":{"uuid":"EGA_Paris_NavAids_Names","textStyle":{"color":[41,36,35],"fontFamily":"Arial","fontSize":10,"fontWeight":400,"text":"MLN"}},"geometry":{"type":"MultiPoint","coordinates":[[2.810759,48.479505]]}},
{"type":"Feature","properties":{"uuid":"EGA_Paris_NavAids_Names","textStyle":{"color":[41,36,35],"fontFamily":"Arial","fontSize":10,"fontWeight":400,"text":"BRY"}},"geometry":{"type":"MultiPoint","coordinates":[[3.293917,48.430115]]}},
{"type":"Feature","properties":{"uuid":"EGA_Paris_NavAids_Names","textStyle":{"color":[41,36,35],"fontFamily":"Arial","fontSize":10,"fontWeight":400,"text":"CLM"}},"geometry":{"type":"MultiPoint","coordinates":[[3.014194,48.865732]]}},
{"type":"Feature","properties":{"uuid":"EGA_Paris_NavAids_Names","textStyle":{"color":[41,36,35],"fontFamily":"Arial","fontSize":10,"fontWeight":400,"text":"BT"}},"geometry":{"type":"MultiPoint","coordinates":[[2.454747,48.993419]]}},
{"type":"Feature","properties":{"uuid":"EGA_Paris_NavAids_Names","textStyle":{"color":[41,36,35],"fontFamily":"Arial","fontSize":10,"fontWeight":400,"text":"PON"}},"geometry":{"type":"MultiPoint","coordinates":[[2.033346,49.119591]]}},
{"type":"Feature","properties":{"uuid":"EGA_Paris_NavAids_Names","textStyle":{"color":[41,36,35],"fontFamily":"Arial","fontSize":10,"fontWeight":400,"text":"TRO"}},"geometry":{"type":"MultiPoint","coordinates":[[3.962347,48.279237]]}},
{"type":"Feature","properties":{"uuid":"EGA_Paris_NavAids_Names","textStyle":{"color":[41,36,35],"fontFamily":"Arial","fontSize":10,"fontWeight":400,"text":"VAT"}},"geometry":{"type":"MultiPoint","coordinates":[[4.016839,48.822698]]}},
{"type":"Feature","properties":{"uuid":"EGA_Paris_NavAids_Names","textStyle":{"color":[41,36,35],"fontFamily":"Arial","fontSize":10,"fontWeight":400,"text":"CVT"}},"geometry":{"type":"MultiPoint","coordinates":[[4.316542,48.783218]]}},
{"type":"Feature","properties":{"uuid":"EGA_Paris_NavAids_Names","textStyle":{"color":[41,36,35],"fontFamily":"Arial","fontSize":10,"fontWeight":400,"text":"REM"}},"geometry":{"type":"MultiPoint","coordinates":[[4.044084,49.336663]]}},
{"type":"Feature","properties":{"uuid":"EGA_Paris_NavAids_Names","textStyle":{"color":[41,36,35],"fontFamily":"Arial","fontSize":10,"fontWeight":400,"text":"CMB"}},"geometry":{"type":"MultiPoint","coordinates":[[3.150423,50.252374]]}},
{"type":"Feature","properties":{"uuid":"EGA_Paris_NavAids_Names","textStyle":{"color":[41,36,35],"fontFamily":"Arial","fontSize":10,"fontWeight":400,"text":"ROU"}},"geometry":{"type":"MultiPoint","coordinates":[[1.281362,49.489108]]}},
{"type":"Feature","properties":{"uuid":"EGA_Paris_NavAids_Names","textStyle":{"color":[41,36,35],"fontFamily":"Arial","fontSize":10,"fontWeight":400,"text":"LGL"}},"geometry":{"type":"MultiPoint","coordinates":[[0.529379,48.816718]]}},
{"type":"Feature","properties":{"uuid":"EGA_Paris_NavAids_Names","textStyle":{"color":[41,36,35],"fontFamily":"Arial","fontSize":10,"fontWeight":400,"text":"CHW"}},"geometry":{"type":"MultiPoint","coordinates":[[0.987108,48.502377]]}},
{"type":"Feature","properties":{"uuid":"EGA_Paris_NavAids_Names","textStyle":{"color":[41,36,35],"fontFamily":"Arial","fontSize":10,"fontWeight":400,"text":"CAD"}},"geometry":{"type":"MultiPoint","coordinates":[[1.386713,48.083035]]}},
{"type":"Feature","properties":{"uuid":"EGA_Paris_NavAids_Names","textStyle":{"color":[41,36,35],"fontFamily":"Arial","fontSize":10,"fontWeight":400,"text":"BSN"},"activation":{"activeRunways":{"LFPG":{"arr":["08R","09L"],"dep":["08L","09R"]}}}},"geometry":{"type":"MultiPoint","coordinates":[[3.057787,49.214603]]}}
]}