{"type":"FeatureCollection","features":[
{"type":"Feature","properties":{"uuid":"Paris_VFR_Point_Names","textStyle":{"color":[232,232,232],"fontFamily":"Arial","fontSize":10,"fontWeight":800,"text":"W"}},"geometry":{"type":"MultiPoint","coordinates":[[1.9375,49.419444]]}},
{"type":"Feature","properties":{"uuid":"Paris_VFR_Point_Names","textStyle":{"color":[232,232,232],"fontFamily":"Arial","fontSize":10,"fontWeight":800,"text":"SW"}},"geometry":{"type":"MultiPoint","coordinates":[[2.08,49.323889]]}},
{"type":"Feature","properties":{"uuid":"Paris_VFR_Point_Names","textStyle":{"color":[232,232,232],"fontFamily":"Arial","fontSize":10,"fontWeight":800,"text":"SE"}},"geometry":{"type":"MultiPoint","coordinates":[[2.2,49.329167]]}},
{"type":"Feature","properties":{"uuid":"Paris_VFR_Point_Names","textStyle":{"color":[232,232,232],"fontFamily":"Arial","fontSize":10,"fontWeight":800,"text":"S"}},"geometry":{"type":"MultiPoint","coordinates":[[2.128889,49.397778]]}},
{"type":"Feature","properties":{"uuid":"Paris_VFR_Point_Names","textStyle":{"color":[232,232,232],"fontFamily":"Arial","fontSize":10,"fontWeight":800,"text":"WB"}},"geometry":{"type":"MultiPoint","coordinates":[[2.039722,49.427778]]}},
{"type":"Feature","properties":{"uuid":"Paris_VFR_Point_Names","textStyle":{"color":[232,232,232],"fontFamily":"Arial","fontSize":10,"fontWeight":800,"text":"N"}},"geometry":{"type":"MultiPoint","coordinates":[[2.1875,49.523611]]}},
{"type":"Feature","properties":{"uuid":"Paris_VFR_Point_Names","textStyle":{"color":[232,232,232],"fontFamily":"Arial","fontSize":10,"fontWeight":800,"text":"B"}},"geometry":{"type":"MultiPoint","coordinates":[[2.468889,48.571389]]}},
{"type":"Feature","properties":{"uuid":"Paris_VFR_Point_Names","textStyle":{"color":[232,232,232],"fontFamily":"Arial","fontSize":10,"fontWeight":800,"text":"N"}},"geometry":{"type":"MultiPoint","coordinates":[[2.720556,48.694167]]}},
{"type":"Feature","properties":{"uuid":"Paris_VFR_Point_Names","textStyle":{"color":[232,232,232],"fontFamily":"Arial","fontSize":10,"fontWeight":800,"text":"SM"}},"geometry":{"type":"MultiPoint","coordinates":[[2.701944,48.486667]]}},
{"type":"Feature","properties":{"uuid":"Paris_VFR_Point_Names","textStyle":{"color":[232,232,232],"fontFamily":"Arial","fontSize":10,"fontWeight":800,"text":"W1"}},"geometry":{"type":"MultiPoint","coordinates":[[2.185,49.001389]]}},
{"type":"Feature","properties":{"uuid":"Paris_VFR_Point_Names","textStyle":{"color":[232,232,232],"fontFamily":"Arial","fontSize":10,"fontWeight":800,"text":"W2"}},"geometry":{"type":"MultiPoint","coordinates":[[2.365833,48.974167]]}},
{"type":"Feature","properties":{"uuid":"Paris_VFR_Point_Names","textStyle":{"color":[232,232,232],"fontFamily":"Arial","fontSize":10,"fontWeight":800,"text":"E2"}},"geometry":{"type":"MultiPoint","coordinates":[[2.480833,48.932222]]}},
{"type":"Feature","properties":{"uuid":"Paris_VFR_Point_Names","textStyle":{"color":[232,232,232],"fontFamily":"Arial","fontSize":10,"fontWeight":800,"text":"E1"}},"geometry":{"type":"MultiPoint","coordinates":[[2.557222,48.898611]]}},
{"type":"Feature","properties":{"uuid":"Paris_VFR_Point_Names","textStyle":{"color":[232,232,232],"fontFamily":"Arial","fontSize":10,"fontWeight":800,"text":"RH2"}},"geometry":{"type":"MultiPoint","coordinates":[[2.615278,48.955833]]}},
{"type":"Feature","properties":{"uuid":"Paris_VFR_Point_Names","textStyle":{"color":[232,232,232],"fontFamily":"Arial","fontSize":10,"fontWeight":800,"text":"S"}},"geometry":{"type":"MultiPoint","coordinates":[[2.586389,48.971111]]}},
{"type":"Feature","properties":{"uuid":"Paris_VFR_Point_Names","textStyle":{"color":[232,232,232],"fontFamily":"Arial","fontSize":10,"fontWeight":800,"text":"N"}},"geometry":{"type":"MultiPoint","coordinates":[[2.5475,49.049722]]}},
{"type":"Feature","properties":{"uuid":"Paris_VFR_Point_Names","textStyle":{"color":[232,232,232],"fontFamily":"Arial","fontSize":10,"fontWeight":800,"text":"RH1"}},"geometry":{"type":"MultiPoint","coordinates":[[2.551667,49.086667]]}},
{"type":"Feature","properties":{"uuid":"Paris_VFR_Point_Names","textStyle":{"color":[232,232,232],"fontFamily":"Arial","fontSize":10,"fontWeight":800,"text":"NH"}},"geometry":{"type":"MultiPoint","coordinates":[[2.1,48.759167]]}},
{"type":"Feature","properties":{"uuid":"Paris_VFR_Point_Names","textStyle":{"color":[232,232,232],"fontFamily":"Arial","fontSize":10,"fontWeight":800,"text":"S"}},"geometry":{"type":"MultiPoint","coordinates":[[2.110278,48.709722]]}}
]}