{"type":"FeatureCollection","features":[
{"type":"Feature","properties":{"uuid":"Paris_VFR_ARP_Names","textStyle":{"color":[232,232,232],"fontFamily":"Arial","fontSize":10,"fontWeight":400,"text":"LFPG"}},"geometry":{"type":"MultiPoint","coordinates":[[2.542311,49.040067]]}},
{"type":"Feature","properties":{"uuid":"Paris_VFR_ARP_Names","textStyle":{"color":[232,232,232],"fontFamily":"Arial","fontSize":10,"fontWeight":400,"text":"LFPO"}},"geometry":{"type":"MultiPoint","coordinates":[[2.378836,48.696863]]}},
{"type":"Feature","properties":{"uuid":"Paris_VFR_ARP_Names","textStyle":{"color":[232,232,232],"fontFamily":"Arial","fontSize":10,"fontWeight":400,"text":"LFPV"}},"geometry":{"type":"MultiPoint","coordinates":[[2.19084,48.744496]]}},
{"type":"Feature","properties":{"uuid":"Paris_VFR_ARP_Names","textStyle":{"color":[232,232,232],"fontFamily":"Arial","fontSize":10,"fontWeight":400,"text":"LFPN"}},"geometry":{"type":"MultiPoint","coordinates":[[2.109103,48.723831]]}},
{"type":"Feature","properties":{"uuid":"Paris_VFR_ARP_Names","textStyle":{"color":[232,232,232],"fontFamily":"Arial","fontSize":10,"fontWeight":400,"text":"LFPZ"}},"geometry":{"type":"MultiPoint","coordinates":[[2.072321,48.836041]]}},
{"type":"Feature","properties":{"uuid":"Paris_VFR_ARP_Names","textStyle":{"color":[232,232,232],"fontFamily":"Arial","fontSize":10,"fontWeight":400,"text":"LFXU"}},"geometry":{"type":"MultiPoint","coordinates":[[1.93925,49.029028]]}},
{"type":"Feature","properties":{"uuid":"Paris_VFR_ARP_Names","textStyle":{"color":[232,232,232],"fontFamily":"Arial","fontSize":10,"fontWeight":400,"text":"LFPT"}},"geometry":{"type":"MultiPoint","coordinates":[[2.039626,49.124832]]}},
{"type":"Feature","properties":{"uuid":"Paris_VFR_ARP_Names","textStyle":{"color":[232,232,232],"fontFamily":"Arial","fontSize":10,"fontWeight":400,"text":"LFPA"}},"geometry":{"type":"MultiPoint","coordinates":[[2.312084,49.19343]]}},
{"type":"Feature","properties":{"uuid":"Paris_VFR_ARP_Names","textStyle":{"color":[232,232,232],"fontFamily":"Arial","fontSize":10,"fontWeight":400,"text":"LFPL"}},"geometry":{"type":"MultiPoint","coordinates":[[2.622686,48.845904]]}},
{"type":"Feature","properties":{"uuid":"Paris_VFR_ARP_Names","textStyle":{"color":[232,232,232],"fontFamily":"Arial","fontSize":10,"fontWeight":400,"text":"LFPK"}},"geometry":{"type":"MultiPoint","coordinates":[[3.015025,48.864727]]}},
{"type":"Feature","properties":{"uuid":"Paris_VFR_ARP_Names","textStyle":{"color":[232,232,232],"fontFamily":"Arial","fontSize":10,"fontWeight":400,"text":"LFPQ"}},"geometry":{"type":"MultiPoint","coordinates":[[2.90468,48.732817]]}},
{"type":"Feature","properties":{"uuid":"Paris_VFR_ARP_Names","textStyle":{"color":[232,232,232],"fontFamily":"Arial","fontSize":10,"fontWeight":400,"text":"LFAI"}},"geometry":{"type":"MultiPoint","coordinates":[[3.008214,48.623978]]}},
{"type":"Feature","properties":{"uuid":"Paris_VFR_ARP_Names","textStyle":{"color":[232,232,232],"fontFamily":"Arial","fontSize":10,"fontWeight":400,"text":"LFPM"}},"geometry":{"type":"MultiPoint","coordinates":[[2.671728,48.633882]]}},
{"type":"Feature","properties":{"uuid":"Paris_VFR_ARP_Names","textStyle":{"color":[232,232,232],"fontFamily":"Arial","fontSize":10,"fontWeight":400,"text":"LFGO"}},"geometry":{"type":"MultiPoint","coordinates":[[3.249339,48.317795]]}},
{"type":"Feature","properties":{"uuid":"Paris_VFR_ARP_Names","textStyle":{"color":[232,232,232],"fontFamily":"Arial","fontSize":10,"fontWeight":400,"text":"LFPU"}},"geometry":{"type":"MultiPoint","coordinates":[[2.798421,48.367596]]}},
{"type":"Feature","properties":{"uuid":"Paris_VFR_ARP_Names","textStyle":{"color":[232,232,232],"fontFamily":"Arial","fontSize":10,"fontWeight":400,"text":"LFOX"}},"geometry":{"type":"MultiPoint","coordinates":[[2.072321,48.407402]]}},
{"type":"Feature","properties":{"uuid":"Paris_VFR_ARP_Names","textStyle":{"color":[232,232,232],"fontFamily":"Arial","fontSize":10,"fontWeight":400,"text":"LFOR"}},"geometry":{"type":"MultiPoint","coordinates":[[1.520594,48.484212]]}},
{"type":"Feature","properties":{"uuid":"Paris_VFR_ARP_Names","textStyle":{"color":[232,232,232],"fontFamily":"Arial","fontSize":10,"fontWeight":400,"text":"LFJS"}},"geometry":{"type":"MultiPoint","coordinates":[[3.284758,49.373824]]}},
{"type":"Feature","properties":{"uuid":"Paris_VFR_ARP_Names","textStyle":{"color":[232,232,232],"fontFamily":"Arial","fontSize":10,"fontWeight":400,"text":"LFOB"}},"geometry":{"type":"MultiPoint","coordinates":[[2.112096,49.481941]]}},
{"type":"Feature","properties":{"uuid":"Paris_VFR_ARP_Names","textStyle":{"color":[232,232,232],"fontFamily":"Arial","fontSize":10,"fontWeight":400,"text":"LFPB"}},"geometry":{"type":"MultiPoint","coordinates":[[2.441501,48.935474]]}},
{"type":"Feature","properties":{"uuid":"Paris_VFR_ARP_Names","textStyle":{"color":[232,232,232],"fontFamily":"Arial","fontSize":10,"fontWeight":400,"text":"LFPP"}},"geometry":{"type":"MultiPoint","coordinates":[[2.737118,49.133746]]}},
{"type":"Feature","properties":{"name":"LFPG","pointStyle":{"type":"aerodrome_paved_ticks","color":[232,232,232]}},"geometry":{"type":"MultiPoint","coordinates":[[2.547778,49.009722]]}},
{"type":"Feature","properties":{"name":"LFPB","pointStyle":{"type":"aerodrome_paved_ticks","color":[232,232,232]}},"geometry":{"type":"MultiPoint","coordinates":[[2.441389,48.969444]]}},
{"type":"Feature","properties":{"name":"LFPL","pointStyle":{"type":"aerodrome_paved_ticks","color":[232,232,232]}},"geometry":{"type":"MultiPoint","coordinates":[[2.622778,48.821944]]}},
{"type":"Feature","properties":{"name":"LFPO","pointStyle":{"type":"aerodrome_paved_ticks","color":[232,232,232]}},"geometry":{"type":"MultiPoint","coordinates":[[2.379444,48.723333]]}},
{"type":"Feature","properties":{"name":"LFPN","pointStyle":{"type":"aerodrome_paved_ticks","color":[232,232,232]}},"geometry":{"type":"MultiPoint","coordinates":[[2.111111,48.749722]]}},
{"type":"Feature","properties":{"name":"LFPV","pointStyle":{"type":"aerodrome_paved","color":[232,232,232]}},"geometry":{"type":"MultiPoint","coordinates":[[2.191389,48.774167]]}},
{"type":"Feature","properties":{"name":"LFPZ","pointStyle":{"type":"aerodrome","color":[232,232,232]}},"geometry":{"type":"MultiPoint","coordinates":[[2.073333,48.810278]]}},
{"type":"Feature","properties":{"name":"LFXU","pointStyle":{"type":"aerodrome","color":[232,232,232]}},"geometry":{"type":"MultiPoint","coordinates":[[1.941667,48.998611]]}},
{"type":"Feature","properties":{"name":"LFPT","pointStyle":{"type":"aerodrome_paved_ticks","color":[232,232,232]}},"geometry":{"type":"MultiPoint","coordinates":[[2.040833,49.096667]]}},
{"type":"Feature","properties":{"name":"LFPA","pointStyle":{"type":"aerodrome_paved_ticks","color":[232,232,232]}},"geometry":{"type":"MultiPoint","coordinates":[[2.311667,49.165]]}},
{"type":"Feature","properties":{"name":"LFPP","pointStyle":{"type":"aerodrome_paved_ticks","color":[232,232,232]}},"geometry":{"type":"MultiPoint","coordinates":[[2.736944,49.109167]]}},
{"type":"Feature","properties":{"name":"LFOB","pointStyle":{"type":"aerodrome_paved_ticks","color":[232,232,232]}},"geometry":{"type":"MultiPoint","coordinates":[[2.112778,49.454444]]}},
{"type":"Feature","properties":{"name":"LFJS","pointStyle":{"type":"aerodrome_ticks","color":[232,232,232]}},"geometry":{"type":"MultiPoint","coordinates":[[3.283056,49.345]]}},
{"type":"Feature","properties":{"name":"LFPK","pointStyle":{"type":"aerodrome_paved_ticks","color":[232,232,232]}},"geometry":{"type":"MultiPoint","coordinates":[[3.014444,48.8375]]}},
{"type":"Feature","properties":{"name":"LFPQ","pointStyle":{"type":"aerodrome_paved_ticks","color":[232,232,232]}},"geometry":{"type":"MultiPoint","coordinates":[[2.903333,48.706389]]}},
{"type":"Feature","properties":{"name":"LFAI","pointStyle":{"type":"aerodrome_paved_ticks","color":[232,232,232]}},"geometry":{"type":"MultiPoint","coordinates":[[3.008056,48.596944]]}},
{"type":"Feature","properties":{"name":"LFPM","pointStyle":{"type":"aerodrome_paved_ticks","color":[232,232,232]}},"geometry":{"type":"MultiPoint","coordinates":[[2.670833,48.605278]]}},
{"type":"Feature","properties":{"name":"LFPU","pointStyle":{"type":"aerodrome_ticks","color":[232,232,232]}},"geometry":{"type":"MultiPoint","coordinates":[[2.797778,48.340833]]}},
{"type":"Feature","properties":{"name":"LFGO","pointStyle":{"type":"aerodrome_ticks","color":[232,232,232]}},"geometry":{"type":"MultiPoint","coordinates":[[3.248889,48.289444]]}},
{"type":"Feature","properties":{"name":"LFOX","pointStyle":{"type":"aerodrome_paved_ticks","color":[232,232,232]}},"geometry":{"type":"MultiPoint","coordinates":[[2.073889,48.381111]]}},
{"type":"Feature","properties":{"name":"LFOR","pointStyle":{"type":"aerodrome_paved_ticks","color":[232,232,232]}},"geometry":{"type":"MultiPoint","coordinates":[[1.522594,48.457956]]}}
]}