{"type":"FeatureCollection","features":[
{"type":"Feature","properties":{"name":"CRNA Nord Sectors","lineStyle":{"color":[41,36,35],"width":1,"dashArray":[3.0,4.0]}},"geometry":{"type":"MultiLineString","coordinates":[[[0.821389,50.421389],[1.018889,50.274722],[1.388056,49.9975],[1.4525,49.948889],[1.510556,49.899722],[1.833333,49.622778],[2.241389,49.265556],[2.351389,49.166667],[1.266667,49.083333],[1.084722,49.094444],[-0.25,49.166667],[-0.25,49.526667],[0.8325,49.936944],[0.443611,50.274444],[0.821389,50.421389]],[[0.443611,50.274444],[-0.25,50.0],[-0.25,49.526667]],[[2.351389,49.166667],[2.454722,49.076111],[2.541667,49.0],[2.0,49.0],[1.7,48.783333],[1.7425,48.732222],[1.106111,48.652778],[-0.070833,48.048056],[-0.25,47.933056],[-0.25,49.166667]],[[-0.25,47.933056],[-0.693886,47.521108],[-0.25,47.166667],[-0.25,47.044442],[0.321944,47.083333],[0.574444,47.063889],[0.570831,47.166942],[0.5575,47.5175],[0.9175,47.989444],[1.208056,48.250278],[1.821111,48.638056],[1.7425,48.732222]],[[1.821111,48.638056],[1.866667,48.583333],[1.875278,48.5025],[1.897222,48.297222],[1.839858,48.215475],[1.782222,48.133333],[1.715278,47.953611],[1.690556,47.831667],[1.676667,47.762778],[1.633611,47.550278],[1.466667,47.166664],[0.986667,47.004167],[0.574444,47.063889]],[[2.541667,49.0],[3.016664,48.583333],[2.920278,48.5025],[2.792778,48.395278],[2.053889,48.5025],[1.875278,48.5025]],[[2.792778,48.395278],[2.918611,48.283333],[3.235278,47.998889],[3.362778,47.795278],[2.831667,47.734167],[2.704167,47.719444],[2.055831,47.719444],[1.690556,47.831667]],[[3.362778,47.795278],[3.528611,47.5275],[3.548056,47.496667],[3.065,47.313889],[2.434167,47.178889],[1.814167,46.881667],[1.466667,47.166664]],[[3.016664,48.583333],[3.116667,48.666667],[3.499722,48.404444],[3.844167,48.162778],[4.580831,47.642778],[4.7725,47.504722],[4.488889,47.349167],[4.0775,47.2675],[3.795831,47.401667],[3.528611,47.5275]],[[3.116667,48.666667],[3.506389,48.733611],[3.645278,48.701942],[3.81,48.600278],[4.101389,48.462778],[4.458333,48.270278],[4.952778,47.974167],[5.269444,47.776942],[5.017778,47.639722],[4.7725,47.504722]],[[2.454722,49.076111],[2.835831,49.111111],[3.012778,49.126942],[3.192778,49.021111],[4.8,48.95],[5.733333,48.25],[5.166667,48.166667],[4.952778,47.974167]],[[2.835831,49.111111],[2.645344,49.487119],[2.0,50.716667],[1.466667,51.0],[1.465,50.905278],[1.734722,50.712222],[1.636389,50.656944],[1.538333,50.601667],[1.858611,50.171389],[1.7575,50.116389],[1.651667,50.058611],[1.4525,49.948889]],[[3.012778,49.126942],[3.299722,49.166667],[3.200278,49.456942],[3.7875,50.339722],[3.798958,50.348547]],[[3.299722,49.166667],[4.05,49.266667],[5.433137,49.565834]],[[4.8,48.95],[5.634167,49.3],[5.490807,49.500187]]]}},
{"type":"Feature","properties":{"uuid":"CRNA_Nord_Frequencies","textStyle":{"color":[0,0,0],"fontFamily":"Arial","fontSize":12,"fontWeight":600,"text":"128.875"}},"geometry":{"type":"MultiPoint","coordinates":[[1.71472,49.384024]]}},
{"type":"Feature","properties":{"uuid":"CRNA_Nord_Frequencies","textStyle":{"color":[0,0,0],"fontFamily":"Arial","fontSize":12,"fontWeight":600,"text":"TP"}},"geometry":{"type":"MultiPoint","coordinates":[[1.716812,49.421678]]}},
{"type":"Feature","properties":{"uuid":"CRNA_Nord_Frequencies","textStyle":{"color":[0,0,0],"fontFamily":"Arial","fontSize":12,"fontWeight":600,"text":"124.850"}},"geometry":{"type":"MultiPoint","coordinates":[[1.581216,48.90459]]}},
{"type":"Feature","properties":{"uuid":"CRNA_Nord_Frequencies","textStyle":{"color":[0,0,0],"fontFamily":"Arial","fontSize":12,"fontWeight":600,"text":"TH"}},"geometry":{"type":"MultiPoint","coordinates":[[1.575134,48.942014]]}},
{"type":"Feature","properties":{"uuid":"CRNA_Nord_Frequencies","textStyle":{"color":[0,0,0],"fontFamily":"Arial","fontSize":12,"fontWeight":600,"text":"122.575"}},"geometry":{"type":"MultiPoint","coordinates":[[1.415447,48.576256]]}},
{"type":"Feature","properties":{"uuid":"CRNA_Nord_Frequencies","textStyle":{"color":[0,0,0],"fontFamily":"Arial","fontSize":12,"fontWeight":600,"text":"RT"}},"geometry":{"type":"MultiPoint","coordinates":[[1.415017,48.61182]]}},
{"type":"Feature","properties":{"uuid":"CRNA_Nord_Frequencies","textStyle":{"color":[0,0,0],"fontFamily":"Arial","fontSize":12,"fontWeight":600,"text":"118.725"}},"geometry":{"type":"MultiPoint","coordinates":[[1.701225,48.379319]]}},
{"type":"Feature","properties":{"uuid":"CRNA_Nord_Frequencies","textStyle":{"color":[0,0,0],"fontFamily":"Arial","fontSize":12,"fontWeight":600,"text":"OT"}},"geometry":{"type":"MultiPoint","coordinates":[[1.709271,48.418705]]}},
{"type":"Feature","properties":{"uuid":"CRNA_Nord_Frequencies","textStyle":{"color":[0,0,0],"fontFamily":"Arial","fontSize":12,"fontWeight":600,"text":"125.080"}},"geometry":{"type":"MultiPoint","coordinates":[[3.123327,48.389764]]}},
{"type":"Feature","properties":{"uuid":"CRNA_Nord_Frequencies","textStyle":{"color":[0,0,0],"fontFamily":"Arial","fontSize":12,"fontWeight":600,"text":"AO"}},"geometry":{"type":"MultiPoint","coordinates":[[3.122695,48.436009]]}},
{"type":"Feature","properties":{"uuid":"CRNA_Nord_Frequencies","textStyle":{"color":[0,0,0],"fontFamily":"Arial","fontSize":12,"fontWeight":600,"text":"132.100"}},"geometry":{"type":"MultiPoint","coordinates":[[3.572882,48.575779]]}},
{"type":"Feature","properties":{"uuid":"CRNA_Nord_Frequencies","textStyle":{"color":[0,0,0],"fontFamily":"Arial","fontSize":12,"fontWeight":600,"text":"AR"}},"geometry":{"type":"MultiPoint","coordinates":[[3.570158,48.61182]]}},
{"type":"Feature","properties":{"uuid":"CRNA_Nord_Frequencies","textStyle":{"color":[0,0,0],"fontFamily":"Arial","fontSize":12,"fontWeight":600,"text":"120.955"}},"geometry":{"type":"MultiPoint","coordinates":[[3.153297,48.850834]]}},
{"type":"Feature","properties":{"uuid":"CRNA_Nord_Frequencies","textStyle":{"color":[0,0,0],"fontFamily":"Arial","fontSize":12,"fontWeight":600,"text":"TL"}},"geometry":{"type":"MultiPoint","coordinates":[[3.156022,48.88847]]}},
{"type":"Feature","properties":{"uuid":"CRNA_Nord_Frequencies","textStyle":{"color":[0,0,0],"fontFamily":"Arial","fontSize":12,"fontWeight":600,"text":"131.180"}},"geometry":{"type":"MultiPoint","coordinates":[[3.466624,49.072652]]}},
{"type":"Feature","properties":{"uuid":"CRNA_Nord_Frequencies","textStyle":{"color":[0,0,0],"fontFamily":"Arial","fontSize":12,"fontWeight":600,"text":"TM"}},"geometry":{"type":"MultiPoint","coordinates":[[3.467808,49.115894]]}},
{"type":"Feature","properties":{"uuid":"CRNA_Nord_Frequencies","textStyle":{"color":[0,0,0],"fontFamily":"Arial","fontSize":12,"fontWeight":600,"text":"128.105"}},"geometry":{"type":"MultiPoint","coordinates":[[3.518391,49.373381]]}},
{"type":"Feature","properties":{"uuid":"CRNA_Nord_Frequencies","textStyle":{"color":[0,0,0],"fontFamily":"Arial","fontSize":12,"fontWeight":600,"text":"TE"}},"geometry":{"type":"MultiPoint","coordinates":[[3.515034,49.407497]]}},
{"type":"Feature","properties":{"uuid":"CRNA_Nord_Frequencies","textStyle":{"color":[0,0,0],"fontFamily":"Arial","fontSize":12,"fontWeight":600,"text":"128.275"}},"geometry":{"type":"MultiPoint","coordinates":[[3.014344,49.313026]]}},
{"type":"Feature","properties":{"uuid":"CRNA_Nord_Frequencies","textStyle":{"color":[0,0,0],"fontFamily":"Arial","fontSize":12,"fontWeight":600,"text":"TB"}},"geometry":{"type":"MultiPoint","coordinates":[[3.011619,49.357412]]}},
{"type":"Feature","properties":{"uuid":"CRNA_Nord_Frequencies","textStyle":{"color":[0,0,0],"fontFamily":"Arial","fontSize":12,"fontWeight":600,"text":"135.550"}},"geometry":{"type":"MultiPoint","coordinates":[[2.47995,49.350059]]}},
{"type":"Feature","properties":{"uuid":"CRNA_Nord_Frequencies","textStyle":{"color":[0,0,0],"fontFamily":"Arial","fontSize":12,"fontWeight":600,"text":"TN"}},"geometry":{"type":"MultiPoint","coordinates":[[2.480327,49.385797]]}},
{"type":"Feature","properties":{"uuid":"CRNA_Nord_Frequencies","textStyle":{"color":[0,0,0],"fontFamily":"Arial","fontSize":12,"fontWeight":600,"text":"135.405"}},"geometry":{"type":"MultiPoint","coordinates":[[2.319576,48.60101]]}},
{"type":"Feature","properties":{"uuid":"CRNA_Nord_Frequencies","textStyle":{"color":[0,0,0],"fontFamily":"Arial","fontSize":12,"fontWeight":600,"text":"DOGS"}},"geometry":{"type":"MultiPoint","coordinates":[[2.316852,48.638833]]}}
]}